"abi"	"coname"	"addr"	"city"	"state"	"zip"	"stcode"	"cntycd"	"prmsic"	"ssic1"	"sicd"	"pnacode"	"pnatitl"	"latitude_2010"	"longitude_2010"
"606122992"	"123 CAFE"	"123 AVENUE U"	"BROOKLYN"	"NY"	"11223"	"36"	"047"	"581228"	"581228"	"COFFEE SHOPS"	"72251505"	"SNACK & NONALCOHOLIC BEVERAGE BARS"	40.5965	-73.9798
"707088938"	"156 COFFEE TEX MEX"	"156 KNICKERBOCKER AVE"	"BROOKLYN"	"NY"	"11237"	"36"	"047"	"581228"		"COFFEE SHOPS"	"72251505"	"SNACK & NONALCOHOLIC BEVERAGE BARS"	40.704	-73.9281
"403508378"	"207 DELI GRILL"	"4930 BROADWAY"	"NEW YORK"	"NY"	"10034"	"36"	"061"	"581228"	"581228"	"COFFEE SHOPS"	"72251505"	"SNACK & NONALCOHOLIC BEVERAGE BARS"	40.8675	-73.9214
"259150670"	"24 7 COFFEE"	"5904 18TH AVE # 101"	"BROOKLYN"	"NY"	"11204"	"36"	"047"	"581228"	"581228"	"COFFEE SHOPS"	"72251505"	"SNACK & NONALCOHOLIC BEVERAGE BARS"	40.6226	-73.9871
"416334576"	"2955 BROADWAY CORP"	"2953 BROADWAY"	"NEW YORK"	"NY"	"10025"	"36"	"061"	"581228"		"COFFEE SHOPS"	"72251505"	"SNACK & NONALCOHOLIC BEVERAGE BARS"	40.8044	-73.9664
"414461281"	"34 STREET COFFEE SHOP INC"	"593 1ST AVE"	"NEW YORK"	"NY"	"10016"	"36"	"061"	"581228"	"581228"	"COFFEE SHOPS"	"72251505"	"SNACK & NONALCOHOLIC BEVERAGE BARS"	40.7438	-73.9739
"716648241"	"38 STREET COFFEE SHOP"	"32 W 38TH ST # 1"	"NEW YORK"	"NY"	"10018"	"36"	"061"	"581228"		"COFFEE SHOPS"	"72251505"	"SNACK & NONALCOHOLIC BEVERAGE BARS"	40.7514	-73.9844
"425870337"	"39 COFFEE SHOP CORP"	"39 W 31ST ST"	"NEW YORK"	"NY"	"10001"	"36"	"061"	"581228"	"581228"	"COFFEE SHOPS"	"72251505"	"SNACK & NONALCOHOLIC BEVERAGE BARS"	40.7476	-73.9876
"414520621"	"94 CORNER CAFE"	"2518 BROADWAY"	"NEW YORK"	"NY"	"10025"	"36"	"061"	"581228"	"581220"	"COFFEE SHOPS"	"72251505"	"SNACK & NONALCOHOLIC BEVERAGE BARS"	40.7933	-73.9725
"389573916"	"A & A COFFEE SHOP"	"46 W 21ST ST"	"NEW YORK"	"NY"	"10010"	"36"	"061"	"581228"	"581228"	"COFFEE SHOPS"	"72251505"	"SNACK & NONALCOHOLIC BEVERAGE BARS"	40.741	-73.9928
"427579931"	"A B BIAGI NEW YORK LLC"	"235 ELIZABETH ST"	"NEW YORK"	"NY"	"10012"	"36"	"061"	"581228"	"581228"	"COFFEE SHOPS"	"72251505"	"SNACK & NONALCOHOLIC BEVERAGE BARS"	40.7231	-73.9941
"400785445"	"ABELS COFFEE SVC INC"	"200 E BROADWAY"	"NEW YORK"	"NY"	"10002"	"36"	"061"	"581228"	"581228"	"COFFEE SHOPS"	"72251505"	"SNACK & NONALCOHOLIC BEVERAGE BARS"	40.7144	-73.9879
"400807415"	"ACO INC"	"13 SAINT MARKS PL # 2"	"NEW YORK"	"NY"	"10003"	"36"	"061"	"581228"		"COFFEE SHOPS"	"72251505"	"SNACK & NONALCOHOLIC BEVERAGE BARS"	40.7294	-73.9889
"521379560"	"ADJ COFFEE SHOP"	"1 BROOKDALE PLZ"	"BROOKLYN"	"NY"	"11212"	"36"	"047"	"581228"		"COFFEE SHOPS"	"72251505"	"SNACK & NONALCOHOLIC BEVERAGE BARS"	40.6553	-73.9136
"402828530"	"A J CLASSIC CAFE & GRILL INC"	"1637 BROADWAY # A"	"BROOKLYN"	"NY"	"11207"	"36"	"047"	"581228"		"COFFEE SHOPS"	"72251505"	"SNACK & NONALCOHOLIC BEVERAGE BARS"	40.6852	-73.9139
"401467480"	"ALEFF COFFEE HOUSE INC"	"333 W 39TH ST # 1"	"NEW YORK"	"NY"	"10018"	"36"	"061"	"581228"		"COFFEE SHOPS"	"72251505"	"SNACK & NONALCOHOLIC BEVERAGE BARS"	40.7562	-73.9926
"405030684"	"ALIZEE COFFEE SHOP"	"146 WILSON AVE"	"BROOKLYN"	"NY"	"11237"	"36"	"047"	"581228"	"581228"	"COFFEE SHOPS"	"72251505"	"SNACK & NONALCOHOLIC BEVERAGE BARS"	40.7004	-73.9254
"239006752"	"ALKARIM COFFEE"	"2572 STEINWAY ST"	"ASTORIA"	"NY"	"11103"	"36"	"081"	"581228"		"COFFEE SHOPS"	"72251505"	"SNACK & NONALCOHOLIC BEVERAGE BARS"	40.7663	-73.9133
"354340903"	"AMERICAN COFFEE SHOP"	"108 MOORE ST"	"BROOKLYN"	"NY"	"11206"	"36"	"047"	"581228"	"581228"	"COFFEE SHOPS"	"72251505"	"SNACK & NONALCOHOLIC BEVERAGE BARS"	40.7035	-73.9411
"404629066"	"AMIGO NINETY NINE OF WILLIS"	"400 E 141ST ST"	"BRONX"	"NY"	"10454"	"36"	"005"	"581228"		"COFFEE SHOPS"	"72251505"	"SNACK & NONALCOHOLIC BEVERAGE BARS"	40.8107	-73.9212
"436682135"	"ANATOLIYS DELUXE COFFEE"	"286 AVENUE U"	"BROOKLYN"	"NY"	"11223"	"36"	"047"	"581228"		"COFFEE SHOPS"	"72251505"	"SNACK & NONALCOHOLIC BEVERAGE BARS"	40.5969	-73.9732
"657364709"	"ANDREW'S COFFEE SHOP"	"901 CHURCH AVE"	"BROOKLYN"	"NY"	"11218"	"36"	"047"	"581228"		"COFFEE SHOPS"	"72251505"	"SNACK & NONALCOHOLIC BEVERAGE BARS"	40.6467	-73.9707
"113028856"	"ANDREW'S COFFEE SHOP"	"463 FASHION AVE # 2"	"NEW YORK"	"NY"	"10018"	"36"	"061"	"581228"	"581228"	"COFFEE SHOPS"	"72251505"	"SNACK & NONALCOHOLIC BEVERAGE BARS"	40.7516	-73.9895
"521476200"	"ANGELAS COFFEE SHOP"	"1571 BROADWAY"	"BROOKLYN"	"NY"	"11207"	"36"	"047"	"581228"		"COFFEE SHOPS"	"72251505"	"SNACK & NONALCOHOLIC BEVERAGE BARS"	40.6859	-73.9153
"436682134"	"A P CREATIVE CAFE"	"420 TROUTMAN ST"	"BROOKLYN"	"NY"	"11237"	"36"	"047"	"581228"		"COFFEE SHOPS"	"72251505"	"SNACK & NONALCOHOLIC BEVERAGE BARS"	40.7071	-73.9221
"403327690"	"ARCADE COFFEE"	"27 W 47TH ST # B20"	"NEW YORK"	"NY"	"10036"	"36"	"061"	"581228"		"COFFEE SHOPS"	"72251505"	"SNACK & NONALCOHOLIC BEVERAGE BARS"	40.7574	-73.98
"417750479"	"ARGO TEA CAFE"	"75 UNIVERSITY PL"	"NEW YORK"	"NY"	"10003"	"36"	"061"	"581228"	"581228"	"COFFEE SHOPS"	"72251505"	"SNACK & NONALCOHOLIC BEVERAGE BARS"	40.7332	-73.9932
"604885400"	"AROMA ESPRESSO BAR"	"145 GREENE ST"	"NEW YORK"	"NY"	"10012"	"36"	"061"	"581228"	"581228"	"COFFEE SHOPS"	"72251505"	"SNACK & NONALCOHOLIC BEVERAGE BARS"	40.7254	-73.9992
"403898508"	"AROMA ON 42 ST"	"205 E 42ND ST"	"NEW YORK"	"NY"	"10017"	"36"	"061"	"581228"	"596104"	"COFFEE SHOPS"	"72251505"	"SNACK & NONALCOHOLIC BEVERAGE BARS"	40.7508	-73.9736
"415153800"	"ASTORIA BOULEVARD DONUTS LLC"	"8310 ASTORIA BLVD"	"EAST ELMHURST"	"NY"	"11370"	"36"	"081"	"581228"	"581228"	"COFFEE SHOPS"	"72251505"	"SNACK & NONALCOHOLIC BEVERAGE BARS"	40.7644	-73.8855
"700084349"	"ASTRONS COFFEE SHOP INC"	"3750 BROADWAY"	"NEW YORK"	"NY"	"10032"	"36"	"061"	"581228"		"COFFEE SHOPS"	"72251505"	"SNACK & NONALCOHOLIC BEVERAGE BARS"	40.8331	-73.9451
"421945605"	"ATHOM CAFE"	"1096 BROADWAY"	"BROOKLYN"	"NY"	"11221"	"36"	"047"	"581228"	"581228"	"COFFEE SHOPS"	"72251505"	"SNACK & NONALCOHOLIC BEVERAGE BARS"	40.6941	-73.9306
"682756101"	"AVE COFFEE"	"4501 GREENPOINT AVE"	"SUNNYSIDE"	"NY"	"11104"	"36"	"081"	"581228"	"581214"	"COFFEE SHOPS"	"72251505"	"SNACK & NONALCOHOLIC BEVERAGE BARS"	40.7425	-73.9191
"402976744"	"AVE'S COFFEE SHOP"	"23 W 47TH ST # 24"	"NEW YORK"	"NY"	"10036"	"36"	"061"	"581228"	"581228"	"COFFEE SHOPS"	"72251505"	"SNACK & NONALCOHOLIC BEVERAGE BARS"	40.7592	-73.9884
"401867600"	"BARCEY'S COFFEE BAGEL"	"143 SAINT NICHOLAS AVE"	"BROOKLYN"	"NY"	"11237"	"36"	"047"	"581228"		"COFFEE SHOPS"	"72251505"	"SNACK & NONALCOHOLIC BEVERAGE BARS"	40.7048	-73.917
"706971476"	"BAY PLAZA JAVA"	"200 BAYCHESTER AVE"	"BRONX"	"NY"	"10475"	"36"	"005"	"581228"		"COFFEE SHOPS"	"72251505"	"SNACK & NONALCOHOLIC BEVERAGE BARS"	40.8702	-73.832
"422006305"	"B CUP"	"212 AVENUE B # 3"	"NEW YORK"	"NY"	"10009"	"36"	"061"	"581228"		"COFFEE SHOPS"	"72251505"	"SNACK & NONALCOHOLIC BEVERAGE BARS"	40.7287	-73.9788
"436043018"	"BEAN"	"101 BEDFORD AVE"	"BROOKLYN"	"NY"	"11211"	"36"	"047"	"581228"		"COFFEE SHOPS"	"72251505"	"SNACK & NONALCOHOLIC BEVERAGE BARS"	40.7203	-73.955
"426287547"	"BEAN & BEAN"	"21021 NORTHERN BLVD"	"BAYSIDE"	"NY"	"11361"	"36"	"081"	"581228"		"COFFEE SHOPS"	"72251505"	"SNACK & NONALCOHOLIC BEVERAGE BARS"	40.7596	-73.7728
"220319818"	"BEAN COFFEE & TEA"	"49 1/2 1ST AVE # 1"	"NEW YORK"	"NY"	"10003"	"36"	"061"	"581228"	"581228"	"COFFEE SHOPS"	"72251505"	"SNACK & NONALCOHOLIC BEVERAGE BARS"	40.7246	-73.9876
"417278998"	"BEAN INC"	"473 AMSTERDAM AVE"	"NEW YORK"	"NY"	"10024"	"36"	"061"	"581228"		"COFFEE SHOPS"	"72251505"	"SNACK & NONALCOHOLIC BEVERAGE BARS"	40.7854	-73.9763
"400785446"	"BEAN N BEAN CORP"	"71 BROADWAY # 2"	"NEW YORK"	"NY"	"10006"	"36"	"061"	"581228"		"COFFEE SHOPS"	"72251505"	"SNACK & NONALCOHOLIC BEVERAGE BARS"	40.7072	-74.0123
"269358115"	"BEANS & CREPES"	"2650 CONEY ISLAND AVE"	"BROOKLYN"	"NY"	"11223"	"36"	"047"	"581228"	"581228"	"COFFEE SHOPS"	"72251505"	"SNACK & NONALCOHOLIC BEVERAGE BARS"	40.5922	-73.9609
"427064727"	"BEANS & LEAVES COFFEE-TEA CAFE"	"422 FOREST AVE"	"STATEN ISLAND"	"NY"	"10301"	"36"	"085"	"581228"	"581228"	"COFFEE SHOPS"	"72251505"	"SNACK & NONALCOHOLIC BEVERAGE BARS"	40.6307	-74.1035
"701979035"	"BEL AMI"	"30 E 68TH ST # 1"	"NEW YORK"	"NY"	"10065"	"36"	"061"	"581228"		"COFFEE SHOPS"	"72251505"	"SNACK & NONALCOHOLIC BEVERAGE BARS"	40.769	-73.9671
"239009640"	"BELLO RESTAURANT CORP"	"435 DEKALB AVE # 2"	"BROOKLYN"	"NY"	"11205"	"36"	"047"	"581228"	"581220"	"COFFEE SHOPS"	"72251505"	"SNACK & NONALCOHOLIC BEVERAGE BARS"	40.6906	-73.96
"417515067"	"B & E MOCHA JAVA"	"28 E 33RD ST"	"NEW YORK"	"NY"	"10016"	"36"	"061"	"581228"	"581228"	"COFFEE SHOPS"	"72251505"	"SNACK & NONALCOHOLIC BEVERAGE BARS"	40.7467	-73.9831
"589569185"	"BETSY JONNY COFFEE & RSTRNT"	"6722 FRESH POND RD"	"RIDGEWOOD"	"NY"	"11385"	"36"	"081"	"546105"	"581228"	"DOUGHNUTS"	"72251510"	"SNACK & NONALCOHOLIC BEVERAGE BARS"	40.7052	-73.8966
"425469584"	"BIRCH COFFEE"	"56 7TH AVE # 2"	"NEW YORK"	"NY"	"10011"	"36"	"061"	"581228"		"COFFEE SHOPS"	"72251505"	"SNACK & NONALCOHOLIC BEVERAGE BARS"	40.7383	-74
"427053505"	"BIRCH COFFEE"	"750 COLUMBUS AVE # 2"	"NEW YORK"	"NY"	"10025"	"36"	"061"	"581228"		"COFFEE SHOPS"	"72251505"	"SNACK & NONALCOHOLIC BEVERAGE BARS"	40.7934	-73.9677
"705856113"	"BIRCH COFFEE"	"134 E 62ND ST"	"NEW YORK"	"NY"	"10065"	"36"	"061"	"581228"		"COFFEE SHOPS"	"72251505"	"SNACK & NONALCOHOLIC BEVERAGE BARS"	40.7641	-73.9673
"604413518"	"BISTRO NEW YORK"	"21902 NORTHERN BLVD # 2D"	"BAYSIDE"	"NY"	"11361"	"36"	"081"	"581228"	"581228"	"COFFEE SHOPS"	"72251505"	"SNACK & NONALCOHOLIC BEVERAGE BARS"	40.761	-73.7625
"643420599"	"BITTERSWEET"	"180 DEKALB AVE"	"BROOKLYN"	"NY"	"11205"	"36"	"047"	"581228"	"581228"	"COFFEE SHOPS"	"72251505"	"SNACK & NONALCOHOLIC BEVERAGE BARS"	40.6895	-73.9725
"401499394"	"BJESHKA CAFE"	"400 E 198TH ST"	"BRONX"	"NY"	"10458"	"36"	"005"	"581228"	"581228"	"COFFEE SHOPS"	"72251505"	"SNACK & NONALCOHOLIC BEVERAGE BARS"	40.8664	-73.8865
"414414688"	"B K COFFY"	"381 RIDER AVE"	"BRONX"	"NY"	"10451"	"36"	"005"	"581228"	"581228"	"COFFEE SHOPS"	"72251505"	"SNACK & NONALCOHOLIC BEVERAGE BARS"	40.8148	-73.9258
"421193982"	"BLUE BOTTLE COFFEE"	"1 ROCKEFELLER PLZ # CONC1"	"NEW YORK"	"NY"	"10020"	"36"	"061"	"581228"		"COFFEE SHOPS"	"72251505"	"SNACK & NONALCOHOLIC BEVERAGE BARS"	40.758	-73.978
"421204935"	"BLUE BOTTLE LLC"	"450 W 15TH ST # 1"	"NEW YORK"	"NY"	"10011"	"36"	"061"	"581228"		"COFFEE SHOPS"	"72251505"	"SNACK & NONALCOHOLIC BEVERAGE BARS"	40.7425	-74.0068
"375371010"	"BLUE SPOON COFFEE CO LLC"	"76 CHAMBERS ST"	"NEW YORK"	"NY"	"10007"	"36"	"061"	"581228"	"581228"	"COFFEE SHOPS"	"72251505"	"SNACK & NONALCOHOLIC BEVERAGE BARS"	40.7143	-74.0069
"209249168"	"BOLA COFFEE CO"	"14 WALL ST"	"NEW YORK"	"NY"	"10005"	"36"	"061"	"581228"		"COFFEE SHOPS"	"72251505"	"SNACK & NONALCOHOLIC BEVERAGE BARS"	40.7076	-74.0107
"687088401"	"BOULEVARD CAFE"	"253 BUSHWICK AVE"	"BROOKLYN"	"NY"	"11206"	"36"	"047"	"581228"	"581228"	"COFFEE SHOPS"	"72251505"	"SNACK & NONALCOHOLIC BEVERAGE BARS"	40.7072	-73.9395
"421970173"	"BOWERY COFFEE"	"89 E HOUSTON ST"	"NEW YORK"	"NY"	"10012"	"36"	"061"	"581228"	"581228"	"COFFEE SHOPS"	"72251505"	"SNACK & NONALCOHOLIC BEVERAGE BARS"	40.7239	-73.9924
"403327013"	"BRAD'S BREW"	"10 WAVERLY PL"	"NEW YORK"	"NY"	"10003"	"36"	"061"	"581228"	"581228"	"COFFEE SHOPS"	"72251505"	"SNACK & NONALCOHOLIC BEVERAGE BARS"	40.7299	-73.9943
"415165148"	"BRAD'S BREW"	"2950 BROADWAY"	"NEW YORK"	"NY"	"10027"	"36"	"061"	"581228"		"COFFEE SHOPS"	"72251505"	"SNACK & NONALCOHOLIC BEVERAGE BARS"	40.8077	-73.9639
"434298406"	"BREW B X INC"	"3217 PHILIP AVE"	"BRONX"	"NY"	"10465"	"36"	"005"	"581228"		"COFFEE SHOPS"	"72251505"	"SNACK & NONALCOHOLIC BEVERAGE BARS"	40.831	-73.8178
"704994480"	"BROADWAY COFFEE SHOP"	"691 BROADWAY"	"BROOKLYN"	"NY"	"11206"	"36"	"047"	"581228"		"COFFEE SHOPS"	"72251505"	"SNACK & NONALCOHOLIC BEVERAGE BARS"	40.7019	-73.9434
"606125052"	"BROADWILL ASSOCIATES"	"1710 EASTERN PKWY"	"BROOKLYN"	"NY"	"11233"	"36"	"047"	"581228"	"581228"	"COFFEE SHOPS"	"72251505"	"SNACK & NONALCOHOLIC BEVERAGE BARS"	40.6726	-73.9116
"425458970"	"BROOKLYN ROASTING CO"	"200 FLUSHING AVE"	"BROOKLYN"	"NY"	"11205"	"36"	"047"	"581228"	"581228"	"COFFEE SHOPS"	"72251505"	"SNACK & NONALCOHOLIC BEVERAGE BARS"	40.6975	-73.968
"633499553"	"BROTHER'S COFFEE SHOP"	"16923 JAMAICA AVE"	"JAMAICA"	"NY"	"11432"	"36"	"081"	"581228"		"COFFEE SHOPS"	"72251505"	"SNACK & NONALCOHOLIC BEVERAGE BARS"	40.7073	-73.7899
"409270331"	"BROWN CUP INC"	"1707 2ND AVE # 1"	"NEW YORK"	"NY"	"10128"	"36"	"061"	"581228"		"COFFEE SHOPS"	"72251505"	"SNACK & NONALCOHOLIC BEVERAGE BARS"	40.7796	-73.9509
"403802767"	"BUONGIORNO ESPRESSO"	"502 9TH AVE"	"NEW YORK"	"NY"	"10018"	"36"	"061"	"581228"	"581228"	"COFFEE SHOPS"	"72251505"	"SNACK & NONALCOHOLIC BEVERAGE BARS"	40.7559	-73.9941
"707103757"	"BUSWICK COFFEE SHOP-JUICE BAR"	"1050 WYCKOFF AVE"	"RIDGEWOOD"	"NY"	"11385"	"36"	"081"	"581228"		"COFFEE SHOPS"	"72251505"	"SNACK & NONALCOHOLIC BEVERAGE BARS"	40.6949	-73.9033
"402822198"	"CAFE 2000 CORONA CORP"	"4008A JUNCTION BLVD"	"CORONA"	"NY"	"11368"	"36"	"081"	"581228"	"581228"	"COFFEE SHOPS"	"72251505"	"SNACK & NONALCOHOLIC BEVERAGE BARS"	40.7487	-73.8693
"672778537"	"CAFE 39 GOURMET DELI"	"62 W 39TH ST"	"NEW YORK"	"NY"	"10018"	"36"	"061"	"581228"	"581228"	"COFFEE SHOPS"	"72251505"	"SNACK & NONALCOHOLIC BEVERAGE BARS"	40.7524	-73.9852
"421970780"	"CAFE AL MERCATO"	"2344 ARTHUR AVE"	"BRONX"	"NY"	"10458"	"36"	"005"	"581228"		"COFFEE SHOPS"	"72251505"	"SNACK & NONALCOHOLIC BEVERAGE BARS"	40.8541	-73.8881
"434708257"	"CAFE BOCA CIEGA"	"355 BROADWAY"	"NEW YORK"	"NY"	"10013"	"36"	"061"	"581228"		"COFFEE SHOPS"	"72251505"	"SNACK & NONALCOHOLIC BEVERAGE BARS"	40.7174	-74.0042
"426606197"	"CAFE EIGHTY EIGHT INC"	"162 E 37TH ST"	"NEW YORK"	"NY"	"10016"	"36"	"061"	"581228"	"581228"	"COFFEE SHOPS"	"72251505"	"SNACK & NONALCOHOLIC BEVERAGE BARS"	40.7477	-73.9773
"682697107"	"CAFE ITALIA SOCCER CLUB"	"3009 MIDDLETOWN RD"	"BRONX"	"NY"	"10461"	"36"	"005"	"581228"	"581228"	"COFFEE SHOPS"	"72251505"	"SNACK & NONALCOHOLIC BEVERAGE BARS"	40.8442	-73.8301
"436528730"	"CAFE JAX"	"318 E 84TH ST"	"NEW YORK"	"NY"	"10028"	"36"	"061"	"581228"		"COFFEE SHOPS"	"72251505"	"SNACK & NONALCOHOLIC BEVERAGE BARS"	40.776	-73.9519
"405031898"	"CAFE LA SEMEUSE"	"105 FREEMAN ST # 1"	"BROOKLYN"	"NY"	"11222"	"36"	"047"	"581228"	"581228"	"COFFEE SHOPS"	"72251505"	"SNACK & NONALCOHOLIC BEVERAGE BARS"	40.7344	-73.9576
"421993183"	"CAFE LEX 52"	"144 E 52ND ST"	"NEW YORK"	"NY"	"10022"	"36"	"061"	"581228"		"COFFEE SHOPS"	"72251505"	"SNACK & NONALCOHOLIC BEVERAGE BARS"	40.7575	-73.9712
"401675419"	"CAFE MINERVA"	"302 W 4TH ST"	"NEW YORK"	"NY"	"10014"	"36"	"061"	"581228"	"581228"	"COFFEE SHOPS"	"72251505"	"SNACK & NONALCOHOLIC BEVERAGE BARS"	40.7369	-74.0039
"425692687"	"CAFE NOAI"	"1465 2ND AVE # 76"	"NEW YORK"	"NY"	"10075"	"36"	"061"	"581228"	"581228"	"COFFEE SHOPS"	"72251505"	"SNACK & NONALCOHOLIC BEVERAGE BARS"	40.7717	-73.9564
"422233545"	"CAFE SHALVA"	"1305 53RD ST"	"BROOKLYN"	"NY"	"11219"	"36"	"047"	"581228"	"581214"	"COFFEE SHOPS"	"72251505"	"SNACK & NONALCOHOLIC BEVERAGE BARS"	40.6327	-73.9941
"705373037"	"CAFFE BENE"	"4131 QUEENS BLVD"	"SUNNYSIDE"	"NY"	"11104"	"36"	"081"	"581228"		"COFFEE SHOPS"	"72251505"	"SNACK & NONALCOHOLIC BEVERAGE BARS"	40.7439	-73.9226
"427929440"	"CAFFE BENE"	"15814 NORTHERN BLVD # ML4"	"FLUSHING"	"NY"	"11358"	"36"	"081"	"581228"		"COFFEE SHOPS"	"72251505"	"SNACK & NONALCOHOLIC BEVERAGE BARS"	40.7629	-73.8068
"425252031"	"CAFFEINE FIX"	"14940 41ST AVE"	"FLUSHING"	"NY"	"11355"	"36"	"081"	"581228"		"COFFEE SHOPS"	"72251505"	"SNACK & NONALCOHOLIC BEVERAGE BARS"	40.7622	-73.8143
"680073624"	"CAFFE PALERMO"	"148 MULBERRY ST"	"NEW YORK"	"NY"	"10013"	"36"	"061"	"581228"	"581214"	"COFFEE SHOPS"	"72251505"	"SNACK & NONALCOHOLIC BEVERAGE BARS"	40.719	-73.9973
"436689644"	"CAFFINO"	"2918 CRESCENT ST"	"ASTORIA"	"NY"	"11102"	"36"	"081"	"581228"		"COFFEE SHOPS"	"72251505"	"SNACK & NONALCOHOLIC BEVERAGE BARS"	40.7691	-73.9249
"633448485"	"CALESTO COFFEE SHOP"	"4604 3RD AVE"	"BROOKLYN"	"NY"	"11220"	"36"	"047"	"581228"		"COFFEE SHOPS"	"72251505"	"SNACK & NONALCOHOLIC BEVERAGE BARS"	40.65	-74.0128
"698506979"	"CARNIVAL LATIN BISTRO CORP"	"4325 BROADWAY"	"NEW YORK"	"NY"	"10033"	"36"	"061"	"581228"	"581220"	"COFFEE SHOPS"	"72251505"	"SNACK & NONALCOHOLIC BEVERAGE BARS"	40.8525	-73.9347
"378645402"	"CASA JAVA"	"625 8TH AVE # 112"	"NEW YORK"	"NY"	"10018"	"36"	"061"	"581228"	"581228"	"COFFEE SHOPS"	"72251505"	"SNACK & NONALCOHOLIC BEVERAGE BARS"	40.7562	-73.9907
"428101311"	"CASELLA BAGEL COFFEE SHOP"	"66 WILLOUGHBY ST"	"BROOKLYN"	"NY"	"11201"	"36"	"047"	"581228"		"COFFEE SHOPS"	"72251505"	"SNACK & NONALCOHOLIC BEVERAGE BARS"	40.692	-73.9861
"403836090"	"C & C DELI COFFEE SHOP"	"2438 EASTCHESTER RD"	"BRONX"	"NY"	"10469"	"36"	"005"	"581228"		"COFFEE SHOPS"	"72251505"	"SNACK & NONALCOHOLIC BEVERAGE BARS"	40.8623	-73.8428
"428100041"	"CHAITTY COFFEE SHOP"	"392 HALSEY ST"	"BROOKLYN"	"NY"	"11216"	"36"	"047"	"581228"		"COFFEE SHOPS"	"72251505"	"SNACK & NONALCOHOLIC BEVERAGE BARS"	40.6831	-73.9382
"659041883"	"CHAPINES BAKERY"	"1858 CORNAGA AVE"	"FAR ROCKAWAY"	"NY"	"11691"	"36"	"081"	"581228"		"COFFEE SHOPS"	"72251505"	"SNACK & NONALCOHOLIC BEVERAGE BARS"	40.6025	-73.7517
"706008418"	"CHATIME"	"8121 BROADWAY"	"ELMHURST"	"NY"	"11373"	"36"	"081"	"581228"		"COFFEE SHOPS"	"72251505"	"SNACK & NONALCOHOLIC BEVERAGE BARS"	40.7433	-73.8835
"705155688"	"CHEAP COFFEE LLC"	"414 8TH ST"	"BROOKLYN"	"NY"	"11215"	"36"	"047"	"581228"		"COFFEE SHOPS"	"72251505"	"SNACK & NONALCOHOLIC BEVERAGE BARS"	40.6673	-73.9806
"422292356"	"CHIPPED CUP"	"3610 BROADWAY"	"NEW YORK"	"NY"	"10031"	"36"	"061"	"581228"		"COFFEE SHOPS"	"72251505"	"SNACK & NONALCOHOLIC BEVERAGE BARS"	40.8286	-73.9486
"206082513"	"CHOCOLATE BAR EAST VILLAGE INC"	"19 8TH AVE"	"NEW YORK"	"NY"	"10014"	"36"	"061"	"581228"	"581208"	"COFFEE SHOPS"	"72251505"	"SNACK & NONALCOHOLIC BEVERAGE BARS"	40.7378	-74.0048
"426309232"	"CHOCOLATTE"	"792 EASTERN PKWY"	"BROOKLYN"	"NY"	"11213"	"36"	"047"	"581228"	"581228"	"COFFEE SHOPS"	"72251505"	"SNACK & NONALCOHOLIC BEVERAGE BARS"	40.6689	-73.942
"222149163"	"CHRIS'S COFFEE SHOP"	"900 E 149TH ST"	"BRONX"	"NY"	"10455"	"36"	"005"	"581228"		"COFFEE SHOPS"	"72251505"	"SNACK & NONALCOHOLIC BEVERAGE BARS"	40.8102	-73.9034
"705253824"	"CIBUCAN COFFEE"		"DOUGLASTON"	"NY"	"11362"	"36"	"081"	"581228"		"COFFEE SHOPS"	"72251505"	"SNACK & NONALCOHOLIC BEVERAGE BARS"	40.76	-73.7315
"436288400"	"CITY OF SAINTS COFFEE ROASTERS"	"79 E 10TH ST"	"NEW YORK"	"NY"	"10003"	"36"	"061"	"581228"		"COFFEE SHOPS"	"72251505"	"SNACK & NONALCOHOLIC BEVERAGE BARS"	40.7312	-73.99
"388478141"	"CITY PERK"	"7 W 34TH ST"	"NEW YORK"	"NY"	"10001"	"36"	"061"	"581228"	"919904"	"COFFEE SHOPS"	"72251505"	"SNACK & NONALCOHOLIC BEVERAGE BARS"	40.7492	-73.9852
"578837163"	"CLAUDIA'S COFFEE SHOP"	"125 BROAD ST"	"NEW YORK"	"NY"	"10004"	"36"	"061"	"581228"	"581228"	"COFFEE SHOPS"	"72251505"	"SNACK & NONALCOHOLIC BEVERAGE BARS"	40.7023	-74.0106
"375447588"	"C M COFFEE SHOP"	"340 STANHOPE ST"	"BROOKLYN"	"NY"	"11237"	"36"	"047"	"581228"	"581228"	"COFFEE SHOPS"	"72251505"	"SNACK & NONALCOHOLIC BEVERAGE BARS"	40.7036	-73.9175
"700566202"	"COCO FRESH TEA & JUICE"	"4540 BELL BLVD"	"BAYSIDE"	"NY"	"11361"	"36"	"081"	"581228"		"COFFEE SHOPS"	"72251505"	"SNACK & NONALCOHOLIC BEVERAGE BARS"	40.7591	-73.7691
"433336237"	"COFFEE AMERICA USA CORP"	"30 WALL ST # 9"	"NEW YORK"	"NY"	"10005"	"36"	"061"	"581228"	"581228"	"COFFEE SHOPS"	"72251505"	"SNACK & NONALCOHOLIC BEVERAGE BARS"	40.7071	-74.0101
"434937395"	"COFFEE BEAN & TEA LEAF"	"606 2ND AVE"	"NEW YORK"	"NY"	"10016"	"36"	"061"	"581228"		"COFFEE SHOPS"	"72251505"	"SNACK & NONALCOHOLIC BEVERAGE BARS"	40.7445	-73.976
"427934244"	"COFFEE BEAN & TEA LEAF"	"350 W 14TH ST # 1"	"NEW YORK"	"NY"	"10014"	"36"	"061"	"581228"	"581228"	"COFFEE SHOPS"	"72251505"	"SNACK & NONALCOHOLIC BEVERAGE BARS"	40.7405	-74.0049
"417549288"	"COFFEE BEAN & TEA LEAF"	"1469 3RD AVE"	"NEW YORK"	"NY"	"10028"	"36"	"061"	"581228"		"COFFEE SHOPS"	"72251505"	"SNACK & NONALCOHOLIC BEVERAGE BARS"	40.7766	-73.9552
"415456172"	"COFFEE BEAN & TEA LEAF"	"392 COLUMBUS AVE"	"NEW YORK"	"NY"	"10024"	"36"	"061"	"581228"		"COFFEE SHOPS"	"72251505"	"SNACK & NONALCOHOLIC BEVERAGE BARS"	40.7818	-73.9758
"425662227"	"COFFEE BEAN & TEA LEAF"	"189 BLEECKER ST"	"NEW YORK"	"NY"	"10012"	"36"	"061"	"581228"	"581228"	"COFFEE SHOPS"	"72251505"	"SNACK & NONALCOHOLIC BEVERAGE BARS"	40.7294	-74.0013
"415443212"	"COFFEE BEAN & TEA LEAF"	"532 AMSTERDAM AVE"	"NEW YORK"	"NY"	"10024"	"36"	"061"	"581228"	"581228"	"COFFEE SHOPS"	"72251505"	"SNACK & NONALCOHOLIC BEVERAGE BARS"	40.7876	-73.9752
"408362001"	"COFFEE BEAN & TEA LEAF"	"1412 BROOKLYN AVE"	"BROOKLYN"	"NY"	"11210"	"36"	"047"	"581228"	"581228"	"COFFEE SHOPS"	"72251505"	"SNACK & NONALCOHOLIC BEVERAGE BARS"	40.6385	-73.9425
"421724920"	"COFFEE BEAN & TEA LEAF"	"405 PARK AVE"	"NEW YORK"	"NY"	"10022"	"36"	"061"	"581228"		"COFFEE SHOPS"	"72251505"	"SNACK & NONALCOHOLIC BEVERAGE BARS"	40.7597	-73.9716
"706070401"	"COFFEE BEAN & TEA LEAF"	"280 BROADWAY # 3"	"NEW YORK"	"NY"	"10007"	"36"	"061"	"581228"		"COFFEE SHOPS"	"72251505"	"SNACK & NONALCOHOLIC BEVERAGE BARS"	40.7142	-74.0058
"402369354"	"COFFEE BITES"	"824 WASHINGTON AVE # 2"	"BROOKLYN"	"NY"	"11238"	"36"	"047"	"581228"		"COFFEE SHOPS"	"72251505"	"SNACK & NONALCOHOLIC BEVERAGE BARS"	40.6733	-73.9632
"676682412"	"COFFEE & DONUTS AT ELM AVE"	"1510 ELM AVE"	"BROOKLYN"	"NY"	"11230"	"36"	"047"	"581228"	"581203"	"COFFEE SHOPS"	"72251505"	"SNACK & NONALCOHOLIC BEVERAGE BARS"	40.6178	-73.9598
"423652488"	"COFFEE HOUSE"	"17 WILSON AVE"	"BROOKLYN"	"NY"	"11237"	"36"	"047"	"581228"		"COFFEE SHOPS"	"72251505"	"SNACK & NONALCOHOLIC BEVERAGE BARS"	40.7035	-73.9301
"706380908"	"COFFEE LLC"	"220 E 42ND ST"	"NEW YORK"	"NY"	"10017"	"36"	"061"	"581228"		"COFFEE SHOPS"	"72251505"	"SNACK & NONALCOHOLIC BEVERAGE BARS"	40.7498	-73.9732
"654795806"	"COFFEE POT"	"2819 23RD AVE"	"ASTORIA"	"NY"	"11105"	"36"	"081"	"581228"	"581228"	"COFFEE SHOPS"	"72251505"	"SNACK & NONALCOHOLIC BEVERAGE BARS"	40.7753	-73.9138
"209631993"	"COFFEE SHOP"	"762 SNEDIKER AVE"	"BROOKLYN"	"NY"	"11207"	"36"	"047"	"581228"		"COFFEE SHOPS"	"72251505"	"SNACK & NONALCOHOLIC BEVERAGE BARS"	40.6561	-73.8979
"521503441"	"COFFEE SHOP"	"16848 JAMAICA AVE"	"JAMAICA"	"NY"	"11432"	"36"	"081"	"581228"		"COFFEE SHOPS"	"72251505"	"SNACK & NONALCOHOLIC BEVERAGE BARS"	40.7069	-73.7906
"806780136"	"COFFEE SHOP"	"29 UNION SQ W"	"NEW YORK"	"NY"	"10003"	"36"	"061"	"581228"	"581208"	"COFFEE SHOPS"	"72251505"	"SNACK & NONALCOHOLIC BEVERAGE BARS"	40.7365	-73.9912
"402822199"	"COFFEE SHOP"	"12021 JAMAICA AVE"	"RICHMOND HILL"	"NY"	"11418"	"36"	"081"	"581228"		"COFFEE SHOPS"	"72251505"	"SNACK & NONALCOHOLIC BEVERAGE BARS"	40.7004	-73.8297
"634909733"	"COMMON GROUNDS"	"376 TOMPKINS AVE"	"BROOKLYN"	"NY"	"11216"	"36"	"047"	"581228"	"581228"	"COFFEE SHOPS"	"72251505"	"SNACK & NONALCOHOLIC BEVERAGE BARS"	40.6844	-73.9444
"425267563"	"COMMON GROUNDS"	"525 W 42ND ST"	"NEW YORK"	"NY"	"10036"	"36"	"061"	"581228"		"COFFEE SHOPS"	"72251505"	"SNACK & NONALCOHOLIC BEVERAGE BARS"	40.7603	-73.9967
"633400940"	"COMMUNITEA"	"4122 42ND ST # 1G"	"SUNNYSIDE"	"NY"	"11104"	"36"	"081"	"581228"	"581228"	"COFFEE SHOPS"	"72251505"	"SNACK & NONALCOHOLIC BEVERAGE BARS"	40.7463	-73.9221
"633370390"	"CONDADO"	"444 MOTHER GASTON BLVD"	"BROOKLYN"	"NY"	"11212"	"36"	"047"	"581228"		"COFFEE SHOPS"	"72251505"	"SNACK & NONALCOHOLIC BEVERAGE BARS"	40.6681	-73.9068
"427462309"	"CORPORATE COFFEE SYSTEMS INC"	"1325 BOSTON RD"	"BRONX"	"NY"	"10456"	"36"	"005"	"581228"		"COFFEE SHOPS"	"72251505"	"SNACK & NONALCOHOLIC BEVERAGE BARS"	40.8321	-73.8995
"260337894"	"CORPORATE COFFEE SYSTEMS LLC"	"148 W 37TH ST # 5"	"NEW YORK"	"NY"	"10018"	"36"	"061"	"581228"	"596307"	"COFFEE SHOPS"	"72251505"	"SNACK & NONALCOHOLIC BEVERAGE BARS"	40.7525	-73.9889
"426306413"	"CORSO COFFEE"	"235 W 46TH ST"	"NEW YORK"	"NY"	"10036"	"36"	"061"	"581228"		"COFFEE SHOPS"	"72251505"	"SNACK & NONALCOHOLIC BEVERAGE BARS"	40.7596	-73.987
"424299244"	"COUNTY COFFEE BAR & CANTINA"	"34 E 20TH ST # A"	"NEW YORK"	"NY"	"10003"	"36"	"061"	"581228"		"COFFEE SHOPS"	"72251505"	"SNACK & NONALCOHOLIC BEVERAGE BARS"	40.7385	-73.9888
"408396908"	"CROP TO CUP COFFEE CO"	"529 W 111TH ST"	"NEW YORK"	"NY"	"10025"	"36"	"061"	"581228"		"COFFEE SHOPS"	"72251505"	"SNACK & NONALCOHOLIC BEVERAGE BARS"	40.8045	-73.9647
"422079399"	"CROSBY COFFEE"	"667 CLASSON AVE # B"	"BROOKLYN"	"NY"	"11238"	"36"	"047"	"581228"		"COFFEE SHOPS"	"72251505"	"SNACK & NONALCOHOLIC BEVERAGE BARS"	40.6773	-73.9589
"619157100"	"CRUZ COFFEE SHOP"	"1876 FULTON ST # A"	"BROOKLYN"	"NY"	"11233"	"36"	"047"	"581228"	"581228"	"COFFEE SHOPS"	"72251505"	"SNACK & NONALCOHOLIC BEVERAGE BARS"	40.6787	-73.9244
"641087101"	"CUENCA COFFEE SHOP"	"9529 JAMAICA AVE"	"WOODHAVEN"	"NY"	"11421"	"36"	"081"	"581228"		"COFFEE SHOPS"	"72251505"	"SNACK & NONALCOHOLIC BEVERAGE BARS"	40.6947	-73.8493
"421470407"	"CULTURE"	"1010 AVE OF THE AMER # 1"	"NEW YORK"	"NY"	"10018"	"36"	"061"	"581228"		"COFFEE SHOPS"	"72251505"	"SNACK & NONALCOHOLIC BEVERAGE BARS"	40.7518	-73.9859
"700016957"	"DAILY CUPPA COFFEE"	"1472 52ND ST # 3D"	"BROOKLYN"	"NY"	"11219"	"36"	"047"	"581228"		"COFFEE SHOPS"	"72251505"	"SNACK & NONALCOHOLIC BEVERAGE BARS"	40.6308	-73.9902
"427842818"	"DAILY PRESS COFFEE"	"181 HAVEMEYER ST"	"BROOKLYN"	"NY"	"11211"	"36"	"047"	"581228"		"COFFEE SHOPS"	"72251505"	"SNACK & NONALCOHOLIC BEVERAGE BARS"	40.7107	-73.958
"425102565"	"DAMICO COFFEE"	"56 NELSON ST # 2"	"BROOKLYN"	"NY"	"11231"	"36"	"047"	"581228"		"COFFEE SHOPS"	"72251505"	"SNACK & NONALCOHOLIC BEVERAGE BARS"	40.6777	-74.0037
"422073769"	"DARLING COFFEE"	"4961 BROADWAY"	"NEW YORK"	"NY"	"10034"	"36"	"061"	"581228"	"581228"	"COFFEE SHOPS"	"72251505"	"SNACK & NONALCOHOLIC BEVERAGE BARS"	40.8681	-73.9202
"707060574"	"DAYLIGHT DONUTS"	"9 BROADWAY"	"NEW YORK"	"NY"	"10004"	"36"	"061"	"546105"	"581228"	"DOUGHNUTS"	"72251510"	"SNACK & NONALCOHOLIC BEVERAGE BARS"	40.7052	-74.014
"404592268"	"D & C COFFEE SHOP"	"10408 37TH AVE"	"CORONA"	"NY"	"11368"	"36"	"081"	"581228"		"COFFEE SHOPS"	"72251505"	"SNACK & NONALCOHOLIC BEVERAGE BARS"	40.7533	-73.863
"403987425"	"DEBARA COFFE SHOP"	"144 AVENUE T"	"BROOKLYN"	"NY"	"11223"	"36"	"047"	"581228"		"COFFEE SHOPS"	"72251505"	"SNACK & NONALCOHOLIC BEVERAGE BARS"	40.5983	-73.98
"253228159"	"DELICIAS MANABITAS CORP"	"4205 35TH AVE"	"LONG ISLAND CITY"	"NY"	"11101"	"36"	"081"	"581228"		"COFFEE SHOPS"	"72251505"	"SNACK & NONALCOHOLIC BEVERAGE BARS"	40.7544	-73.9201
"404614303"	"DE LUXE"	"410 7TH AVE"	"BROOKLYN"	"NY"	"11215"	"36"	"047"	"581228"		"COFFEE SHOPS"	"72251505"	"SNACK & NONALCOHOLIC BEVERAGE BARS"	40.6645	-73.984
"426266381"	"DEMARCO COFFEE"	"569 LEXINGTON AVE"	"NEW YORK"	"NY"	"10022"	"36"	"061"	"581228"		"COFFEE SHOPS"	"72251505"	"SNACK & NONALCOHOLIC BEVERAGE BARS"	40.7567	-73.9715
"421150049"	"DENIM CAFE"	"1013 BEDFORD AVE"	"BROOKLYN"	"NY"	"11205"	"36"	"047"	"581228"	"581228"	"COFFEE SHOPS"	"72251505"	"SNACK & NONALCOHOLIC BEVERAGE BARS"	40.6893	-73.9548
"426825699"	"DESTINY SANDWICH SOUP COFFE BR"	"2166 FREDERICK DOUGLASS BLVD"	"NEW YORK"	"NY"	"10026"	"36"	"061"	"581228"	"581219"	"COFFEE SHOPS"	"72251505"	"SNACK & NONALCOHOLIC BEVERAGE BARS"	40.8052	-73.9548
"421979556"	"DOMA"	"27 1/2 MARTIN ST"	"NEW YORK"	"NY"	"10014"	"36"	"061"	"581228"		"COFFEE SHOPS"	"72251505"	"SNACK & NONALCOHOLIC BEVERAGE BARS"	40.7333	-74.0048
"258660125"	"E 2 SQUARE CAFE"	"240 PAGE AVE # 114"	"STATEN ISLAND"	"NY"	"10307"	"36"	"085"	"581228"	"581214"	"COFFEE SHOPS"	"72251505"	"SNACK & NONALCOHOLIC BEVERAGE BARS"	40.5196	-74.235
"416644500"	"EDDIE'S EXPRESS COFFEE SHOP"	"85 PITT ST"	"NEW YORK"	"NY"	"10002"	"36"	"061"	"581228"	"581228"	"COFFEE SHOPS"	"72251505"	"SNACK & NONALCOHOLIC BEVERAGE BARS"	40.7186	-73.9826
"383604857"	"EDITA COFFEE SHOP"	"1431 CROMWELL AVE"	"BRONX"	"NY"	"10452"	"36"	"005"	"581228"	"581228"	"COFFEE SHOPS"	"72251505"	"SNACK & NONALCOHOLIC BEVERAGE BARS"	40.8419	-73.9193
"225708080"	"EL CERRITO DEL CARMEN RSTRNT"	"2024 MCDONALD AVE"	"BROOKLYN"	"NY"	"11223"	"36"	"047"	"581228"		"COFFEE SHOPS"	"72251505"	"SNACK & NONALCOHOLIC BEVERAGE BARS"	40.6033	-73.9727
"414414685"	"EL JIBARITO"	"703 HUNTS POINT AVE"	"BRONX"	"NY"	"10474"	"36"	"005"	"581228"		"COFFEE SHOPS"	"72251505"	"SNACK & NONALCOHOLIC BEVERAGE BARS"	40.8151	-73.8866
"415132319"	"EL TESORO COFFEE SHOP"	"6404 ROOSEVELT AVE"	"WOODSIDE"	"NY"	"11377"	"36"	"081"	"581228"		"COFFEE SHOPS"	"72251505"	"SNACK & NONALCOHOLIC BEVERAGE BARS"	40.7458	-73.9
"406164650"	"EMILY COFFEE SHOP"	"1368 CROMWELL AVE"	"BRONX"	"NY"	"10452"	"36"	"005"	"581228"		"COFFEE SHOPS"	"72251505"	"SNACK & NONALCOHOLIC BEVERAGE BARS"	40.8404	-73.92
"400785466"	"EMPORIO"	"231 MOTT ST # A"	"NEW YORK"	"NY"	"10012"	"36"	"061"	"581228"	"581228"	"COFFEE SHOPS"	"72251505"	"SNACK & NONALCOHOLIC BEVERAGE BARS"	40.7226	-73.9953
"433208623"	"ENVY CAFE INC"	"9402 80TH ST"	"OZONE PARK"	"NY"	"11416"	"36"	"081"	"581228"		"COFFEE SHOPS"	"72251505"	"SNACK & NONALCOHOLIC BEVERAGE BARS"	40.6845	-73.861
"425565589"	"ESPARKS COFFEE"	"6429 MYRTLE AVE"	"GLENDALE"	"NY"	"11385"	"36"	"081"	"581228"	"581228"	"COFFEE SHOPS"	"72251505"	"SNACK & NONALCOHOLIC BEVERAGE BARS"	40.7012	-73.8914
"649848900"	"ESPRESSO"	"3557 77TH ST"	"JACKSON HEIGHTS"	"NY"	"11372"	"36"	"081"	"581228"		"COFFEE SHOPS"	"72251505"	"SNACK & NONALCOHOLIC BEVERAGE BARS"	40.7497	-73.8889
"684102148"	"ESPRESSO BAR"	"1465 2ND AVE # 76-77"	"NEW YORK"	"NY"	"10075"	"36"	"061"	"581228"	"581228"	"COFFEE SHOPS"	"72251505"	"SNACK & NONALCOHOLIC BEVERAGE BARS"	40.7717	-73.9564
"404194618"	"ESPRESSO DREAM"	"42 E 46TH ST"	"NEW YORK"	"NY"	"10017"	"36"	"061"	"581228"	"581228"	"COFFEE SHOPS"	"72251505"	"SNACK & NONALCOHOLIC BEVERAGE BARS"	40.7551	-73.9771
"427370284"	"ESPRESSO ROOM INC"	"305 E 45TH ST"	"NEW YORK"	"NY"	"10017"	"36"	"061"	"581228"	"581228"	"COFFEE SHOPS"	"72251505"	"SNACK & NONALCOHOLIC BEVERAGE BARS"	40.7518	-73.9699
"433908855"	"EXPRESS COFFEE SHOP"	"723 5TH AVE"	"BROOKLYN"	"NY"	"11215"	"36"	"047"	"581228"		"COFFEE SHOPS"	"72251505"	"SNACK & NONALCOHOLIC BEVERAGE BARS"	40.6605	-73.9943
"417526777"	"EXPRESSO DREAM LLC"	"8 W 46TH ST"	"NEW YORK"	"NY"	"10036"	"36"	"061"	"581228"		"COFFEE SHOPS"	"72251505"	"SNACK & NONALCOHOLIC BEVERAGE BARS"	40.7563	-73.9798
"589654243"	"FABIANES CAFE & PASTRY"	"142 N 5TH ST"	"BROOKLYN"	"NY"	"11211"	"36"	"047"	"581228"	"581228"	"COFFEE SHOPS"	"72251505"	"SNACK & NONALCOHOLIC BEVERAGE BARS"	40.7165	-73.9589
"467382222"	"FALLAR CO"	"101 MAIDEN LN"	"NEW YORK"	"NY"	"10038"	"36"	"061"	"581228"	"581228"	"COFFEE SHOPS"	"72251505"	"SNACK & NONALCOHOLIC BEVERAGE BARS"	40.707	-74.0069
"427506065"	"FAMILY BROWN SUGAR WEST INDIAN"	"884 RUTLAND RD"	"BROOKLYN"	"NY"	"11203"	"36"	"047"	"581228"		"COFFEE SHOPS"	"72251505"	"SNACK & NONALCOHOLIC BEVERAGE BARS"	40.6604	-73.9301
"416689224"	"FASHION COFFEE SHOP"	"9722 57TH AVE # 11M"	"CORONA"	"NY"	"11368"	"36"	"081"	"581228"		"COFFEE SHOPS"	"72251505"	"SNACK & NONALCOHOLIC BEVERAGE BARS"	40.7364	-73.8631
"403981073"	"FIDEL'S COFFEE SHOP"	"1089 SOUTHERN BLVD"	"BRONX"	"NY"	"10459"	"36"	"005"	"581228"		"COFFEE SHOPS"	"72251505"	"SNACK & NONALCOHOLIC BEVERAGE BARS"	40.8247	-73.8921
"646202382"	"FIFTH AVENUE COFFEE BAR"	"42 W 35TH ST"	"NEW YORK"	"NY"	"10001"	"36"	"061"	"581228"		"COFFEE SHOPS"	"72251505"	"SNACK & NONALCOHOLIC BEVERAGE BARS"	40.7497	-73.9858
"422007378"	"FIFTH AVENUE RSTRNT & DINER"	"432 5TH AVE"	"BROOKLYN"	"NY"	"11215"	"36"	"047"	"581228"	"581228"	"COFFEE SHOPS"	"72251505"	"SNACK & NONALCOHOLIC BEVERAGE BARS"	40.6697	-73.9862
"705078272"	"FIKA"	"114 W 41ST ST"	"NEW YORK"	"NY"	"10036"	"36"	"061"	"581228"		"COFFEE SHOPS"	"72251505"	"SNACK & NONALCOHOLIC BEVERAGE BARS"	40.7543	-73.9852
"705108151"	"FIKA"	"122 E 42ND ST # 1"	"NEW YORK"	"NY"	"10168"	"36"	"061"	"581228"		"COFFEE SHOPS"	"72251505"	"SNACK & NONALCOHOLIC BEVERAGE BARS"	40.7511	-73.9763
"400306507"	"FIKA ESPRESSO BAR"	"41 W 58TH ST # 2"	"NEW YORK"	"NY"	"10019"	"36"	"061"	"581228"		"COFFEE SHOPS"	"72251505"	"SNACK & NONALCOHOLIC BEVERAGE BARS"	40.7644	-73.9751
"700084517"	"FILLIE'S"	"8320 3RD AVE"	"BROOKLYN"	"NY"	"11209"	"36"	"047"	"581228"		"COFFEE SHOPS"	"72251505"	"SNACK & NONALCOHOLIC BEVERAGE BARS"	40.6252	-74.0307
"420388392"	"F & J DELI COFFEE"	"2140 WESTCHESTER AVE"	"BRONX"	"NY"	"10462"	"36"	"005"	"581228"	"581228"	"COFFEE SHOPS"	"72251505"	"SNACK & NONALCOHOLIC BEVERAGE BARS"	40.8339	-73.8531
"436682137"	"FOCA COFFEE SHOP"	"119 WYCKOFF AVE"	"BROOKLYN"	"NY"	"11237"	"36"	"047"	"581228"		"COFFEE SHOPS"	"72251505"	"SNACK & NONALCOHOLIC BEVERAGE BARS"	40.7044	-73.9192
"400785468"	"FRAME"	"424 W 33RD ST # 2"	"NEW YORK"	"NY"	"10001"	"36"	"061"	"581228"	"581228"	"COFFEE SHOPS"	"72251505"	"SNACK & NONALCOHOLIC BEVERAGE BARS"	40.753	-73.9981
"433561901"	"FRIEND COFFEE SHOP"	"1035 MANHATTAN AVE # A"	"BROOKLYN"	"NY"	"11222"	"36"	"047"	"581228"		"COFFEE SHOPS"	"72251505"	"SNACK & NONALCOHOLIC BEVERAGE BARS"	40.7342	-73.9552
"599759917"	"GARDEN COFFEE SHOP"	"2955 WEBSTER AVE"	"BRONX"	"NY"	"10458"	"36"	"005"	"581228"		"COFFEE SHOPS"	"72251505"	"SNACK & NONALCOHOLIC BEVERAGE BARS"	40.8677	-73.8834
"234605590"	"GIMME COFFEE"	"495 LORIMER ST"	"BROOKLYN"	"NY"	"11211"	"36"	"047"	"581228"	"581228"	"COFFEE SHOPS"	"72251505"	"SNACK & NONALCOHOLIC BEVERAGE BARS"	40.7117	-73.9493
"403158336"	"GIMME! COFFEE"	"107 ROEBLING ST"	"BROOKLYN"	"NY"	"11211"	"36"	"047"	"581228"		"COFFEE SHOPS"	"72251505"	"SNACK & NONALCOHOLIC BEVERAGE BARS"	40.7154	-73.9557
"114753056"	"GIOIOSA CAFFE ESPRESSO"	"6814 20TH AVE"	"BROOKLYN"	"NY"	"11204"	"36"	"047"	"581228"	"581228"	"COFFEE SHOPS"	"72251505"	"SNACK & NONALCOHOLIC BEVERAGE BARS"	40.6146	-73.9882
"423905445"	"GLOBE COFFEE SHOP"	"3086 51ST ST"	"WOODSIDE"	"NY"	"11377"	"36"	"081"	"581228"		"COFFEE SHOPS"	"72251505"	"SNACK & NONALCOHOLIC BEVERAGE BARS"	40.757	-73.908
"485383764"	"GLORIA JEAN'S COFFEE"	"2655 RICHMOND AVE # 2175"	"STATEN ISLAND"	"NY"	"10314"	"36"	"085"	"581228"	"581228"	"COFFEE SHOPS"	"72251505"	"SNACK & NONALCOHOLIC BEVERAGE BARS"	40.5812	-74.1661
"608174785"	"GLORIA JEAN'S COFFEE"	"9015 QUEENS BLVD # 1037"	"ELMHURST"	"NY"	"11373"	"36"	"081"	"581228"	"581208"	"COFFEE SHOPS"	"72251505"	"SNACK & NONALCOHOLIC BEVERAGE BARS"	40.7346	-73.8709
"427831591"	"GOLD COFFEE INC"	"4206 COLLEGE POINT BLVD"	"FLUSHING"	"NY"	"11355"	"36"	"081"	"581228"	"581228"	"COFFEE SHOPS"	"72251505"	"SNACK & NONALCOHOLIC BEVERAGE BARS"	40.7546	-73.8333
"436285143"	"GONG CHA"	"13620 ROOSEVELT AVE"	"FLUSHING"	"NY"	"11354"	"36"	"081"	"581228"		"COFFEE SHOPS"	"72251505"	"SNACK & NONALCOHOLIC BEVERAGE BARS"	40.7593	-73.8292
"224539072"	"GORILLA COFFEE INC"	"97 5TH AVE"	"BROOKLYN"	"NY"	"11217"	"36"	"047"	"581228"	"581228"	"COFFEE SHOPS"	"72251505"	"SNACK & NONALCOHOLIC BEVERAGE BARS"	40.6797	-73.9779
"403162219"	"GREENE STREET COFFEE LLC"	"110 GREENE ST"	"NEW YORK"	"NY"	"10012"	"36"	"061"	"581228"	"581228"	"COFFEE SHOPS"	"72251505"	"SNACK & NONALCOHOLIC BEVERAGE BARS"	40.7245	-73.9996
"428127213"	"GREEN NATURE COFFEE HOUSE"	"555 W 42ND ST"	"NEW YORK"	"NY"	"10036"	"36"	"061"	"581228"		"COFFEE SHOPS"	"72251505"	"SNACK & NONALCOHOLIC BEVERAGE BARS"	40.7608	-73.9982
"409282540"	"GREGORY'S COFFEE"	"12 E 46TH ST"	"NEW YORK"	"NY"	"10017"	"36"	"061"	"581228"	"546102"	"COFFEE SHOPS"	"72251505"	"SNACK & NONALCOHOLIC BEVERAGE BARS"	40.7554	-73.9782
"624062659"	"GREGORY'S COFFEE"	"327 PARK AVE S # 1"	"NEW YORK"	"NY"	"10010"	"36"	"061"	"581228"	"581228"	"COFFEE SHOPS"	"72251505"	"SNACK & NONALCOHOLIC BEVERAGE BARS"	40.7409	-73.9855
"434949243"	"GREGORY'S COFFEE"	"551 MADISON AVE"	"NEW YORK"	"NY"	"10022"	"36"	"061"	"581228"		"COFFEE SHOPS"	"72251505"	"SNACK & NONALCOHOLIC BEVERAGE BARS"	40.761	-73.9732
"402538335"	"GREGORY'S COFFEE"	"421 7TH AVE # 553"	"NEW YORK"	"NY"	"10001"	"36"	"061"	"581228"	"581208"	"COFFEE SHOPS"	"72251505"	"SNACK & NONALCOHOLIC BEVERAGE BARS"	40.7503	-73.9906
"422144845"	"GREGORY'S COFFEE"	"874 AVENUE OF THE AMERICAS"	"NEW YORK"	"NY"	"10001"	"36"	"061"	"581228"		"COFFEE SHOPS"	"72251505"	"SNACK & NONALCOHOLIC BEVERAGE BARS"	40.7477	-73.989
"434949242"	"GREGORY'S COFFEE"	"42 BROADWAY"	"NEW YORK"	"NY"	"10004"	"36"	"061"	"581228"		"COFFEE SHOPS"	"72251505"	"SNACK & NONALCOHOLIC BEVERAGE BARS"	40.7064	-74.0128
"403327051"	"GREGORY'S COFFEE"	"58 W 44TH ST"	"NEW YORK"	"NY"	"10036"	"36"	"061"	"581228"	"581214"	"COFFEE SHOPS"	"72251505"	"SNACK & NONALCOHOLIC BEVERAGE BARS"	40.7558	-73.9826
"643570500"	"GREY DOGS COFFEE"	"90 UNIVERSITY PL"	"NEW YORK"	"NY"	"10003"	"36"	"061"	"581228"	"581208"	"COFFEE SHOPS"	"72251505"	"SNACK & NONALCOHOLIC BEVERAGE BARS"	40.7337	-73.9931
"433861327"	"GRIND"	"1183 BEDFORD AVE"	"BROOKLYN"	"NY"	"11216"	"36"	"047"	"581228"		"COFFEE SHOPS"	"72251505"	"SNACK & NONALCOHOLIC BEVERAGE BARS"	40.683	-73.9535
"433274183"	"GROUND CENTRAL COFFEE CO"	"155 E 52ND ST # B"	"NEW YORK"	"NY"	"10022"	"36"	"061"	"581228"		"COFFEE SHOPS"	"72251505"	"SNACK & NONALCOHOLIC BEVERAGE BARS"	40.7575	-73.9703
"485668826"	"GUYAND GALLARD"	"180 MADISON AVE # A"	"NEW YORK"	"NY"	"10016"	"36"	"061"	"581228"	"581228"	"COFFEE SHOPS"	"72251505"	"SNACK & NONALCOHOLIC BEVERAGE BARS"	40.7477	-73.9832
"229096029"	"GUY & GALLARD"	"120 E 34TH ST # 2"	"NEW YORK"	"NY"	"10016"	"36"	"061"	"581228"	"581228"	"COFFEE SHOPS"	"72251505"	"SNACK & NONALCOHOLIC BEVERAGE BARS"	40.7463	-73.9803
"540839644"	"GUY & GALLARD IV"	"339 7TH AVE # 1"	"NEW YORK"	"NY"	"10001"	"36"	"061"	"581228"	"581228"	"COFFEE SHOPS"	"72251505"	"SNACK & NONALCOHOLIC BEVERAGE BARS"	40.7478	-73.9928
"463020446"	"HIDDEN COTTAGE HILL OF BEANS"	"286 NEW DORP LN"	"STATEN ISLAND"	"NY"	"10306"	"36"	"085"	"581228"	"581228"	"COFFEE SHOPS"	"72251505"	"SNACK & NONALCOHOLIC BEVERAGE BARS"	40.5719	-74.1129
"689303220"	"HIGH POINT COFFEE"	"581 5TH AVE # 1"	"BROOKLYN"	"NY"	"11215"	"36"	"047"	"581228"		"COFFEE SHOPS"	"72251505"	"SNACK & NONALCOHOLIC BEVERAGE BARS"	40.6646	-73.9898
"607366614"	"HILLIER GOURMET COFFEE CO INC"	"91 WRIGHT AVE"	"STATEN ISLAND"	"NY"	"10303"	"36"	"085"	"581228"		"COFFEE SHOPS"	"72251505"	"SNACK & NONALCOHOLIC BEVERAGE BARS"	40.6347	-74.1493
"400339987"	"HOCK COFFEE SHOP"	"300 WESTERN AVE"	"STATEN ISLAND"	"NY"	"10303"	"36"	"085"	"581228"		"COFFEE SHOPS"	"72251505"	"SNACK & NONALCOHOLIC BEVERAGE BARS"	40.6339	-74.1825
"436288442"	"HOLE IN THE WALL COFFEE"	"420 5TH AVE"	"NEW YORK"	"NY"	"10018"	"36"	"061"	"581228"		"COFFEE SHOPS"	"72251505"	"SNACK & NONALCOHOLIC BEVERAGE BARS"	40.7508	-73.9833
"633308853"	"H & S COFFEE SHOP"	"18815 NORTHERN BLVD"	"FLUSHING"	"NY"	"11358"	"36"	"081"	"581228"	"581228"	"COFFEE SHOPS"	"72251505"	"SNACK & NONALCOHOLIC BEVERAGE BARS"	40.758	-73.7923
"424280921"	"HUMRO BHIMY CAFE"	"7410 37TH RD"	"JACKSON HEIGHTS"	"NY"	"11372"	"36"	"081"	"581228"		"COFFEE SHOPS"	"72251505"	"SNACK & NONALCOHOLIC BEVERAGE BARS"	40.7472	-73.8906
"433205459"	"HUNGRY GHOST COFFEE BAR & CAFE"	"781 FULTON ST"	"BROOKLYN"	"NY"	"11217"	"36"	"047"	"581228"		"COFFEE SHOPS"	"72251505"	"SNACK & NONALCOHOLIC BEVERAGE BARS"	40.6861	-73.9736
"227656840"	"II GALLO CEDRONE"	"116 HAVEMEYER ST"	"BROOKLYN"	"NY"	"11211"	"36"	"047"	"581228"	"581228"	"COFFEE SHOPS"	"72251505"	"SNACK & NONALCOHOLIC BEVERAGE BARS"	40.7128	-73.9569
"403327696"	"IL GALIO CEDRONE LI"	"37 CLINTON ST"	"NEW YORK"	"NY"	"10002"	"36"	"061"	"581228"		"COFFEE SHOPS"	"72251505"	"SNACK & NONALCOHOLIC BEVERAGE BARS"	40.72	-73.9847
"951195445"	"IMPERIAL COFFEE HOUSE"	"108 CHAMBERS ST # 1"	"NEW YORK"	"NY"	"10007"	"36"	"061"	"581228"	"581220"	"COFFEE SHOPS"	"72251505"	"SNACK & NONALCOHOLIC BEVERAGE BARS"	40.7148	-74.0082
"427940686"	"INTELLIGENTSIA COFFEE"	"180 10TH AVE"	"NEW YORK"	"NY"	"10011"	"36"	"061"	"581228"		"COFFEE SHOPS"	"72251505"	"SNACK & NONALCOHOLIC BEVERAGE BARS"	40.746	-74.005
"436291871"	"INTELLIGENTSIA COFFEE"	"1333 BROADWAY # 1"	"NEW YORK"	"NY"	"10018"	"36"	"061"	"581228"		"COFFEE SHOPS"	"72251505"	"SNACK & NONALCOHOLIC BEVERAGE BARS"	40.7512	-73.9882
"558377743"	"INTERNATIONAL COFFEE SHOP"	"5940 MYRTLE AVE"	"RIDGEWOOD"	"NY"	"11385"	"36"	"081"	"581228"	"581228"	"COFFEE SHOPS"	"72251505"	"SNACK & NONALCOHOLIC BEVERAGE BARS"	40.7004	-73.8983
"402953190"	"INTERNET GARAGE"	"132 N 5TH ST"	"BROOKLYN"	"NY"	"11249"	"36"	"047"	"581228"		"COFFEE SHOPS"	"72251505"	"SNACK & NONALCOHOLIC BEVERAGE BARS"	40.7169	-73.9592
"257706051"	"IRVING FARM"	"71 IRVING PL"	"NEW YORK"	"NY"	"10003"	"36"	"061"	"581228"	"581228"	"COFFEE SHOPS"	"72251505"	"SNACK & NONALCOHOLIC BEVERAGE BARS"	40.7368	-73.987
"421177677"	"IRVING FARM COFFEE"	"224 W 79TH ST"	"NEW YORK"	"NY"	"10024"	"36"	"061"	"581228"	"581228"	"COFFEE SHOPS"	"72251505"	"SNACK & NONALCOHOLIC BEVERAGE BARS"	40.7833	-73.9795
"427940682"	"IRVING FARM COFFEE ROASTERS"	"107 E 42ND ST"	"NEW YORK"	"NY"	"10017"	"36"	"061"	"581228"		"COFFEE SHOPS"	"72251505"	"SNACK & NONALCOHOLIC BEVERAGE BARS"	40.7519	-73.9769
"238717276"	"ISAAC'S COFFEE SHOP"	"3001 AVENUE K"	"BROOKLYN"	"NY"	"11210"	"36"	"047"	"581228"	"581228"	"COFFEE SHOPS"	"72251505"	"SNACK & NONALCOHOLIC BEVERAGE BARS"	40.6246	-73.9463
"408341970"	"ISLAND HOUSE COFFEE CO"	"867 SINCLAIR AVE"	"STATEN ISLAND"	"NY"	"10309"	"36"	"085"	"581228"		"COFFEE SHOPS"	"72251505"	"SNACK & NONALCOHOLIC BEVERAGE BARS"	40.5398	-74.205
"425103924"	"IVAN COFFEE SHOP"	"9327 JAMAICA AVE"	"WOODHAVEN"	"NY"	"11421"	"36"	"081"	"581228"	"581228"	"COFFEE SHOPS"	"72251505"	"SNACK & NONALCOHOLIC BEVERAGE BARS"	40.694	-73.8514
"425280770"	"JACK'S COFFEE IV LL"	"10 DOWNING ST"	"NEW YORK"	"NY"	"10014"	"36"	"061"	"581228"		"COFFEE SHOPS"	"72251505"	"SNACK & NONALCOHOLIC BEVERAGE BARS"	40.7292	-74.0028
"229427471"	"JACK'S COFFEE LLC"	"138 W 10TH ST"	"NEW YORK"	"NY"	"10014"	"36"	"061"	"581228"		"COFFEE SHOPS"	"72251505"	"SNACK & NONALCOHOLIC BEVERAGE BARS"	40.7345	-74.0006
"426275417"	"JACK'S COFFEE V"	"425 W 13TH ST"	"NEW YORK"	"NY"	"10014"	"36"	"061"	"581228"		"COFFEE SHOPS"	"72251505"	"SNACK & NONALCOHOLIC BEVERAGE BARS"	40.7409	-74.007
"615562956"	"JACK'S STIR BREW COFFEE"	"222 FRONT ST"	"NEW YORK"	"NY"	"10038"	"36"	"061"	"581228"	"581228"	"COFFEE SHOPS"	"72251505"	"SNACK & NONALCOHOLIC BEVERAGE BARS"	40.7076	-74.0022
"417099150"	"JAVA DAY"	"4358 162ND ST"	"FLUSHING"	"NY"	"11358"	"36"	"081"	"581228"	"581209"	"COFFEE SHOPS"	"72251505"	"SNACK & NONALCOHOLIC BEVERAGE BARS"	40.7571	-73.8047
"113444749"	"JAVA GIRL"	"348 E 66TH ST"	"NEW YORK"	"NY"	"10065"	"36"	"061"	"581228"	"594713"	"COFFEE SHOPS"	"72251505"	"SNACK & NONALCOHOLIC BEVERAGE BARS"	40.764	-73.9595
"652302209"	"JAVA PLUS"	"3520 147TH ST # 1F"	"FLUSHING"	"NY"	"11354"	"36"	"081"	"581228"		"COFFEE SHOPS"	"72251505"	"SNACK & NONALCOHOLIC BEVERAGE BARS"	40.7656	-73.82
"655112936"	"JAVA WORKS"	"721 BROADWAY"	"NEW YORK"	"NY"	"10003"	"36"	"061"	"581228"		"COFFEE SHOPS"	"72251505"	"SNACK & NONALCOHOLIC BEVERAGE BARS"	40.7293	-73.9937
"406140159"	"J D HAKA COFFEE CORP"	"13842 JAMAICA AVE"	"JAMAICA"	"NY"	"11435"	"36"	"081"	"581228"	"581228"	"COFFEE SHOPS"	"72251505"	"SNACK & NONALCOHOLIC BEVERAGE BARS"	40.7024	-73.814
"434298407"	"JENNY'S COFFEE SHOP THREE"	"1680 CLAY AVE"	"BRONX"	"NY"	"10457"	"36"	"005"	"581228"		"COFFEE SHOPS"	"72251505"	"SNACK & NONALCOHOLIC BEVERAGE BARS"	40.8435	-73.9047
"382423705"	"JESSI'S COFFEE SHOP"	"223 BUSHWICK AVE"	"BROOKLYN"	"NY"	"11206"	"36"	"047"	"581228"	"581228"	"COFFEE SHOPS"	"72251505"	"SNACK & NONALCOHOLIC BEVERAGE BARS"	40.7082	-73.9396
"215284399"	"JIMMY'S COFFEE SHOP"	"990 AVENUE OF THE AMERICAS"	"NEW YORK"	"NY"	"10018"	"36"	"061"	"581228"		"COFFEE SHOPS"	"72251505"	"SNACK & NONALCOHOLIC BEVERAGE BARS"	40.7514	-73.9865
"416099618"	"JITTERY JOE'S COFFEE"	"216 E 45TH ST"	"NEW YORK"	"NY"	"10017"	"36"	"061"	"581228"	"581208"	"COFFEE SHOPS"	"72251505"	"SNACK & NONALCOHOLIC BEVERAGE BARS"	40.7521	-73.9722
"396803058"	"JJK CAFE"	"3086 51ST ST"	"WOODSIDE"	"NY"	"11377"	"36"	"081"	"581228"		"COFFEE SHOPS"	"72251505"	"SNACK & NONALCOHOLIC BEVERAGE BARS"	40.757	-73.908
"696939016"	"JJS COFFEE SHOP"	"4021 GLENWOOD RD"	"BROOKLYN"	"NY"	"11210"	"36"	"047"	"581228"		"COFFEE SHOPS"	"72251505"	"SNACK & NONALCOHOLIC BEVERAGE BARS"	40.6349	-73.9375
"633482898"	"JOAQUIN COFFEE SHOP"	"1183 BROADWAY"	"BROOKLYN"	"NY"	"11221"	"36"	"047"	"581228"		"COFFEE SHOPS"	"72251505"	"SNACK & NONALCOHOLIC BEVERAGE BARS"	40.6927	-73.9272
"416053972"	"JOE COFFEE"	"1045 LEXINGTON AVE # 1"	"NEW YORK"	"NY"	"10021"	"36"	"061"	"581228"		"COFFEE SHOPS"	"72251505"	"SNACK & NONALCOHOLIC BEVERAGE BARS"	40.772	-73.9608
"227537107"	"JOE THE ART OF COFFEE"	"141 WAVERLY PL"	"NEW YORK"	"NY"	"10014"	"36"	"061"	"581228"	"581228"	"COFFEE SHOPS"	"72251505"	"SNACK & NONALCOHOLIC BEVERAGE BARS"	40.7334	-74.0005
"268814779"	"JOE THE ART OF COFFEE"	"9 E 13TH ST # 2"	"NEW YORK"	"NY"	"10003"	"36"	"061"	"581228"		"COFFEE SHOPS"	"72251505"	"SNACK & NONALCOHOLIC BEVERAGE BARS"	40.7352	-73.9937
"599789823"	"JOHN'S COFFEE SHOP"	"1786 WESTCHESTER AVE"	"BRONX"	"NY"	"10472"	"36"	"005"	"581228"	"581228"	"COFFEE SHOPS"	"72251505"	"SNACK & NONALCOHOLIC BEVERAGE BARS"	40.8317	-73.8668
"403142591"	"JR'S COFFEE SHOP"	"5816 59TH ST"	"MASPETH"	"NY"	"11378"	"36"	"081"	"581228"		"COFFEE SHOPS"	"72251505"	"SNACK & NONALCOHOLIC BEVERAGE BARS"	40.7205	-73.9085
"884172255"	"JUDGE ROY BEAN"	"38 W 56TH ST # 3"	"NEW YORK"	"NY"	"10019"	"36"	"061"	"581228"	"581228"	"COFFEE SHOPS"	"72251505"	"SNACK & NONALCOHOLIC BEVERAGE BARS"	40.7629	-73.9764
"422294051"	"KAHAWA COFFEE INC"	"222 15TH ST"	"BROOKLYN"	"NY"	"11215"	"36"	"047"	"581228"		"COFFEE SHOPS"	"72251505"	"SNACK & NONALCOHOLIC BEVERAGE BARS"	40.6653	-73.989
"427180513"	"KAVE ESPRESSO BAR"	"1087 FLUSHING AVE"	"BROOKLYN"	"NY"	"11237"	"36"	"047"	"581228"		"COFFEE SHOPS"	"72251505"	"SNACK & NONALCOHOLIC BEVERAGE BARS"	40.7051	-73.9285
"422309808"	"K COFFEE"	"58 W 31ST ST"	"NEW YORK"	"NY"	"10001"	"36"	"061"	"581228"	"581228"	"COFFEE SHOPS"	"72251505"	"SNACK & NONALCOHOLIC BEVERAGE BARS"	40.7475	-73.9885
"400801831"	"KINGSBRIDGE COFFEE SHOP"	"17 E KINGSBRIDGE RD"	"BRONX"	"NY"	"10468"	"36"	"005"	"581228"		"COFFEE SHOPS"	"72251505"	"SNACK & NONALCOHOLIC BEVERAGE BARS"	40.8674	-73.8969
"436285131"	"KINSHIP COFFEE"	"3005 STEINWAY ST"	"ASTORIA"	"NY"	"11103"	"36"	"081"	"581228"		"COFFEE SHOPS"	"72251505"	"SNACK & NONALCOHOLIC BEVERAGE BARS"	40.7628	-73.9157
"422359630"	"KITTEN COFFEE"	"187 SKILLMAN ST"	"BROOKLYN"	"NY"	"11205"	"36"	"047"	"581228"		"COFFEE SHOPS"	"72251505"	"SNACK & NONALCOHOLIC BEVERAGE BARS"	40.6926	-73.9566
"415552653"	"LA COLOMBE"	"400 LAFAYETTE ST # A"	"NEW YORK"	"NY"	"10003"	"36"	"061"	"581228"	"581228"	"COFFEE SHOPS"	"72251505"	"SNACK & NONALCOHOLIC BEVERAGE BARS"	40.7283	-73.9929
"421950248"	"LA COLOMBE"	"319 CHURCH ST"	"NEW YORK"	"NY"	"10013"	"36"	"061"	"581228"		"COFFEE SHOPS"	"72251505"	"SNACK & NONALCOHOLIC BEVERAGE BARS"	40.7198	-74.0038
"400782232"	"LA COLOMBE"	"270 LAFAYETTE ST"	"NEW YORK"	"NY"	"10012"	"36"	"061"	"581228"	"581208"	"COFFEE SHOPS"	"72251505"	"SNACK & NONALCOHOLIC BEVERAGE BARS"	40.7238	-73.9964
"405024976"	"LA FLACA COFFEESHOP"	"4217 102ND ST"	"CORONA"	"NY"	"11368"	"36"	"081"	"581228"		"COFFEE SHOPS"	"72251505"	"SNACK & NONALCOHOLIC BEVERAGE BARS"	40.7475	-73.8629
"425870328"	"LA KASBAH"	"498 9TH AVE"	"NEW YORK"	"NY"	"10018"	"36"	"061"	"581228"		"COFFEE SHOPS"	"72251505"	"SNACK & NONALCOHOLIC BEVERAGE BARS"	40.7556	-73.9943
"257705699"	"LA LANTERNA"	"129 MACDOUGAL ST"	"NEW YORK"	"NY"	"10012"	"36"	"061"	"581228"	"581228"	"COFFEE SHOPS"	"72251505"	"SNACK & NONALCOHOLIC BEVERAGE BARS"	40.7307	-74.0002
"579063975"	"LALI RESTAURANT"	"630 10TH AVE"	"NEW YORK"	"NY"	"10036"	"36"	"061"	"581228"	"581228"	"COFFEE SHOPS"	"72251505"	"SNACK & NONALCOHOLIC BEVERAGE BARS"	40.7613	-73.9939
"402828522"	"LA PARILLA DOMINICANA"	"3462 FULTON ST"	"BROOKLYN"	"NY"	"11208"	"36"	"047"	"581228"		"COFFEE SHOPS"	"72251505"	"SNACK & NONALCOHOLIC BEVERAGE BARS"	40.6846	-73.8679
"401826170"	"LA PETIT CAFE"	"3087 BRIGHTON 4TH ST # B"	"BROOKLYN"	"NY"	"11235"	"36"	"047"	"581228"		"COFFEE SHOPS"	"72251505"	"SNACK & NONALCOHOLIC BEVERAGE BARS"	40.577	-73.9631
"422079130"	"LARK"	"1005 CHURCH AVE"	"BROOKLYN"	"NY"	"11218"	"36"	"047"	"581228"		"COFFEE SHOPS"	"72251505"	"SNACK & NONALCOHOLIC BEVERAGE BARS"	40.6467	-73.9703
"989359526"	"LAS DELICIAS TROPICAL CORP"	"9316 37TH AVE # B"	"JACKSON HEIGHTS"	"NY"	"11372"	"36"	"081"	"581228"	"581228"	"COFFEE SHOPS"	"72251505"	"SNACK & NONALCOHOLIC BEVERAGE BARS"	40.7507	-73.8736
"425870329"	"LAUGHING COFFEE & TEA"	"1 N END AVE"	"NEW YORK"	"NY"	"10282"	"36"	"061"	"581228"	"581228"	"COFFEE SHOPS"	"72251505"	"SNACK & NONALCOHOLIC BEVERAGE BARS"	40.7146	-74.0169
"421470415"	"LAUGHING MAN WORLDWIDE LLC"	"184 DUANE ST"	"NEW YORK"	"NY"	"10013"	"36"	"061"	"581228"		"COFFEE SHOPS"	"72251505"	"SNACK & NONALCOHOLIC BEVERAGE BARS"	40.7172	-74.0101
"260133871"	"LAYALY CAFE"	"1547 ARTHUR KILL RD"	"STATEN ISLAND"	"NY"	"10312"	"36"	"085"	"581228"	"581228"	"COFFEE SHOPS"	"72251505"	"SNACK & NONALCOHOLIC BEVERAGE BARS"	40.5627	-74.1929
"427180537"	"LAZY IBIS LLC"	"663 FRANKLIN AVE"	"BROOKLYN"	"NY"	"11238"	"36"	"047"	"581228"	"729923"	"COFFEE SHOPS"	"72251505"	"SNACK & NONALCOHOLIC BEVERAGE BARS"	40.6758	-73.9558
"433279626"	"LE CAFE COFFEE"	"7 E 14TH ST # 7"	"NEW YORK"	"NY"	"10003"	"36"	"061"	"581228"	"581228"	"COFFEE SHOPS"	"72251505"	"SNACK & NONALCOHOLIC BEVERAGE BARS"	40.7359	-73.9925
"421953201"	"LE GAMIN"	"108 FRANKLIN ST"	"BROOKLYN"	"NY"	"11222"	"36"	"047"	"581228"	"581228"	"COFFEE SHOPS"	"72251505"	"SNACK & NONALCOHOLIC BEVERAGE BARS"	40.7283	-73.9571
"415585043"	"LENOX COFFEE"	"60 W 129TH ST"	"NEW YORK"	"NY"	"10027"	"36"	"061"	"581228"	"581228"	"COFFEE SHOPS"	"72251505"	"SNACK & NONALCOHOLIC BEVERAGE BARS"	40.8097	-73.9423
"707018589"	"L & G"	"180 DEKALB AVE"	"BROOKLYN"	"NY"	"11205"	"36"	"047"	"581228"		"COFFEE SHOPS"	"72251505"	"SNACK & NONALCOHOLIC BEVERAGE BARS"	40.6895	-73.9725
"402357141"	"LIA COFFEE SHOP"	"1176 GARRISON AVE"	"BRONX"	"NY"	"10474"	"36"	"005"	"581228"	"581228"	"COFFEE SHOPS"	"72251505"	"SNACK & NONALCOHOLIC BEVERAGE BARS"	40.8202	-73.8884
"433208624"	"LIBERTY COFFEE SHOP"	"8806 LIBERTY AVE"	"OZONE PARK"	"NY"	"11417"	"36"	"081"	"581228"		"COFFEE SHOPS"	"72251505"	"SNACK & NONALCOHOLIC BEVERAGE BARS"	40.6797	-73.8503
"436682139"	"LIGHTHOUSE COFFEE SHOP"	"7506 3RD AVE"	"BROOKLYN"	"NY"	"11209"	"36"	"047"	"581228"		"COFFEE SHOPS"	"72251505"	"SNACK & NONALCOHOLIC BEVERAGE BARS"	40.6313	-74.0282
"706380572"	"LITERAL LATTE"	"10 EAST RD"	"NEW YORK"	"NY"	"10003"	"36"	"061"	"581228"		"COFFEE SHOPS"	"72251505"	"SNACK & NONALCOHOLIC BEVERAGE BARS"	40.7314	-73.9886
"700529408"	"LITTLE COFFEE SHOP"	"5915 71ST AVE"	"RIDGEWOOD"	"NY"	"11385"	"36"	"081"	"581228"		"COFFEE SHOPS"	"72251505"	"SNACK & NONALCOHOLIC BEVERAGE BARS"	40.7008	-73.8993
"426824982"	"LONGO COFFEE & TEA"	"190 S 1ST ST"	"BROOKLYN"	"NY"	"11211"	"36"	"047"	"581228"		"COFFEE SHOPS"	"72251505"	"SNACK & NONALCOHOLIC BEVERAGE BARS"	40.7131	-73.9599
"700120354"	"LONGO COFFEE & TEA INC"	"142 8TH ST"	"BROOKLYN"	"NY"	"11215"	"36"	"047"	"581228"	"581228"	"COFFEE SHOPS"	"72251505"	"SNACK & NONALCOHOLIC BEVERAGE BARS"	40.6721	-73.9911
"434937396"	"LUNCH CAFE INC"	"776 AVENUE OF THE AMERICAS"	"NEW YORK"	"NY"	"10001"	"36"	"061"	"581228"		"COFFEE SHOPS"	"72251505"	"SNACK & NONALCOHOLIC BEVERAGE BARS"	40.7449	-73.9908
"982646390"	"LYDIG COFFEE SHOP"	"721 LYDIG AVE"	"BRONX"	"NY"	"10462"	"36"	"005"	"581228"	"581214"	"COFFEE SHOPS"	"72251505"	"SNACK & NONALCOHOLIC BEVERAGE BARS"	40.8546	-73.8665
"426022710"	"MACCHIATO"	"565 5TH AVE # A"	"NEW YORK"	"NY"	"10017"	"36"	"061"	"581228"		"COFFEE SHOPS"	"72251505"	"SNACK & NONALCOHOLIC BEVERAGE BARS"	40.7561	-73.9788
"402834225"	"MAD DONKEY"	"3207 36TH AVE"	"ASTORIA"	"NY"	"11106"	"36"	"081"	"581228"		"COFFEE SHOPS"	"72251505"	"SNACK & NONALCOHOLIC BEVERAGE BARS"	40.7563	-73.9285
"404794790"	"MADELYN COFFEE SHOP"	"1380 PARKER ST"	"BRONX"	"NY"	"10462"	"36"	"005"	"581228"	"581228"	"COFFEE SHOPS"	"72251505"	"SNACK & NONALCOHOLIC BEVERAGE BARS"	40.8363	-73.8471
"434298408"	"MAMA INEZ COFFY SHOP"	"3127 HULL AVE"	"BRONX"	"NY"	"10467"	"36"	"005"	"581228"		"COFFEE SHOPS"	"72251505"	"SNACK & NONALCOHOLIC BEVERAGE BARS"	40.8729	-73.8777
"951375666"	"MANHATTAN ESPRESSO"	"146 E 49TH ST # 1"	"NEW YORK"	"NY"	"10017"	"36"	"061"	"581228"	"581214"	"COFFEE SHOPS"	"72251505"	"SNACK & NONALCOHOLIC BEVERAGE BARS"	40.7553	-73.9722
"414520617"	"MARGALIT AVIV"	"2814 14TH ST"	"ASTORIA"	"NY"	"11102"	"36"	"081"	"581228"	"581228"	"COFFEE SHOPS"	"72251505"	"SNACK & NONALCOHOLIC BEVERAGE BARS"	40.7718	-73.9296
"401684076"	"MARIO'S COFFEE SHOP"	"2004 AMSTERDAM AVE"	"NEW YORK"	"NY"	"10032"	"36"	"061"	"581228"	"581208"	"COFFEE SHOPS"	"72251505"	"SNACK & NONALCOHOLIC BEVERAGE BARS"	40.8344	-73.9411
"400806882"	"MARTINSON COFFEE"	"190 FRANKLIN ST"	"NEW YORK"	"NY"	"10013"	"36"	"061"	"581228"		"COFFEE SHOPS"	"72251505"	"SNACK & NONALCOHOLIC BEVERAGE BARS"	40.7194	-74.0096
"216244426"	"MASAL CAFE"	"1901 EMMONS AVE"	"BROOKLYN"	"NY"	"11235"	"36"	"047"	"581228"	"581228"	"COFFEE SHOPS"	"72251505"	"SNACK & NONALCOHOLIC BEVERAGE BARS"	40.584	-73.9491
"115334286"	"MAURO'S COFFEE SHOP"	"6945 51ST AVE"	"WOODSIDE"	"NY"	"11377"	"36"	"081"	"581228"		"COFFEE SHOPS"	"72251505"	"SNACK & NONALCOHOLIC BEVERAGE BARS"	40.7355	-73.8948
"253406938"	"MAYBELLE'S CAFE"	"502 HENRY ST"	"BROOKLYN"	"NY"	"11231"	"36"	"047"	"581228"	"581228"	"COFFEE SHOPS"	"72251505"	"SNACK & NONALCOHOLIC BEVERAGE BARS"	40.6841	-73.9997
"421951205"	"M & D COFFEE SHOP"	"45 8TH AVE # 1"	"NEW YORK"	"NY"	"10014"	"36"	"061"	"581228"		"COFFEE SHOPS"	"72251505"	"SNACK & NONALCOHOLIC BEVERAGE BARS"	40.7385	-74.0041
"420370060"	"MESLY"	"2811 GLENWOOD RD"	"BROOKLYN"	"NY"	"11210"	"36"	"047"	"581228"		"COFFEE SHOPS"	"72251505"	"SNACK & NONALCOHOLIC BEVERAGE BARS"	40.6343	-73.9501
"633483953"	"METRO SHOP"	"10110 FOSTER AVE"	"BROOKLYN"	"NY"	"11236"	"36"	"047"	"581228"		"COFFEE SHOPS"	"72251505"	"SNACK & NONALCOHOLIC BEVERAGE BARS"	40.6492	-73.9022
"558432936"	"MIKES COFFEE SHOP"	"3812 20TH AVE # A"	"ASTORIA"	"NY"	"11105"	"36"	"081"	"581228"	"581209"	"COFFEE SHOPS"	"72251505"	"SNACK & NONALCOHOLIC BEVERAGE BARS"	40.7766	-73.9023
"254818214"	"MIRELA'S BAKERY CAFE"	"2064 31ST ST # C10"	"ASTORIA"	"NY"	"11105"	"36"	"081"	"581228"		"COFFEE SHOPS"	"72251505"	"SNACK & NONALCOHOLIC BEVERAGE BARS"	40.7786	-73.9083
"425336810"	"MONOPOLY CAFE"	"1883 86TH ST"	"BROOKLYN"	"NY"	"11214"	"36"	"047"	"581228"		"COFFEE SHOPS"	"72251505"	"SNACK & NONALCOHOLIC BEVERAGE BARS"	40.6063	-74.0004
"884173527"	"M ROHR'S HSE-FINE TEAS & CFFS"	"344 E 85TH ST"	"NEW YORK"	"NY"	"10028"	"36"	"061"	"581228"	"581214"	"COFFEE SHOPS"	"72251505"	"SNACK & NONALCOHOLIC BEVERAGE BARS"	40.7763	-73.9507
"672767548"	"MR TALL COFFEE & BAKERY"	"21 ALLEN ST"	"NEW YORK"	"NY"	"10002"	"36"	"061"	"581228"		"COFFEE SHOPS"	"72251505"	"SNACK & NONALCOHOLIC BEVERAGE BARS"	40.7156	-73.9926
"421955476"	"MUD TRUCK"	"ASTOR PLACE UPTOWN 6 TRAIN"	"NEW YORK"	"NY"	"10003"	"36"	"061"	"581228"	"596104"	"COFFEE SHOPS"	"72251505"	"SNACK & NONALCOHOLIC BEVERAGE BARS"	40.7314	-73.9886
"706028210"	"MUGS COFFEE INC"	"30 KOSCIUSZKO ST"	"BROOKLYN"	"NY"	"11205"	"36"	"047"	"581228"		"COFFEE SHOPS"	"72251505"	"SNACK & NONALCOHOLIC BEVERAGE BARS"	40.6902	-73.954
"540811494"	"MUNCHY'S GOURMET MARKET"	"625 8TH AVE"	"NEW YORK"	"NY"	"10018"	"36"	"061"	"581228"	"581228"	"COFFEE SHOPS"	"72251505"	"SNACK & NONALCOHOLIC BEVERAGE BARS"	40.7562	-73.9907
"402360860"	"MYWAYCUP COFFEE"	"102 E 23RD ST"	"NEW YORK"	"NY"	"10010"	"36"	"061"	"581228"	"581228"	"COFFEE SHOPS"	"72251505"	"SNACK & NONALCOHOLIC BEVERAGE BARS"	40.74	-73.9863
"558369336"	"NAIDRES CAFE & BAKERY"	"382 7TH AVE"	"BROOKLYN"	"NY"	"11215"	"36"	"047"	"581228"	"581228"	"COFFEE SHOPS"	"72251505"	"SNACK & NONALCOHOLIC BEVERAGE BARS"	40.6654	-73.9831
"633487632"	"NANCY RESTAURANT"	"2961 FULTON ST # A"	"BROOKLYN"	"NY"	"11208"	"36"	"047"	"581228"		"COFFEE SHOPS"	"72251505"	"SNACK & NONALCOHOLIC BEVERAGE BARS"	40.6799	-73.8854
"705156609"	"NATIONAL BRAND COFFEE SVC"	"76 N 4TH ST"	"BROOKLYN"	"NY"	"11249"	"36"	"047"	"581228"		"COFFEE SHOPS"	"72251505"	"SNACK & NONALCOHOLIC BEVERAGE BARS"	40.7173	-73.9616
"433225398"	"NATURALLY DELICIOUS"	"225 BROADWAY # G"	"NEW YORK"	"NY"	"10007"	"36"	"061"	"581228"	"581228"	"COFFEE SHOPS"	"72251505"	"SNACK & NONALCOHOLIC BEVERAGE BARS"	40.712	-74.0087
"414520620"	"NECTAR ADVANCES"	"40 EXCHANGE PL"	"NEW YORK"	"NY"	"10005"	"36"	"061"	"581228"		"COFFEE SHOPS"	"72251505"	"SNACK & NONALCOHOLIC BEVERAGE BARS"	40.7057	-74.0102
"521521583"	"NELLY'S PLACE INC"	"1012 37TH AVE"	"LONG ISLAND CITY"	"NY"	"11101"	"36"	"081"	"581228"		"COFFEE SHOPS"	"72251505"	"SNACK & NONALCOHOLIC BEVERAGE BARS"	40.7597	-73.9414
"417010392"	"NESPRESSO"	"1880 BROADWAY"	"NEW YORK"	"NY"	"10023"	"36"	"061"	"581228"		"COFFEE SHOPS"	"72251505"	"SNACK & NONALCOHOLIC BEVERAGE BARS"	40.7703	-73.9819
"434093400"	"NESPRESSO"	"69 GREENE ST"	"NEW YORK"	"NY"	"10012"	"36"	"061"	"581228"		"COFFEE SHOPS"	"72251505"	"SNACK & NONALCOHOLIC BEVERAGE BARS"	40.7234	-74.0011
"424280922"	"NESPRESSO"	"4024 COLLEGE POINT BLVD # F600"	"FLUSHING"	"NY"	"11354"	"36"	"081"	"581228"		"COFFEE SHOPS"	"72251505"	"SNACK & NONALCOHOLIC BEVERAGE BARS"	40.7572	-73.8342
"434938078"	"NESPRESSO"	"105 MADISON AVE"	"NEW YORK"	"NY"	"10016"	"36"	"061"	"581228"	"581228"	"COFFEE SHOPS"	"72251505"	"SNACK & NONALCOHOLIC BEVERAGE BARS"	40.7449	-73.9847
"414489921"	"NEST COFFE SHOP"	"6632 FOREST AVE"	"RIDGEWOOD"	"NY"	"11385"	"36"	"081"	"581228"		"COFFEE SHOPS"	"72251505"	"SNACK & NONALCOHOLIC BEVERAGE BARS"	40.7066	-73.9032
"402592066"	"NEW AMSTERDAM COFFEE & TEA"	"142 W 36TH ST # 3"	"NEW YORK"	"NY"	"10018"	"36"	"061"	"581228"	"581228"	"COFFEE SHOPS"	"72251505"	"SNACK & NONALCOHOLIC BEVERAGE BARS"	40.7517	-73.9888
"113096325"	"NEW KAM HING COFFEE SHOP"	"119 BAXTER ST # B"	"NEW YORK"	"NY"	"10013"	"36"	"061"	"581228"	"581208"	"COFFEE SHOPS"	"72251505"	"SNACK & NONALCOHOLIC BEVERAGE BARS"	40.7179	-73.9988
"229489083"	"NEW LIN HERBAL TEA INC"	"401 BROADWAY # 1203"	"NEW YORK"	"NY"	"10013"	"36"	"061"	"581228"	"581228"	"COFFEE SHOPS"	"72251505"	"SNACK & NONALCOHOLIC BEVERAGE BARS"	40.7187	-74.0026
"884166711"	"NEW WORLD COFFEE"	"416 COLUMBUS AVE"	"NEW YORK"	"NY"	"10024"	"36"	"061"	"581228"	"581208"	"COFFEE SHOPS"	"72251505"	"SNACK & NONALCOHOLIC BEVERAGE BARS"	40.7827	-73.9751
"606125300"	"NEW YORK MUFFINS"	"198 BEDFORD AVE"	"BROOKLYN"	"NY"	"11249"	"36"	"047"	"581228"	"581228"	"COFFEE SHOPS"	"72251505"	"SNACK & NONALCOHOLIC BEVERAGE BARS"	40.7176	-73.958
"414477300"	"NEXT COFFEE SHOP"	"6632 FOREST AVE"	"RIDGEWOOD"	"NY"	"11385"	"36"	"081"	"581228"		"COFFEE SHOPS"	"72251505"	"SNACK & NONALCOHOLIC BEVERAGE BARS"	40.7066	-73.9032
"400698653"	"NIETO ENTERPRISES INC"	"1087 JACKSON AVE"	"LONG ISLAND CITY"	"NY"	"11101"	"36"	"081"	"581228"	"581228"	"COFFEE SHOPS"	"72251505"	"SNACK & NONALCOHOLIC BEVERAGE BARS"	40.7431	-73.9519
"629441031"	"NINTH STREET ESPRESSO"	"75 9TH AVE"	"NEW YORK"	"NY"	"10011"	"36"	"061"	"581228"	"581228"	"COFFEE SHOPS"	"72251505"	"SNACK & NONALCOHOLIC BEVERAGE BARS"	40.7418	-74.0048
"679852384"	"NINTH STREET ESPRESSO"	"341 E 10TH ST"	"NEW YORK"	"NY"	"10009"	"36"	"061"	"581228"	"581228"	"COFFEE SHOPS"	"72251505"	"SNACK & NONALCOHOLIC BEVERAGE BARS"	40.7271	-73.9801
"433930054"	"NIX/MIX"	"9017 130TH ST"	"RICHMOND HILL"	"NY"	"11418"	"36"	"081"	"581228"	"581208"	"COFFEE SHOPS"	"72251505"	"SNACK & NONALCOHOLIC BEVERAGE BARS"	40.6984	-73.8201
"414424405"	"NONE ESPRESSO BAR"	"234 W 27TH ST"	"NEW YORK"	"NY"	"10001"	"36"	"061"	"581228"	"581228"	"COFFEE SHOPS"	"72251505"	"SNACK & NONALCOHOLIC BEVERAGE BARS"	40.7471	-73.9956
"436684496"	"NORDOMI COFEE"	"8920 101ST AVE"	"OZONE PARK"	"NY"	"11416"	"36"	"081"	"581228"		"COFFEE SHOPS"	"72251505"	"SNACK & NONALCOHOLIC BEVERAGE BARS"	40.6828	-73.8503
"707059526"	"NOSTRAND FRESH COFFEE"	"665 NOSTRAND AVE"	"BROOKLYN"	"NY"	"11216"	"36"	"047"	"581228"		"COFFEE SHOPS"	"72251505"	"SNACK & NONALCOHOLIC BEVERAGE BARS"	40.6744	-73.9499
"427318116"	"NOUVELLE VAG"	"468 CLASSON AVE"	"BROOKLYN"	"NY"	"11238"	"36"	"047"	"581228"	"581228"	"COFFEE SHOPS"	"72251505"	"SNACK & NONALCOHOLIC BEVERAGE BARS"	40.6841	-73.9594
"383563509"	"OASIS COFFEE SHOP"	"390 TIFFANY ST"	"BRONX"	"NY"	"10474"	"36"	"005"	"581228"	"581228"	"COFFEE SHOPS"	"72251505"	"SNACK & NONALCOHOLIC BEVERAGE BARS"	40.8085	-73.8896
"421704579"	"OATMEALS LLC"	"120 W 3RD ST # 1"	"NEW YORK"	"NY"	"10012"	"36"	"061"	"581228"		"COFFEE SHOPS"	"72251505"	"SNACK & NONALCOHOLIC BEVERAGE BARS"	40.7304	-74.0005
"706187121"	"ODRADEK'S COFFEE"	"1519 AVENUE J"	"BROOKLYN"	"NY"	"11230"	"36"	"047"	"581228"		"COFFEE SHOPS"	"72251505"	"SNACK & NONALCOHOLIC BEVERAGE BARS"	40.6256	-73.9607
"421943323"	"OMEGA COFFEE SHOP"	"200 E 32ND ST # 7"	"NEW YORK"	"NY"	"10016"	"36"	"061"	"581228"		"COFFEE SHOPS"	"72251505"	"SNACK & NONALCOHOLIC BEVERAGE BARS"	40.744	-73.979
"403123602"	"ON THE HUDSON COFFEE SHOP"	"111 W 225TH ST"	"BRONX"	"NY"	"10463"	"36"	"005"	"581228"		"COFFEE SHOPS"	"72251505"	"SNACK & NONALCOHOLIC BEVERAGE BARS"	40.8747	-73.9107
"669168809"	"OREN'S DAILY ROAST"	"830 3RD AVE"	"NEW YORK"	"NY"	"10022"	"36"	"061"	"581228"	"581228"	"COFFEE SHOPS"	"72251505"	"SNACK & NONALCOHOLIC BEVERAGE BARS"	40.7564	-73.9707
"705155319"	"OREN'S DAILY ROAST-GRAND"	"105 E 42ND ST"	"NEW YORK"	"NY"	"10017"	"36"	"061"	"581228"		"COFFEE SHOPS"	"72251505"	"SNACK & NONALCOHOLIC BEVERAGE BARS"	40.7516	-73.9764
"606125359"	"OUTPOST"	"1014 FULTON ST"	"BROOKLYN"	"NY"	"11238"	"36"	"047"	"581228"	"581228"	"COFFEE SHOPS"	"72251505"	"SNACK & NONALCOHOLIC BEVERAGE BARS"	40.6818	-73.9603
"421999357"	"O W BAR"	"221 E 58TH ST # 1"	"NEW YORK"	"NY"	"10022"	"36"	"061"	"581228"		"COFFEE SHOPS"	"72251505"	"SNACK & NONALCOHOLIC BEVERAGE BARS"	40.7607	-73.9658
"433625527"	"PALAIS DES THES"	"194 COLUMBUS AVE"	"NEW YORK"	"NY"	"10023"	"36"	"061"	"581228"	"581236"	"COFFEE SHOPS"	"72251505"	"SNACK & NONALCOHOLIC BEVERAGE BARS"	40.7754	-73.9804
"433625529"	"PALAIS DES THES"	"156 PRINCE ST # 2"	"NEW YORK"	"NY"	"10012"	"36"	"061"	"581228"		"COFFEE SHOPS"	"72251505"	"SNACK & NONALCOHOLIC BEVERAGE BARS"	40.7257	-74.0014
"705872189"	"PARK AVENUE COFFEE & BAKERY"	"2 PARK AVE"	"NEW YORK"	"NY"	"10016"	"36"	"061"	"581228"		"COFFEE SHOPS"	"72251505"	"SNACK & NONALCOHOLIC BEVERAGE BARS"	40.7463	-73.9826
"404794196"	"PARROT COFFEE"	"4515 QUEENS BLVD"	"SUNNYSIDE"	"NY"	"11104"	"36"	"081"	"581228"	"581209"	"COFFEE SHOPS"	"72251505"	"SNACK & NONALCOHOLIC BEVERAGE BARS"	40.7436	-73.9188
"421963855"	"PATRICK'S PUB & CAFE"	"10018 NORTHERN BLVD"	"CORONA"	"NY"	"11368"	"36"	"081"	"581228"		"COFFEE SHOPS"	"72251505"	"SNACK & NONALCOHOLIC BEVERAGE BARS"	40.7571	-73.8677
"655112985"	"PAU CAFE"	"3 CLINTON ST # 3"	"NEW YORK"	"NY"	"10002"	"36"	"061"	"581228"	"581228"	"COFFEE SHOPS"	"72251505"	"SNACK & NONALCOHOLIC BEVERAGE BARS"	40.7214	-73.984
"655096196"	"PEACE & TODA CORP"	"841 BROADWAY"	"NEW YORK"	"NY"	"10003"	"36"	"061"	"581228"		"COFFEE SHOPS"	"72251505"	"SNACK & NONALCOHOLIC BEVERAGE BARS"	40.734	-73.9911
"216238899"	"PEARL CAFE"	"1870 86TH ST"	"BROOKLYN"	"NY"	"11214"	"36"	"047"	"581228"	"581214"	"COFFEE SHOPS"	"72251505"	"SNACK & NONALCOHOLIC BEVERAGE BARS"	40.606	-74.0011
"422007231"	"PECAN FINE FOODS & COFFEE"	"130 FRANKLIN ST"	"NEW YORK"	"NY"	"10013"	"36"	"061"	"581228"		"COFFEE SHOPS"	"72251505"	"SNACK & NONALCOHOLIC BEVERAGE BARS"	40.7192	-74.007
"706761763"	"PEET'S COFFEE & TEA"	"968 3RD AVE"	"NEW YORK"	"NY"	"10022"	"36"	"061"	"581228"		"COFFEE SHOPS"	"72251505"	"SNACK & NONALCOHOLIC BEVERAGE BARS"	40.7609	-73.9674
"408417078"	"PETROL COFFEE ROASTERS INC"	"3200 PERRY AVE # 1"	"BRONX"	"NY"	"10467"	"36"	"005"	"581228"		"COFFEE SHOPS"	"72251505"	"SNACK & NONALCOHOLIC BEVERAGE BARS"	40.8746	-73.8768
"114655608"	"PHIL'S COFFEE SHOP"	"1050 44TH DR # A"	"LONG ISLAND CITY"	"NY"	"11101"	"36"	"081"	"581228"	"581228"	"COFFEE SHOPS"	"72251505"	"SNACK & NONALCOHOLIC BEVERAGE BARS"	40.7483	-73.9499
"421724940"	"PICNIC BASKET"	"65 W 37TH ST"	"NEW YORK"	"NY"	"10018"	"36"	"061"	"581228"	"594713"	"COFFEE SHOPS"	"72251505"	"SNACK & NONALCOHOLIC BEVERAGE BARS"	40.7517	-73.9861
"404363484"	"PLAZA DONUTS CORP"	"3500 48TH ST"	"LONG ISLAND CITY"	"NY"	"11101"	"36"	"081"	"581228"	"581228"	"COFFEE SHOPS"	"72251505"	"SNACK & NONALCOHOLIC BEVERAGE BARS"	40.752	-73.9152
"404807479"	"PLAZA HOUSE COFFEE INC"	"42 INDUSTRIAL LOOP # 5"	"STATEN ISLAND"	"NY"	"10309"	"36"	"085"	"581228"	"581228"	"COFFEE SHOPS"	"72251505"	"SNACK & NONALCOHOLIC BEVERAGE BARS"	40.5478	-74.2296
"409791739"	"PORTS COFFEE & TEA CO"	"251 W 23RD ST"	"NEW YORK"	"NY"	"10011"	"36"	"061"	"581228"	"581228"	"COFFEE SHOPS"	"72251505"	"SNACK & NONALCOHOLIC BEVERAGE BARS"	40.7449	-73.9974
"416452311"	"PREP"	"145 NASSAU ST # 3D"	"NEW YORK"	"NY"	"10038"	"36"	"061"	"581228"		"COFFEE SHOPS"	"72251505"	"SNACK & NONALCOHOLIC BEVERAGE BARS"	40.7114	-74.0065
"578981524"	"PRIMO CAPPUCCINO"	"PENN STATION AMTRACK LEVEL"	"NEW YORK"	"NY"	"10119"	"36"	"061"	"581228"		"COFFEE SHOPS"	"72251505"	"SNACK & NONALCOHOLIC BEVERAGE BARS"	40.7514	-73.9915
"415552521"	"PRODIGY COFFEE"	"33 CARMINE ST"	"NEW YORK"	"NY"	"10014"	"36"	"061"	"581228"	"581228"	"COFFEE SHOPS"	"72251505"	"SNACK & NONALCOHOLIC BEVERAGE BARS"	40.7302	-74.0032
"427929365"	"PROPELLER COFFEE"	"984 MANHATTAN AVE"	"BROOKLYN"	"NY"	"11222"	"36"	"047"	"581228"		"COFFEE SHOPS"	"72251505"	"SNACK & NONALCOHOLIC BEVERAGE BARS"	40.7327	-73.9544
"647905033"	"PUEBLA FOOD CORP"	"506 WILLIS AVE"	"BRONX"	"NY"	"10455"	"36"	"005"	"581228"	"581228"	"COFFEE SHOPS"	"72251505"	"SNACK & NONALCOHOLIC BEVERAGE BARS"	40.8151	-73.9184
"423564071"	"PUSHCART COFFEE"	"301 E 21ST ST"	"NEW YORK"	"NY"	"10010"	"36"	"061"	"581228"		"COFFEE SHOPS"	"72251505"	"SNACK & NONALCOHOLIC BEVERAGE BARS"	40.7364	-73.9812
"700104749"	"PUSHCART COFFEE"	"401 W 25TH ST"	"NEW YORK"	"NY"	"10001"	"36"	"061"	"581228"		"COFFEE SHOPS"	"72251505"	"SNACK & NONALCOHOLIC BEVERAGE BARS"	40.7481	-74.0006
"417265194"	"PYRAMID COFFEE CO INC"	"535 E 70TH ST"	"NEW YORK"	"NY"	"10021"	"36"	"061"	"581228"		"COFFEE SHOPS"	"72251505"	"SNACK & NONALCOHOLIC BEVERAGE BARS"	40.7654	-73.9541
"433118684"	"QUICK CUP OF COFFEE"	"81 WINANT PL"	"STATEN ISLAND"	"NY"	"10309"	"36"	"085"	"581228"	"581228"	"COFFEE SHOPS"	"72251505"	"SNACK & NONALCOHOLIC BEVERAGE BARS"	40.5374	-74.2402
"402824384"	"QUICKLY"	"13649 ROOSEVELT AVE"	"FLUSHING"	"NY"	"11354"	"36"	"081"	"581228"	"581228"	"COFFEE SHOPS"	"72251505"	"SNACK & NONALCOHOLIC BEVERAGE BARS"	40.7603	-73.8283
"408415838"	"QUICKLY"	"8306 BROADWAY # 1"	"ELMHURST"	"NY"	"11373"	"36"	"081"	"581228"	"581228"	"COFFEE SHOPS"	"72251505"	"SNACK & NONALCOHOLIC BEVERAGE BARS"	40.7409	-73.8799
"401981749"	"RABBITS CAFE"	"142 SULLIVAN ST # A"	"NEW YORK"	"NY"	"10012"	"36"	"061"	"581228"	"581228"	"COFFEE SHOPS"	"72251505"	"SNACK & NONALCOHOLIC BEVERAGE BARS"	40.7271	-74.0022
"706028001"	"RALPH'S COFFEE"	"711 5TH AVE"	"NEW YORK"	"NY"	"10022"	"36"	"061"	"581228"		"COFFEE SHOPS"	"72251505"	"SNACK & NONALCOHOLIC BEVERAGE BARS"	40.7591	-73.9693
"425443453"	"REX"	"864 10TH AVE"	"NEW YORK"	"NY"	"10019"	"36"	"061"	"581228"		"COFFEE SHOPS"	"72251505"	"SNACK & NONALCOHOLIC BEVERAGE BARS"	40.7688	-73.9887
"427462790"	"REY"	"5814 FORT HAMILTON PKWY"	"BROOKLYN"	"NY"	"11219"	"36"	"047"	"581228"		"COFFEE SHOPS"	"72251505"	"SNACK & NONALCOHOLIC BEVERAGE BARS"	40.6338	-74.0045
"425287486"	"RISE & GRIND"	"2167 2ND AVE"	"NEW YORK"	"NY"	"10029"	"36"	"061"	"581228"		"COFFEE SHOPS"	"72251505"	"SNACK & NONALCOHOLIC BEVERAGE BARS"	40.7941	-73.9399
"404609069"	"ROASTOWN COFFEE"	"267 W 34TH ST"	"NEW YORK"	"NY"	"10001"	"36"	"061"	"581228"	"581208"	"COFFEE SHOPS"	"72251505"	"SNACK & NONALCOHOLIC BEVERAGE BARS"	40.7522	-73.9929
"420365791"	"ROGERS COFFEE SHOP"	"241 ROGERS AVE"	"BROOKLYN"	"NY"	"11225"	"36"	"047"	"581228"		"COFFEE SHOPS"	"72251505"	"SNACK & NONALCOHOLIC BEVERAGE BARS"	40.6681	-73.9531
"403381259"	"ROJAS COFFEE SHOP"	"4702 METROPOLITAN AVE"	"RIDGEWOOD"	"NY"	"11385"	"36"	"081"	"581228"		"COFFEE SHOPS"	"72251505"	"SNACK & NONALCOHOLIC BEVERAGE BARS"	40.7136	-73.92
"705557848"	"ROOM 53"	"314 W 53RD ST"	"NEW YORK"	"NY"	"10019"	"36"	"061"	"581228"	"549915"	"COFFEE SHOPS"	"72251505"	"SNACK & NONALCOHOLIC BEVERAGE BARS"	40.7643	-73.9852
"992796243"	"RUBEN'S EMPANADAS"	"505 BROOME ST"	"NEW YORK"	"NY"	"10013"	"36"	"061"	"581228"	"581214"	"COFFEE SHOPS"	"72251505"	"SNACK & NONALCOHOLIC BEVERAGE BARS"	40.7233	-74.0032
"572074797"	"SAKO COFFEE SHOP"	"225 MCCLELLAN ST # 1150"	"BRONX"	"NY"	"10456"	"36"	"005"	"581228"	"581228"	"COFFEE SHOPS"	"72251505"	"SNACK & NONALCOHOLIC BEVERAGE BARS"	40.8322	-73.9163
"389681271"	"SAQUELLA COFFEE USA"	"600 RICHMOND TER"	"STATEN ISLAND"	"NY"	"10301"	"36"	"085"	"581228"	"581228"	"COFFEE SHOPS"	"72251505"	"SNACK & NONALCOHOLIC BEVERAGE BARS"	40.6456	-74.0918
"579343708"	"SEATTLE CAFE"	"202 W 34TH ST"	"NEW YORK"	"NY"	"10119"	"36"	"061"	"581228"	"581228"	"COFFEE SHOPS"	"72251505"	"SNACK & NONALCOHOLIC BEVERAGE BARS"	40.7514	-73.9915
"474574076"	"SEVEN COFFEE SHOP"	"4340 34TH ST"	"LONG ISLAND CITY"	"NY"	"11101"	"36"	"081"	"581228"		"COFFEE SHOPS"	"72251505"	"SNACK & NONALCOHOLIC BEVERAGE BARS"	40.7453	-73.9309
"615891470"	"SHOCK COFFEE LLC"	"5707 31ST AVE"	"WOODSIDE"	"NY"	"11377"	"36"	"081"	"581228"	"999966"	"COFFEE SHOPS"	"72251505"	"SNACK & NONALCOHOLIC BEVERAGE BARS"	40.7584	-73.9036
"352603575"	"SICAFFE INC"	"964 LEXINGTON AVE"	"NEW YORK"	"NY"	"10021"	"36"	"061"	"581228"	"581228"	"COFFEE SHOPS"	"72251505"	"SNACK & NONALCOHOLIC BEVERAGE BARS"	40.7695	-73.9632
"417510561"	"SMILE TO GO"	"22 HOWARD ST # 2"	"NEW YORK"	"NY"	"10013"	"36"	"061"	"581228"		"COFFEE SHOPS"	"72251505"	"SNACK & NONALCOHOLIC BEVERAGE BARS"	40.7196	-74.0002
"364673046"	"SOCIETY COFFEE & JUICE INC"	"2104 FREDERICK DOUGLASS BLVD"	"NEW YORK"	"NY"	"10026"	"36"	"061"	"581228"		"COFFEE SHOPS"	"72251505"	"SNACK & NONALCOHOLIC BEVERAGE BARS"	40.8029	-73.9561
"421470408"	"SPINS INC"	"190 E 7TH ST"	"NEW YORK"	"NY"	"10009"	"36"	"061"	"581228"		"COFFEE SHOPS"	"72251505"	"SNACK & NONALCOHOLIC BEVERAGE BARS"	40.7248	-73.9809
"421953841"	"STADIUM DELI"	"127 E 34TH ST # 1"	"NEW YORK"	"NY"	"10016"	"36"	"061"	"581228"	"581228"	"COFFEE SHOPS"	"72251505"	"SNACK & NONALCOHOLIC BEVERAGE BARS"	40.7467	-73.9799
"255392573"	"STARBUCKS"	"1710 BROADWAY # 5"	"NEW YORK"	"NY"	"10019"	"36"	"061"	"581228"	"581228"	"COFFEE SHOPS"	"72251505"	"SNACK & NONALCOHOLIC BEVERAGE BARS"	40.7641	-73.9823
"255465478"	"STARBUCKS"	"50 W 225TH ST # K1"	"BRONX"	"NY"	"10462"	"36"	"005"	"581228"	"581228"	"COFFEE SHOPS"	"72251505"	"SNACK & NONALCOHOLIC BEVERAGE BARS"	40.8419	-73.8579
"255591851"	"STARBUCKS"	"67 FRONT ST"	"BROOKLYN"	"NY"	"11201"	"36"	"047"	"581228"	"581228"	"COFFEE SHOPS"	"72251505"	"SNACK & NONALCOHOLIC BEVERAGE BARS"	40.7026	-73.9907
"256832510"	"STARBUCKS"	"1488 3RD AVE # A"	"NEW YORK"	"NY"	"10028"	"36"	"061"	"581228"	"581208"	"COFFEE SHOPS"	"72251505"	"SNACK & NONALCOHOLIC BEVERAGE BARS"	40.7776	-73.955
"241902634"	"STARBUCKS"	"776 AVENUE OF THE AMERICAS # 1"	"NEW YORK"	"NY"	"10001"	"36"	"061"	"581228"	"581220"	"COFFEE SHOPS"	"72251505"	"SNACK & NONALCOHOLIC BEVERAGE BARS"	40.7449	-73.9908
"241902618"	"STARBUCKS"	"750 AVENUE OF THE AMERICAS # 1"	"NEW YORK"	"NY"	"10010"	"36"	"061"	"581228"	"581208"	"COFFEE SHOPS"	"72251505"	"SNACK & NONALCOHOLIC BEVERAGE BARS"	40.7441	-73.9918
"257782508"	"STARBUCKS"	"142 W 57TH ST"	"NEW YORK"	"NY"	"10019"	"36"	"061"	"581228"	"581228"	"COFFEE SHOPS"	"72251505"	"SNACK & NONALCOHOLIC BEVERAGE BARS"	40.7649	-73.9789
"241902592"	"STARBUCKS"	"177 8TH AVE"	"NEW YORK"	"NY"	"10011"	"36"	"061"	"581228"		"COFFEE SHOPS"	"72251505"	"SNACK & NONALCOHOLIC BEVERAGE BARS"	40.7432	-74.0006
"241902543"	"STARBUCKS"	"111 8TH AVE"	"NEW YORK"	"NY"	"10011"	"36"	"061"	"581228"		"COFFEE SHOPS"	"72251505"	"SNACK & NONALCOHOLIC BEVERAGE BARS"	40.7412	-74.0016
"241902527"	"STARBUCKS"	"510 AVENUE OF THE AMERICAS # 5"	"NEW YORK"	"NY"	"10011"	"36"	"061"	"581228"	"581228"	"COFFEE SHOPS"	"72251505"	"SNACK & NONALCOHOLIC BEVERAGE BARS"	40.7367	-73.9972
"241902477"	"STARBUCKS"	"120 W 56TH ST"	"NEW YORK"	"NY"	"10019"	"36"	"061"	"581228"	"581228"	"COFFEE SHOPS"	"72251505"	"SNACK & NONALCOHOLIC BEVERAGE BARS"	40.7639	-73.9785
"263433963"	"STARBUCKS"	"593 9TH AVE"	"NEW YORK"	"NY"	"10036"	"36"	"061"	"581228"	"581208"	"COFFEE SHOPS"	"72251505"	"SNACK & NONALCOHOLIC BEVERAGE BARS"	40.7586	-73.9926
"266500115"	"STARBUCKS"	"875 AVENUE OF THE AMERICAS"	"NEW YORK"	"NY"	"10001"	"36"	"061"	"581228"	"581228"	"COFFEE SHOPS"	"72251505"	"SNACK & NONALCOHOLIC BEVERAGE BARS"	40.7482	-73.9893
"241902410"	"STARBUCKS"	"801 W 181ST ST # B"	"NEW YORK"	"NY"	"10033"	"36"	"061"	"581228"	"581228"	"COFFEE SHOPS"	"72251505"	"SNACK & NONALCOHOLIC BEVERAGE BARS"	40.8513	-73.9385
"241902378"	"STARBUCKS"	"550 MADISON AVE # A32"	"NEW YORK"	"NY"	"10022"	"36"	"061"	"581228"		"COFFEE SHOPS"	"72251505"	"SNACK & NONALCOHOLIC BEVERAGE BARS"	40.7615	-73.9735
"352475065"	"STARBUCKS"	"787 7TH AVE"	"NEW YORK"	"NY"	"10019"	"36"	"061"	"581228"	"581228"	"COFFEE SHOPS"	"72251505"	"SNACK & NONALCOHOLIC BEVERAGE BARS"	40.7651	-73.9831
"241902329"	"STARBUCKS"	"55 LIBERTY ST # 1"	"NEW YORK"	"NY"	"10005"	"36"	"061"	"581228"	"581228"	"COFFEE SHOPS"	"72251505"	"SNACK & NONALCOHOLIC BEVERAGE BARS"	40.7088	-74.0095
"241902279"	"STARBUCKS"	"151 W 34TH ST"	"NEW YORK"	"NY"	"10001"	"36"	"061"	"581228"	"581208"	"COFFEE SHOPS"	"72251505"	"SNACK & NONALCOHOLIC BEVERAGE BARS"	40.7508	-73.9898
"358688489"	"STARBUCKS"	"3711 35TH AVE # 1B"	"LONG ISLAND CITY"	"NY"	"11101"	"36"	"081"	"581228"	"581228"	"COFFEE SHOPS"	"72251505"	"SNACK & NONALCOHOLIC BEVERAGE BARS"	40.7559	-73.9231
"371822032"	"STARBUCKS"	"33 HILLEL PL"	"BROOKLYN"	"NY"	"11210"	"36"	"047"	"581228"		"COFFEE SHOPS"	"72251505"	"SNACK & NONALCOHOLIC BEVERAGE BARS"	40.6323	-73.9487
"371997164"	"STARBUCKS"	"80 DELANCEY ST # 1"	"NEW YORK"	"NY"	"10002"	"36"	"061"	"581228"	"581208"	"COFFEE SHOPS"	"72251505"	"SNACK & NONALCOHOLIC BEVERAGE BARS"	40.7193	-73.9899
"241902246"	"STARBUCKS"	"7800 GRAND CENTRAL STA"	"NEW YORK"	"NY"	"10017"	"36"	"061"	"581228"	"581208"	"COFFEE SHOPS"	"72251505"	"SNACK & NONALCOHOLIC BEVERAGE BARS"	40.753	-73.9749
"241902220"	"STARBUCKS"	"183 CENTRE ST # 1"	"NEW YORK"	"NY"	"10013"	"36"	"061"	"581228"	"581228"	"COFFEE SHOPS"	"72251505"	"SNACK & NONALCOHOLIC BEVERAGE BARS"	40.7186	-73.9996
"241902196"	"STARBUCKS"	"115 BROADWAY # 7"	"NEW YORK"	"NY"	"10006"	"36"	"061"	"581228"	"581228"	"COFFEE SHOPS"	"72251505"	"SNACK & NONALCOHOLIC BEVERAGE BARS"	40.7089	-74.0115
"241902170"	"STARBUCKS"	"291 BROADWAY # A"	"NEW YORK"	"NY"	"10007"	"36"	"061"	"581228"	"581228"	"COFFEE SHOPS"	"72251505"	"SNACK & NONALCOHOLIC BEVERAGE BARS"	40.715	-74.0061
"382468171"	"STARBUCKS"	"24202 61ST AVE # 9"	"LITTLE NECK"	"NY"	"11362"	"36"	"081"	"581228"		"COFFEE SHOPS"	"72251505"	"SNACK & NONALCOHOLIC BEVERAGE BARS"	40.7545	-73.7385
"241902154"	"STARBUCKS"	"471 BROADWAY # A"	"NEW YORK"	"NY"	"10013"	"36"	"061"	"581228"	"581228"	"COFFEE SHOPS"	"72251505"	"SNACK & NONALCOHOLIC BEVERAGE BARS"	40.7213	-74.0006
"241902097"	"STARBUCKS"	"2521 BROADWAY # 1"	"NEW YORK"	"NY"	"10025"	"36"	"061"	"581228"	"581228"	"COFFEE SHOPS"	"72251505"	"SNACK & NONALCOHOLIC BEVERAGE BARS"	40.7937	-73.973
"241902055"	"STARBUCKS"	"1631 1ST AVE"	"NEW YORK"	"NY"	"10028"	"36"	"061"	"581228"	"581228"	"COFFEE SHOPS"	"72251505"	"SNACK & NONALCOHOLIC BEVERAGE BARS"	40.7762	-73.95
"241902014"	"STARBUCKS"	"338 COLUMBUS AVE"	"NEW YORK"	"NY"	"10023"	"36"	"061"	"581228"	"581228"	"COFFEE SHOPS"	"72251505"	"SNACK & NONALCOHOLIC BEVERAGE BARS"	40.7797	-73.9771
"389619313"	"STARBUCKS"	"1530 BROADWAY # 3"	"NEW YORK"	"NY"	"10036"	"36"	"061"	"581228"	"581208"	"COFFEE SHOPS"	"72251505"	"SNACK & NONALCOHOLIC BEVERAGE BARS"	40.7582	-73.9854
"394051585"	"STARBUCKS"	"10 HANOVER SQ # 4"	"NEW YORK"	"NY"	"10005"	"36"	"061"	"581228"		"COFFEE SHOPS"	"72251505"	"SNACK & NONALCOHOLIC BEVERAGE BARS"	40.7046	-74.0089
"241901941"	"STARBUCKS"	"41 UNION SQ W # A"	"NEW YORK"	"NY"	"10003"	"36"	"061"	"581228"	"581208"	"COFFEE SHOPS"	"72251505"	"SNACK & NONALCOHOLIC BEVERAGE BARS"	40.7372	-73.9908
"396819609"	"STARBUCKS"	"13505 20TH AVE"	"FLUSHING"	"NY"	"11356"	"36"	"081"	"581228"		"COFFEE SHOPS"	"72251505"	"SNACK & NONALCOHOLIC BEVERAGE BARS"	40.7818	-73.8337
"399652072"	"STARBUCKS"	"455 MAIN ST"	"NEW YORK"	"NY"	"10044"	"36"	"061"	"581228"	"581208"	"COFFEE SHOPS"	"72251505"	"SNACK & NONALCOHOLIC BEVERAGE BARS"	40.7589	-73.9527
"241901594"	"STARBUCKS"	"167 COURT ST # A"	"BROOKLYN"	"NY"	"11201"	"36"	"047"	"581228"	"581228"	"COFFEE SHOPS"	"72251505"	"SNACK & NONALCOHOLIC BEVERAGE BARS"	40.6885	-73.9927
"241901560"	"STARBUCKS"	"9202 3RD AVE"	"BROOKLYN"	"NY"	"11209"	"36"	"047"	"581228"	"581228"	"COFFEE SHOPS"	"72251505"	"SNACK & NONALCOHOLIC BEVERAGE BARS"	40.6193	-74.0331
"400687636"	"STARBUCKS"	"11 E 42ND ST"	"NEW YORK"	"NY"	"10017"	"36"	"061"	"581228"	"581208"	"COFFEE SHOPS"	"72251505"	"SNACK & NONALCOHOLIC BEVERAGE BARS"	40.7533	-73.9803
"240582429"	"STARBUCKS"	"770 8TH AVE"	"NEW YORK"	"NY"	"10036"	"36"	"061"	"581228"	"581208"	"COFFEE SHOPS"	"72251505"	"SNACK & NONALCOHOLIC BEVERAGE BARS"	40.7605	-73.987
"400703170"	"STARBUCKS"	"55 PARK AVE"	"NEW YORK"	"NY"	"10016"	"36"	"061"	"581228"		"COFFEE SHOPS"	"72251505"	"SNACK & NONALCOHOLIC BEVERAGE BARS"	40.749	-73.9795
"234509982"	"STARBUCKS"	"2 BROADWAY # 2"	"NEW YORK"	"NY"	"10004"	"36"	"061"	"581228"	"581228"	"COFFEE SHOPS"	"72251505"	"SNACK & NONALCOHOLIC BEVERAGE BARS"	40.7045	-74.0126
"232367169"	"STARBUCKS"	"80 PINE ST # S3"	"NEW YORK"	"NY"	"10005"	"36"	"061"	"581228"	"581220"	"COFFEE SHOPS"	"72251505"	"SNACK & NONALCOHOLIC BEVERAGE BARS"	40.7062	-74.0067
"229597620"	"STARBUCKS"	"6423 18TH AVE # A"	"BROOKLYN"	"NY"	"11204"	"36"	"047"	"581228"	"581208"	"COFFEE SHOPS"	"72251505"	"SNACK & NONALCOHOLIC BEVERAGE BARS"	40.6191	-73.9898
"227655677"	"STARBUCKS"	"5106 NORTHERN BLVD"	"FLUSHING"	"NY"	"11377"	"36"	"081"	"581228"	"581228"	"COFFEE SHOPS"	"72251505"	"SNACK & NONALCOHOLIC BEVERAGE BARS"	40.7529	-73.9095
"227551959"	"STARBUCKS"	"251 W 42ND ST"	"NEW YORK"	"NY"	"10036"	"36"	"061"	"581228"	"581228"	"COFFEE SHOPS"	"72251505"	"SNACK & NONALCOHOLIC BEVERAGE BARS"	40.7569	-73.9888
"400785503"	"STARBUCKS"	"1449 2ND AVE"	"NEW YORK"	"NY"	"10021"	"36"	"061"	"581228"	"581228"	"COFFEE SHOPS"	"72251505"	"SNACK & NONALCOHOLIC BEVERAGE BARS"	40.7712	-73.9568
"400785581"	"STARBUCKS"	"240 PARK AVE S # 2"	"NEW YORK"	"NY"	"10003"	"36"	"061"	"581228"	"581228"	"COFFEE SHOPS"	"72251505"	"SNACK & NONALCOHOLIC BEVERAGE BARS"	40.7381	-73.9882
"400787118"	"STARBUCKS"	"1100 AVE OF THE AMERICAS # 1"	"NEW YORK"	"NY"	"10036"	"36"	"061"	"581228"	"581208"	"COFFEE SHOPS"	"72251505"	"SNACK & NONALCOHOLIC BEVERAGE BARS"	40.7548	-73.984
"226110948"	"STARBUCKS"	"10102 QUEENS BLVD"	"FOREST HILLS"	"NY"	"11375"	"36"	"081"	"581228"	"581228"	"COFFEE SHOPS"	"72251505"	"SNACK & NONALCOHOLIC BEVERAGE BARS"	40.7263	-73.8528
"224277699"	"STARBUCKS"	"125 PARK AVE # 6"	"NEW YORK"	"NY"	"10017"	"36"	"061"	"581228"	"581208"	"COFFEE SHOPS"	"72251505"	"SNACK & NONALCOHOLIC BEVERAGE BARS"	40.7514	-73.9779
"222699696"	"STARBUCKS"	"233 BROADWAY # E"	"NEW YORK"	"NY"	"10279"	"36"	"061"	"581228"	"581208"	"COFFEE SHOPS"	"72251505"	"SNACK & NONALCOHOLIC BEVERAGE BARS"	40.7124	-74.0078
"222000523"	"STARBUCKS"	"725 5TH AVE # 2"	"NEW YORK"	"NY"	"10022"	"36"	"061"	"581228"	"581220"	"COFFEE SHOPS"	"72251505"	"SNACK & NONALCOHOLIC BEVERAGE BARS"	40.7624	-73.9742
"220319800"	"STARBUCKS"	"286 1ST AVE # A"	"NEW YORK"	"NY"	"10009"	"36"	"061"	"581228"	"581220"	"COFFEE SHOPS"	"72251505"	"SNACK & NONALCOHOLIC BEVERAGE BARS"	40.7329	-73.9811
"217868652"	"STARBUCKS"	"2138 BROADWAY"	"NEW YORK"	"NY"	"10023"	"36"	"061"	"581228"	"581228"	"COFFEE SHOPS"	"72251505"	"SNACK & NONALCOHOLIC BEVERAGE BARS"	40.7811	-73.9808
"215315862"	"STARBUCKS"	"450 W 33RD ST # C"	"NEW YORK"	"NY"	"10001"	"36"	"061"	"581228"	"581208"	"COFFEE SHOPS"	"72251505"	"SNACK & NONALCOHOLIC BEVERAGE BARS"	40.753	-73.9994
"215283003"	"STARBUCKS"	"560 LEXINGTON AVE # 2"	"NEW YORK"	"NY"	"10022"	"36"	"061"	"581228"	"581208"	"COFFEE SHOPS"	"72251505"	"SNACK & NONALCOHOLIC BEVERAGE BARS"	40.7569	-73.9726
"993340041"	"STARBUCKS"	"2505 RICHMOND AVE # 3"	"STATEN ISLAND"	"NY"	"10314"	"36"	"085"	"581228"	"581208"	"COFFEE SHOPS"	"72251505"	"SNACK & NONALCOHOLIC BEVERAGE BARS"	40.5863	-74.1672
"987542644"	"STARBUCKS"	"21529 NORTHERN BLVD"	"BAYSIDE"	"NY"	"11361"	"36"	"081"	"581228"	"581208"	"COFFEE SHOPS"	"72251505"	"SNACK & NONALCOHOLIC BEVERAGE BARS"	40.7609	-73.7664
"979161429"	"STARBUCKS"	"1642 3RD AVE"	"NEW YORK"	"NY"	"10128"	"36"	"061"	"581228"	"581208"	"COFFEE SHOPS"	"72251505"	"SNACK & NONALCOHOLIC BEVERAGE BARS"	40.7827	-73.9513
"979159852"	"STARBUCKS"	"1 PENN PLZ # 2"	"NEW YORK"	"NY"	"10119"	"36"	"061"	"581228"	"581208"	"COFFEE SHOPS"	"72251505"	"SNACK & NONALCOHOLIC BEVERAGE BARS"	40.7514	-73.9915
"979127792"	"STARBUCKS"	"2853 BROADWAY"	"NEW YORK"	"NY"	"10025"	"36"	"061"	"581228"	"581208"	"COFFEE SHOPS"	"72251505"	"SNACK & NONALCOHOLIC BEVERAGE BARS"	40.8047	-73.9666
"979125242"	"STARBUCKS"	"540 COLUMBUS AVE"	"NEW YORK"	"NY"	"10024"	"36"	"061"	"581228"	"581208"	"COFFEE SHOPS"	"72251505"	"SNACK & NONALCOHOLIC BEVERAGE BARS"	40.7865	-73.9723
"979097805"	"STARBUCKS"	"462 FASHION AVE # 3"	"NEW YORK"	"NY"	"10018"	"36"	"061"	"581228"	"581208"	"COFFEE SHOPS"	"72251505"	"SNACK & NONALCOHOLIC BEVERAGE BARS"	40.752	-73.9903
"979074200"	"STARBUCKS"	"639 3RD AVE"	"NEW YORK"	"NY"	"10017"	"36"	"061"	"581228"	"581208"	"COFFEE SHOPS"	"72251505"	"SNACK & NONALCOHOLIC BEVERAGE BARS"	40.75	-73.975
"978876282"	"STARBUCKS"	"195 BROADWAY # B"	"NEW YORK"	"NY"	"10007"	"36"	"061"	"581228"	"581208"	"COFFEE SHOPS"	"72251505"	"SNACK & NONALCOHOLIC BEVERAGE BARS"	40.7108	-74.0098
"978790558"	"STARBUCKS"	"10 UNION SQ E"	"NEW YORK"	"NY"	"10003"	"36"	"061"	"581228"	"581208"	"COFFEE SHOPS"	"72251505"	"SNACK & NONALCOHOLIC BEVERAGE BARS"	40.735	-73.9903
"972008650"	"STARBUCKS"	"10712 71ST AVE"	"FLUSHING"	"NY"	"11375"	"36"	"081"	"581228"	"514908"	"COFFEE SHOPS"	"72251505"	"SNACK & NONALCOHOLIC BEVERAGE BARS"	40.7202	-73.8446
"971564315"	"STARBUCKS"	"50 COURT ST # 2"	"BROOKLYN"	"NY"	"11201"	"36"	"047"	"581228"	"549915"	"COFFEE SHOPS"	"72251505"	"SNACK & NONALCOHOLIC BEVERAGE BARS"	40.6924	-73.9913
"964152714"	"STARBUCKS"	"2045 BROADWAY"	"NEW YORK"	"NY"	"10023"	"36"	"061"	"581228"	"581208"	"COFFEE SHOPS"	"72251505"	"SNACK & NONALCOHOLIC BEVERAGE BARS"	40.7779	-73.9823
"952306470"	"STARBUCKS"	"120 E 87TH ST # R20E"	"NEW YORK"	"NY"	"10128"	"36"	"061"	"581228"	"581208"	"COFFEE SHOPS"	"72251505"	"SNACK & NONALCOHOLIC BEVERAGE BARS"	40.78	-73.9557
"952076271"	"STARBUCKS"	"1585 BROADWAY # 3"	"NEW YORK"	"NY"	"10036"	"36"	"061"	"581228"	"581208"	"COFFEE SHOPS"	"72251505"	"SNACK & NONALCOHOLIC BEVERAGE BARS"	40.76	-73.9855
"403323524"	"STARBUCKS"	"1491 LEXINGTON AVE # 3"	"NEW YORK"	"NY"	"10029"	"36"	"061"	"581228"	"581208"	"COFFEE SHOPS"	"72251505"	"SNACK & NONALCOHOLIC BEVERAGE BARS"	40.7859	-73.9507
"952076255"	"STARBUCKS"	"684 8TH AVE"	"NEW YORK"	"NY"	"10036"	"36"	"061"	"581228"	"581208"	"COFFEE SHOPS"	"72251505"	"SNACK & NONALCOHOLIC BEVERAGE BARS"	40.7581	-73.989
"951569912"	"STARBUCKS"	"750 7TH AVE # 3"	"NEW YORK"	"NY"	"10019"	"36"	"061"	"581228"	"581208"	"COFFEE SHOPS"	"72251505"	"SNACK & NONALCOHOLIC BEVERAGE BARS"	40.7609	-73.9839
"951423011"	"STARBUCKS"	"1372 BROADWAY # 2"	"NEW YORK"	"NY"	"10018"	"36"	"061"	"581228"	"581208"	"COFFEE SHOPS"	"72251505"	"SNACK & NONALCOHOLIC BEVERAGE BARS"	40.7523	-73.9869
"951375708"	"STARBUCKS"	"340 MADISON AVE # E"	"NEW YORK"	"NY"	"10173"	"36"	"061"	"581228"	"581208"	"COFFEE SHOPS"	"72251505"	"SNACK & NONALCOHOLIC BEVERAGE BARS"	40.7538	-73.9786
"951289297"	"STARBUCKS"	"93 GREENWICH AVE"	"NEW YORK"	"NY"	"10014"	"36"	"061"	"581228"	"581208"	"COFFEE SHOPS"	"72251505"	"SNACK & NONALCOHOLIC BEVERAGE BARS"	40.7374	-74.0018
"951221381"	"STARBUCKS"	"124 8TH AVE"	"NEW YORK"	"NY"	"10011"	"36"	"061"	"581228"	"581208"	"COFFEE SHOPS"	"72251505"	"SNACK & NONALCOHOLIC BEVERAGE BARS"	40.7412	-74.001
"951210293"	"STARBUCKS"	"304 PARK AVE S"	"NEW YORK"	"NY"	"10010"	"36"	"061"	"581228"	"581208"	"COFFEE SHOPS"	"72251505"	"SNACK & NONALCOHOLIC BEVERAGE BARS"	40.7401	-73.987
"951185339"	"STARBUCKS"	"1 BATTERY PARK PLZ # 2"	"NEW YORK"	"NY"	"10004"	"36"	"061"	"581228"	"581208"	"COFFEE SHOPS"	"72251505"	"SNACK & NONALCOHOLIC BEVERAGE BARS"	40.7045	-74.0142
"946959038"	"STARBUCKS"	"6151 188TH ST"	"FLUSHING"	"NY"	"11365"	"36"	"081"	"581228"	"549915"	"COFFEE SHOPS"	"72251505"	"SNACK & NONALCOHOLIC BEVERAGE BARS"	40.7393	-73.7855
"943913715"	"STARBUCKS"	"684 AVENUE OF THE AMERICAS"	"NEW YORK"	"NY"	"10010"	"36"	"061"	"581228"	"581208"	"COFFEE SHOPS"	"72251505"	"SNACK & NONALCOHOLIC BEVERAGE BARS"	40.7418	-73.9932
"404004331"	"STARBUCKS"	"3101 BROADWAY # 5"	"ASTORIA"	"NY"	"11106"	"36"	"081"	"581228"	"581228"	"COFFEE SHOPS"	"72251505"	"SNACK & NONALCOHOLIC BEVERAGE BARS"	40.7621	-73.9249
"937083418"	"STARBUCKS"	"7000 AUSTIN ST"	"FLUSHING"	"NY"	"11375"	"36"	"081"	"581228"	"581208"	"COFFEE SHOPS"	"72251505"	"SNACK & NONALCOHOLIC BEVERAGE BARS"	40.7209	-73.847
"903549814"	"STARBUCKS"	"2929 BROADWAY"	"NEW YORK"	"NY"	"10025"	"36"	"061"	"581228"	"581208"	"COFFEE SHOPS"	"72251505"	"SNACK & NONALCOHOLIC BEVERAGE BARS"	40.8071	-73.965
"903489037"	"STARBUCKS"	"72 SPRING ST"	"NEW YORK"	"NY"	"10012"	"36"	"061"	"581228"	"581208"	"COFFEE SHOPS"	"72251505"	"SNACK & NONALCOHOLIC BEVERAGE BARS"	40.7225	-73.9977
"903489029"	"STARBUCKS"	"152 COLUMBUS AVE # 154"	"NEW YORK"	"NY"	"10023"	"36"	"061"	"581228"	"581208"	"COFFEE SHOPS"	"72251505"	"SNACK & NONALCOHOLIC BEVERAGE BARS"	40.7741	-73.9816
"903488997"	"STARBUCKS"	"1656 BROADWAY"	"NEW YORK"	"NY"	"10019"	"36"	"061"	"581228"	"581208"	"COFFEE SHOPS"	"72251505"	"SNACK & NONALCOHOLIC BEVERAGE BARS"	40.7623	-73.9834
"903435717"	"STARBUCKS"	"13 ASTOR PL"	"NEW YORK"	"NY"	"10003"	"36"	"061"	"581228"	"581208"	"COFFEE SHOPS"	"72251505"	"SNACK & NONALCOHOLIC BEVERAGE BARS"	40.7301	-73.9918
"884173048"	"STARBUCKS"	"335 MADISON AVE # D"	"NEW YORK"	"NY"	"10017"	"36"	"061"	"581228"	"581208"	"COFFEE SHOPS"	"72251505"	"SNACK & NONALCOHOLIC BEVERAGE BARS"	40.754	-73.9782
"884173030"	"STARBUCKS"	"450 LEXINGTON AVE # E"	"NEW YORK"	"NY"	"10017"	"36"	"061"	"581228"	"581208"	"COFFEE SHOPS"	"72251505"	"SNACK & NONALCOHOLIC BEVERAGE BARS"	40.7533	-73.9748
"884171976"	"STARBUCKS"	"1117 LEXINGTON AVE # 4"	"NEW YORK"	"NY"	"10075"	"36"	"061"	"581228"	"581208"	"COFFEE SHOPS"	"72251505"	"SNACK & NONALCOHOLIC BEVERAGE BARS"	40.7741	-73.9593
"884171935"	"STARBUCKS"	"1128 3RD AVE"	"NEW YORK"	"NY"	"10065"	"36"	"061"	"581228"	"581208"	"COFFEE SHOPS"	"72251505"	"SNACK & NONALCOHOLIC BEVERAGE BARS"	40.7659	-73.9637
"884171885"	"STARBUCKS"	"1559 2ND AVE"	"NEW YORK"	"NY"	"10028"	"36"	"061"	"581228"	"581208"	"COFFEE SHOPS"	"72251505"	"SNACK & NONALCOHOLIC BEVERAGE BARS"	40.7747	-73.9544
"884171877"	"STARBUCKS"	"585 2ND AVE"	"NEW YORK"	"NY"	"10016"	"36"	"061"	"581228"	"581208"	"COFFEE SHOPS"	"72251505"	"SNACK & NONALCOHOLIC BEVERAGE BARS"	40.7436	-73.9769
"884171851"	"STARBUCKS"	"141 2ND AVE"	"NEW YORK"	"NY"	"10003"	"36"	"061"	"581228"	"581208"	"COFFEE SHOPS"	"72251505"	"SNACK & NONALCOHOLIC BEVERAGE BARS"	40.7292	-73.9873
"884171844"	"STARBUCKS"	"1445 1ST AVE"	"NEW YORK"	"NY"	"10021"	"36"	"061"	"581228"	"581208"	"COFFEE SHOPS"	"72251505"	"SNACK & NONALCOHOLIC BEVERAGE BARS"	40.7703	-73.9548
"706954149"	"STARBUCKS"	"3805 MAIN ST"	"FLUSHING"	"NY"	"11354"	"36"	"081"	"581228"		"COFFEE SHOPS"	"72251505"	"SNACK & NONALCOHOLIC BEVERAGE BARS"	40.7607	-73.8304
"706887935"	"STARBUCKS"	"154 N 7TH ST"	"BROOKLYN"	"NY"	"11249"	"36"	"047"	"581228"		"COFFEE SHOPS"	"72251505"	"SNACK & NONALCOHOLIC BEVERAGE BARS"	40.7179	-73.9584
"706876138"	"STARBUCKS"	"1608 SHORE PKWY"	"BROOKLYN"	"NY"	"11214"	"36"	"047"	"581228"		"COFFEE SHOPS"	"72251505"	"SNACK & NONALCOHOLIC BEVERAGE BARS"	40.594	-73.9998
"706819925"	"STARBUCKS"	"13240 METROPOLITAN AVE"	"RICHMOND HILL"	"NY"	"11418"	"36"	"081"	"581228"		"COFFEE SHOPS"	"72251505"	"SNACK & NONALCOHOLIC BEVERAGE BARS"	40.7026	-73.8186
"706726522"	"STARBUCKS"	"815 FRANKLIN AVE"	"BROOKLYN"	"NY"	"11238"	"36"	"047"	"581228"		"COFFEE SHOPS"	"72251505"	"SNACK & NONALCOHOLIC BEVERAGE BARS"	40.6712	-73.9577
"411766621"	"STARBUCKS"	"2252 BROADWAY"	"NEW YORK"	"NY"	"10024"	"36"	"061"	"581228"	"581228"	"COFFEE SHOPS"	"72251505"	"SNACK & NONALCOHOLIC BEVERAGE BARS"	40.7848	-73.979
"706307252"	"STARBUCKS"	"JFK INTERNATIONAL AIRPORT"	"JAMAICA"	"NY"	"11435"	"36"	"081"	"581228"		"COFFEE SHOPS"	"72251505"	"SNACK & NONALCOHOLIC BEVERAGE BARS"	40.7041	-73.8127
"705974561"	"STARBUCKS"	"405 UNION AVE"	"BROOKLYN"	"NY"	"11211"	"36"	"047"	"581228"		"COFFEE SHOPS"	"72251505"	"SNACK & NONALCOHOLIC BEVERAGE BARS"	40.713	-73.9515
"414516769"	"STARBUCKS"	"122 GREENWICH AVE # A"	"NEW YORK"	"NY"	"10011"	"36"	"061"	"581228"	"581228"	"COFFEE SHOPS"	"72251505"	"SNACK & NONALCOHOLIC BEVERAGE BARS"	40.7386	-74.0022
"414516770"	"STARBUCKS"	"38 PARK ROW # 4"	"NEW YORK"	"NY"	"10038"	"36"	"061"	"581228"	"581208"	"COFFEE SHOPS"	"72251505"	"SNACK & NONALCOHOLIC BEVERAGE BARS"	40.7118	-74.0066
"705885783"	"STARBUCKS"	"5296 KINGS PLZ"	"BROOKLYN"	"NY"	"11234"	"36"	"047"	"581228"		"COFFEE SHOPS"	"72251505"	"SNACK & NONALCOHOLIC BEVERAGE BARS"	40.6112	-73.92
"705863248"	"STARBUCKS"	"3018 ASTORIA BLVD"	"ASTORIA"	"NY"	"11102"	"36"	"081"	"581228"		"COFFEE SHOPS"	"72251505"	"SNACK & NONALCOHOLIC BEVERAGE BARS"	40.7701	-73.9185
"705768914"	"STARBUCKS"	"239 BLEECKER ST # A"	"NEW YORK"	"NY"	"10014"	"36"	"061"	"581228"		"COFFEE SHOPS"	"72251505"	"SNACK & NONALCOHOLIC BEVERAGE BARS"	40.7308	-74.0024
"705408149"	"STARBUCKS"	"32 AVENUE OF THE AMERICAS"	"NEW YORK"	"NY"	"10013"	"36"	"061"	"581228"		"COFFEE SHOPS"	"72251505"	"SNACK & NONALCOHOLIC BEVERAGE BARS"	40.721	-74.0051
"615551355"	"STARBUCKS"	"4609 QUEENS BLVD"	"SUNNYSIDE"	"NY"	"11104"	"36"	"081"	"581228"	"581214"	"COFFEE SHOPS"	"72251505"	"SNACK & NONALCOHOLIC BEVERAGE BARS"	40.7434	-73.9186
"243190683"	"STARBUCKS"	"400 E 90TH ST # 1"	"NEW YORK"	"NY"	"10128"	"36"	"061"	"581228"	"581228"	"COFFEE SHOPS"	"72251505"	"SNACK & NONALCOHOLIC BEVERAGE BARS"	40.7791	-73.9473
"243190725"	"STARBUCKS"	"1378 MADISON AVE"	"NEW YORK"	"NY"	"10128"	"36"	"061"	"581228"	"581228"	"COFFEE SHOPS"	"72251505"	"SNACK & NONALCOHOLIC BEVERAGE BARS"	40.7873	-73.9543
"243190915"	"STARBUCKS"	"111 WORTH ST"	"NEW YORK"	"NY"	"10013"	"36"	"061"	"581228"		"COFFEE SHOPS"	"72251505"	"SNACK & NONALCOHOLIC BEVERAGE BARS"	40.716	-74.0036
"243191061"	"STARBUCKS"	"150 VARICK ST"	"NEW YORK"	"NY"	"10013"	"36"	"061"	"581228"	"581208"	"COFFEE SHOPS"	"72251505"	"SNACK & NONALCOHOLIC BEVERAGE BARS"	40.726	-74.0053
"243191459"	"STARBUCKS"	"145 3RD AVE"	"NEW YORK"	"NY"	"10003"	"36"	"061"	"581228"	"581228"	"COFFEE SHOPS"	"72251505"	"SNACK & NONALCOHOLIC BEVERAGE BARS"	40.7339	-73.9866
"243191475"	"STARBUCKS"	"301 W 19TH ST"	"NEW YORK"	"NY"	"10011"	"36"	"061"	"581228"	"581208"	"COFFEE SHOPS"	"72251505"	"SNACK & NONALCOHOLIC BEVERAGE BARS"	40.7429	-74.0002
"243191616"	"STARBUCKS"	"295 MADISON AVE # E"	"NEW YORK"	"NY"	"10017"	"36"	"061"	"581228"	"581214"	"COFFEE SHOPS"	"72251505"	"SNACK & NONALCOHOLIC BEVERAGE BARS"	40.7518	-73.9794
"243191640"	"STARBUCKS"	"230 PARK AVE # E"	"NEW YORK"	"NY"	"10169"	"36"	"061"	"581228"	"581228"	"COFFEE SHOPS"	"72251505"	"SNACK & NONALCOHOLIC BEVERAGE BARS"	40.7545	-73.9761
"243191657"	"STARBUCKS"	"511 LEXINGTON AVE"	"NEW YORK"	"NY"	"10017"	"36"	"061"	"581228"		"COFFEE SHOPS"	"72251505"	"SNACK & NONALCOHOLIC BEVERAGE BARS"	40.755	-73.9733
"243191665"	"STARBUCKS"	"943 2ND AVE"	"NEW YORK"	"NY"	"10022"	"36"	"061"	"581228"	"581228"	"COFFEE SHOPS"	"72251505"	"SNACK & NONALCOHOLIC BEVERAGE BARS"	40.7551	-73.9687
"243191681"	"STARBUCKS"	"156 W 52ND ST"	"NEW YORK"	"NY"	"10019"	"36"	"061"	"581228"		"COFFEE SHOPS"	"72251505"	"SNACK & NONALCOHOLIC BEVERAGE BARS"	40.7623	-73.9826
"243191707"	"STARBUCKS"	"1102 1ST AVE"	"NEW YORK"	"NY"	"10065"	"36"	"061"	"581228"	"581208"	"COFFEE SHOPS"	"72251505"	"SNACK & NONALCOHOLIC BEVERAGE BARS"	40.7607	-73.9612
"243191756"	"STARBUCKS"	"480 FOREST AVE"	"STATEN ISLAND"	"NY"	"10310"	"36"	"085"	"581228"	"581208"	"COFFEE SHOPS"	"72251505"	"SNACK & NONALCOHOLIC BEVERAGE BARS"	40.6303	-74.1065
"243252129"	"STARBUCKS"	"607 BRIGHTON BEACH AVE"	"BROOKLYN"	"NY"	"11235"	"36"	"047"	"581228"	"581208"	"COFFEE SHOPS"	"72251505"	"SNACK & NONALCOHOLIC BEVERAGE BARS"	40.5779	-73.9612
"243252152"	"STARBUCKS"	"134 MONTAGUE ST"	"BROOKLYN"	"NY"	"11201"	"36"	"047"	"581228"	"581228"	"COFFEE SHOPS"	"72251505"	"SNACK & NONALCOHOLIC BEVERAGE BARS"	40.6945	-73.994
"243252772"	"STARBUCKS"	"13811 20TH AVE"	"FLUSHING"	"NY"	"11356"	"36"	"081"	"581228"		"COFFEE SHOPS"	"72251505"	"SNACK & NONALCOHOLIC BEVERAGE BARS"	40.7818	-73.8304
"241903012"	"STARBUCKS"	"399 PARK AVE # 3"	"NEW YORK"	"NY"	"10022"	"36"	"061"	"581228"	"581208"	"COFFEE SHOPS"	"72251505"	"SNACK & NONALCOHOLIC BEVERAGE BARS"	40.7591	-73.9717
"244159380"	"STARBUCKS"	"1330 AVENUE OF THE AMERICAS"	"NEW YORK"	"NY"	"10019"	"36"	"061"	"581228"	"581228"	"COFFEE SHOPS"	"72251505"	"SNACK & NONALCOHOLIC BEVERAGE BARS"	40.762	-73.9785
"247512262"	"STARBUCKS"	"1500 BROADWAY # B"	"NEW YORK"	"NY"	"10036"	"36"	"061"	"581228"	"581208"	"COFFEE SHOPS"	"72251505"	"SNACK & NONALCOHOLIC BEVERAGE BARS"	40.7568	-73.9856
"249558149"	"STARBUCKS"	"444 E 80TH ST"	"NEW YORK"	"NY"	"10075"	"36"	"061"	"581228"	"581228"	"COFFEE SHOPS"	"72251505"	"SNACK & NONALCOHOLIC BEVERAGE BARS"	40.7724	-73.9508
"249651563"	"STARBUCKS"	"300 W 23RD ST"	"NEW YORK"	"NY"	"10011"	"36"	"061"	"581228"	"581208"	"COFFEE SHOPS"	"72251505"	"SNACK & NONALCOHOLIC BEVERAGE BARS"	40.7455	-73.9989
"250064110"	"STARBUCKS"	"45 E 51ST ST"	"NEW YORK"	"NY"	"10022"	"36"	"061"	"581228"	"581228"	"COFFEE SHOPS"	"72251505"	"SNACK & NONALCOHOLIC BEVERAGE BARS"	40.7581	-73.9738
"251515300"	"STARBUCKS"	"304 W 58TH ST"	"NEW YORK"	"NY"	"10019"	"36"	"061"	"581228"	"581228"	"COFFEE SHOPS"	"72251505"	"SNACK & NONALCOHOLIC BEVERAGE BARS"	40.7677	-73.983
"252777131"	"STARBUCKS"	"7419 3RD AVE"	"BROOKLYN"	"NY"	"11209"	"36"	"047"	"581228"		"COFFEE SHOPS"	"72251505"	"SNACK & NONALCOHOLIC BEVERAGE BARS"	40.6315	-74.0275
"241902998"	"STARBUCKS"	"599 LEXINGTON AVE # 6"	"NEW YORK"	"NY"	"10022"	"36"	"061"	"581228"	"581220"	"COFFEE SHOPS"	"72251505"	"SNACK & NONALCOHOLIC BEVERAGE BARS"	40.7579	-73.9707
"241902915"	"STARBUCKS"	"685 3RD AVE # 4"	"NEW YORK"	"NY"	"10017"	"36"	"061"	"581228"	"581228"	"COFFEE SHOPS"	"72251505"	"SNACK & NONALCOHOLIC BEVERAGE BARS"	40.7516	-73.9733
"253475347"	"STARBUCKS"	"90 PARK AVE # 1"	"NEW YORK"	"NY"	"10016"	"36"	"061"	"581228"	"581208"	"COFFEE SHOPS"	"72251505"	"SNACK & NONALCOHOLIC BEVERAGE BARS"	40.7507	-73.9794
"253604821"	"STARBUCKS"	"2070 VICTORY BLVD # 1"	"STATEN ISLAND"	"NY"	"10314"	"36"	"085"	"581228"	"581228"	"COFFEE SHOPS"	"72251505"	"SNACK & NONALCOHOLIC BEVERAGE BARS"	40.6122	-74.1326
"241902683"	"STARBUCKS"	"360 LEXINGTON AVE # A"	"NEW YORK"	"NY"	"10017"	"36"	"061"	"581228"	"581208"	"COFFEE SHOPS"	"72251505"	"SNACK & NONALCOHOLIC BEVERAGE BARS"	40.7505	-73.9769
"254970361"	"STARBUCKS"	"139 FLATBUSH AVE # A4"	"BROOKLYN"	"NY"	"11217"	"36"	"047"	"581228"	"581228"	"COFFEE SHOPS"	"72251505"	"SNACK & NONALCOHOLIC BEVERAGE BARS"	40.6846	-73.9774
"425875208"	"STARBUCKS"	"1281 1ST AVE"	"NEW YORK"	"NY"	"10021"	"36"	"061"	"581228"	"581228"	"COFFEE SHOPS"	"72251505"	"SNACK & NONALCOHOLIC BEVERAGE BARS"	40.7687	-73.9582
"425875209"	"STARBUCKS"	"49 1/2 1ST AVE # 1"	"NEW YORK"	"NY"	"10003"	"36"	"061"	"581228"	"581228"	"COFFEE SHOPS"	"72251505"	"SNACK & NONALCOHOLIC BEVERAGE BARS"	40.7246	-73.9876
"579376849"	"STARBUCKS"	"72 GROVE ST # 1"	"NEW YORK"	"NY"	"10014"	"36"	"061"	"581228"	"581208"	"COFFEE SHOPS"	"72251505"	"SNACK & NONALCOHOLIC BEVERAGE BARS"	40.7331	-74.0027
"579269580"	"STARBUCKS"	"525 FASHION AVE # 2"	"NEW YORK"	"NY"	"10018"	"36"	"061"	"581228"	"581208"	"COFFEE SHOPS"	"72251505"	"SNACK & NONALCOHOLIC BEVERAGE BARS"	40.7535	-73.9882
"579152299"	"STARBUCKS"	"55 BROAD ST # 3"	"NEW YORK"	"NY"	"10004"	"36"	"061"	"581228"	"581208"	"COFFEE SHOPS"	"72251505"	"SNACK & NONALCOHOLIC BEVERAGE BARS"	40.7053	-74.0111
"426307549"	"STARBUCKS"	"822 LEXINGTON AVE"	"NEW YORK"	"NY"	"10065"	"36"	"061"	"581228"		"COFFEE SHOPS"	"72251505"	"SNACK & NONALCOHOLIC BEVERAGE BARS"	40.7648	-73.9665
"579123753"	"STARBUCKS"	"757 3RD AVE # E"	"NEW YORK"	"NY"	"10017"	"36"	"061"	"581228"	"581208"	"COFFEE SHOPS"	"72251505"	"SNACK & NONALCOHOLIC BEVERAGE BARS"	40.7539	-73.9715
"579085655"	"STARBUCKS"	"200 MADISON AVE # 1"	"NEW YORK"	"NY"	"10016"	"36"	"061"	"581228"	"581208"	"COFFEE SHOPS"	"72251505"	"SNACK & NONALCOHOLIC BEVERAGE BARS"	40.7489	-73.9827
"426820925"	"STARBUCKS"	"625 8TH AVE # 114"	"NEW YORK"	"NY"	"10018"	"36"	"061"	"581228"		"COFFEE SHOPS"	"72251505"	"SNACK & NONALCOHOLIC BEVERAGE BARS"	40.7562	-73.9907
"579017005"	"STARBUCKS"	"296 3RD AVE # 300"	"NEW YORK"	"NY"	"10010"	"36"	"061"	"581228"	"581208"	"COFFEE SHOPS"	"72251505"	"SNACK & NONALCOHOLIC BEVERAGE BARS"	40.7388	-73.9835
"578997496"	"STARBUCKS"	"48 W 73RD ST"	"NEW YORK"	"NY"	"10023"	"36"	"061"	"581228"	"581228"	"COFFEE SHOPS"	"72251505"	"SNACK & NONALCOHOLIC BEVERAGE BARS"	40.7778	-73.9782
"578883506"	"STARBUCKS"	"322 W 57TH ST"	"NEW YORK"	"NY"	"10019"	"36"	"061"	"581228"	"581208"	"COFFEE SHOPS"	"72251505"	"SNACK & NONALCOHOLIC BEVERAGE BARS"	40.7668	-73.9842
"578879256"	"STARBUCKS"	"30 ROCKEFELLER PLZ # CONC23"	"NEW YORK"	"NY"	"10112"	"36"	"061"	"581228"	"581208"	"COFFEE SHOPS"	"72251505"	"SNACK & NONALCOHOLIC BEVERAGE BARS"	40.7587	-73.9787
"427143368"	"STARBUCKS"	"106 PAGE AVE"	"STATEN ISLAND"	"NY"	"10309"	"36"	"085"	"581228"		"COFFEE SHOPS"	"72251505"	"SNACK & NONALCOHOLIC BEVERAGE BARS"	40.5216	-74.2355
"558475596"	"STARBUCKS"	"15741 CROSSBAY BLVD"	"HOWARD BEACH"	"NY"	"11414"	"36"	"081"	"581228"	"581208"	"COFFEE SHOPS"	"72251505"	"SNACK & NONALCOHOLIC BEVERAGE BARS"	40.6613	-73.84
"558474136"	"STARBUCKS"	"2202 31ST ST"	"ASTORIA"	"NY"	"11105"	"36"	"081"	"581228"	"581228"	"COFFEE SHOPS"	"72251505"	"SNACK & NONALCOHOLIC BEVERAGE BARS"	40.7762	-73.9112
"558449401"	"STARBUCKS"	"4102 MAIN ST"	"FLUSHING"	"NY"	"11355"	"36"	"081"	"581228"	"581208"	"COFFEE SHOPS"	"72251505"	"SNACK & NONALCOHOLIC BEVERAGE BARS"	40.758	-73.8297
"558441341"	"STARBUCKS"	"3144 STEINWAY ST # A"	"ASTORIA"	"NY"	"11103"	"36"	"081"	"581228"	"581208"	"COFFEE SHOPS"	"72251505"	"SNACK & NONALCOHOLIC BEVERAGE BARS"	40.7603	-73.9182
"558465910"	"STARBUCKS"	"4125 39TH ST"	"SUNNYSIDE"	"NY"	"11104"	"36"	"081"	"581228"		"COFFEE SHOPS"	"72251505"	"SNACK & NONALCOHOLIC BEVERAGE BARS"	40.7467	-73.9255
"558281440"	"STARBUCKS"	"164 7TH AVE # A"	"BROOKLYN"	"NY"	"11215"	"36"	"047"	"581228"	"581208"	"COFFEE SHOPS"	"72251505"	"SNACK & NONALCOHOLIC BEVERAGE BARS"	40.6721	-73.9776
"427916646"	"STARBUCKS"	"1417 KINGS HWY"	"BROOKLYN"	"NY"	"11229"	"36"	"047"	"581228"		"COFFEE SHOPS"	"72251505"	"SNACK & NONALCOHOLIC BEVERAGE BARS"	40.6089	-73.9587
"540840162"	"STARBUCKS"	"100 WILLIAM ST # PLZ2"	"NEW YORK"	"NY"	"10038"	"36"	"061"	"581228"	"581208"	"COFFEE SHOPS"	"72251505"	"SNACK & NONALCOHOLIC BEVERAGE BARS"	40.7083	-74.0072
"540840121"	"STARBUCKS"	"2 COLUMBUS AVE # 3"	"NEW YORK"	"NY"	"10023"	"36"	"061"	"581228"	"581208"	"COFFEE SHOPS"	"72251505"	"SNACK & NONALCOHOLIC BEVERAGE BARS"	40.7732	-73.9814
"427940676"	"STARBUCKS"	"164 PARK PL"	"BROOKLYN"	"NY"	"11217"	"36"	"047"	"581228"		"COFFEE SHOPS"	"72251505"	"SNACK & NONALCOHOLIC BEVERAGE BARS"	40.6778	-73.9735
"540840105"	"STARBUCKS"	"2498 BROADWAY"	"NEW YORK"	"NY"	"10025"	"36"	"061"	"581228"	"581208"	"COFFEE SHOPS"	"72251505"	"SNACK & NONALCOHOLIC BEVERAGE BARS"	40.7926	-73.973
"540840097"	"STARBUCKS"	"1460 BROADWAY # 5"	"NEW YORK"	"NY"	"10036"	"36"	"061"	"581228"	"581208"	"COFFEE SHOPS"	"72251505"	"SNACK & NONALCOHOLIC BEVERAGE BARS"	40.7551	-73.9863
"427979385"	"STARBUCKS"	"135 JOHN ST"	"NEW YORK"	"NY"	"10038"	"36"	"061"	"581228"		"COFFEE SHOPS"	"72251505"	"SNACK & NONALCOHOLIC BEVERAGE BARS"	40.7071	-74.0049
"540840071"	"STARBUCKS"	"665 BROADWAY"	"NEW YORK"	"NY"	"10012"	"36"	"061"	"581228"	"581208"	"COFFEE SHOPS"	"72251505"	"SNACK & NONALCOHOLIC BEVERAGE BARS"	40.7271	-73.9954
"428039752"	"STARBUCKS"	"515 MADISON AVE # 1"	"NEW YORK"	"NY"	"10022"	"36"	"061"	"581228"	"581228"	"COFFEE SHOPS"	"72251505"	"SNACK & NONALCOHOLIC BEVERAGE BARS"	40.7597	-73.9737
"540840063"	"STARBUCKS"	"125 W BROADWAY"	"NEW YORK"	"NY"	"10013"	"36"	"061"	"581228"	"581208"	"COFFEE SHOPS"	"72251505"	"SNACK & NONALCOHOLIC BEVERAGE BARS"	40.7164	-74.0085
"540840055"	"STARBUCKS"	"77 W 125TH ST"	"NEW YORK"	"NY"	"10027"	"36"	"061"	"581228"	"581208"	"COFFEE SHOPS"	"72251505"	"SNACK & NONALCOHOLIC BEVERAGE BARS"	40.8076	-73.9449
"540840022"	"STARBUCKS"	"135 E 57TH ST # 67"	"NEW YORK"	"NY"	"10022"	"36"	"061"	"581228"	"581208"	"COFFEE SHOPS"	"72251505"	"SNACK & NONALCOHOLIC BEVERAGE BARS"	40.7614	-73.9694
"540839990"	"STARBUCKS"	"150 E 42ND ST # E"	"NEW YORK"	"NY"	"10017"	"36"	"061"	"581228"	"581208"	"COFFEE SHOPS"	"72251505"	"SNACK & NONALCOHOLIC BEVERAGE BARS"	40.7509	-73.9751
"540839982"	"STARBUCKS"	"871 8TH AVE"	"NEW YORK"	"NY"	"10019"	"36"	"061"	"581228"	"581208"	"COFFEE SHOPS"	"72251505"	"SNACK & NONALCOHOLIC BEVERAGE BARS"	40.7639	-73.9856
"540839974"	"STARBUCKS"	"600 8TH AVE # 1"	"NEW YORK"	"NY"	"10018"	"36"	"061"	"581228"	"581208"	"COFFEE SHOPS"	"72251505"	"SNACK & NONALCOHOLIC BEVERAGE BARS"	40.7553	-73.9908
"540839966"	"STARBUCKS"	"494 8TH AVE # 3"	"NEW YORK"	"NY"	"10001"	"36"	"061"	"581228"	"581208"	"COFFEE SHOPS"	"72251505"	"SNACK & NONALCOHOLIC BEVERAGE BARS"	40.7526	-73.9928
"540839958"	"STARBUCKS"	"545 5TH AVE # B"	"NEW YORK"	"NY"	"10017"	"36"	"061"	"581228"	"581208"	"COFFEE SHOPS"	"72251505"	"SNACK & NONALCOHOLIC BEVERAGE BARS"	40.7553	-73.9795
"540739836"	"STARBUCKS"	"7 PENN PLZ # 15"	"NEW YORK"	"NY"	"10001"	"36"	"061"	"581228"	"581208"	"COFFEE SHOPS"	"72251505"	"SNACK & NONALCOHOLIC BEVERAGE BARS"	40.7489	-73.9925
"433281913"	"STARBUCKS"	"395 FLATBUSH AVENUE EXT"	"BROOKLYN"	"NY"	"11201"	"36"	"047"	"581228"	"581228"	"COFFEE SHOPS"	"72251505"	"SNACK & NONALCOHOLIC BEVERAGE BARS"	40.6894	-73.9808
"509262499"	"STARBUCKS"	"450 FASHION AVE"	"NEW YORK"	"NY"	"10123"	"36"	"061"	"581228"	"581208"	"COFFEE SHOPS"	"72251505"	"SNACK & NONALCOHOLIC BEVERAGE BARS"	40.7509	-73.9904
"509239117"	"STARBUCKS"	"682 9TH AVE"	"NEW YORK"	"NY"	"10036"	"36"	"061"	"581228"	"581208"	"COFFEE SHOPS"	"72251505"	"SNACK & NONALCOHOLIC BEVERAGE BARS"	40.7616	-73.99
"509181863"	"STARBUCKS"	"444 COLUMBUS AVE"	"NEW YORK"	"NY"	"10024"	"36"	"061"	"581228"	"581208"	"COFFEE SHOPS"	"72251505"	"SNACK & NONALCOHOLIC BEVERAGE BARS"	40.7836	-73.9744
"509168035"	"STARBUCKS"	"1841 BROADWAY # 2"	"NEW YORK"	"NY"	"10023"	"36"	"061"	"581228"	"581208"	"COFFEE SHOPS"	"72251505"	"SNACK & NONALCOHOLIC BEVERAGE BARS"	40.7693	-73.9826
"509151163"	"STARBUCKS"	"116 E 57TH ST # A"	"NEW YORK"	"NY"	"10022"	"36"	"061"	"581228"	"581208"	"COFFEE SHOPS"	"72251505"	"SNACK & NONALCOHOLIC BEVERAGE BARS"	40.761	-73.97
"509018842"	"STARBUCKS"	"325 W 49TH ST"	"NEW YORK"	"NY"	"10019"	"36"	"061"	"581228"	"581208"	"COFFEE SHOPS"	"72251505"	"SNACK & NONALCOHOLIC BEVERAGE BARS"	40.7621	-73.9873
"508826120"	"STARBUCKS"	"575 5TH AVE # 3"	"NEW YORK"	"NY"	"10017"	"36"	"061"	"581228"	"581208"	"COFFEE SHOPS"	"72251505"	"SNACK & NONALCOHOLIC BEVERAGE BARS"	40.7563	-73.9782
"508826112"	"STARBUCKS"	"107 E 43RD ST"	"NEW YORK"	"NY"	"10170"	"36"	"061"	"581228"	"581228"	"COFFEE SHOPS"	"72251505"	"SNACK & NONALCOHOLIC BEVERAGE BARS"	40.752	-73.9754
"508826104"	"STARBUCKS"	"280 PARK AVE # A"	"NEW YORK"	"NY"	"10017"	"36"	"061"	"581228"	"581208"	"COFFEE SHOPS"	"72251505"	"SNACK & NONALCOHOLIC BEVERAGE BARS"	40.7564	-73.9751
"508731684"	"STARBUCKS"	"261 5TH AVE # C"	"NEW YORK"	"NY"	"10016"	"36"	"061"	"581228"	"581208"	"COFFEE SHOPS"	"72251505"	"SNACK & NONALCOHOLIC BEVERAGE BARS"	40.7451	-73.9869
"508731676"	"STARBUCKS"	"424 PARK AVE S # 1"	"NEW YORK"	"NY"	"10016"	"36"	"061"	"581228"	"581208"	"COFFEE SHOPS"	"72251505"	"SNACK & NONALCOHOLIC BEVERAGE BARS"	40.7443	-73.9837
"508474996"	"STARBUCKS"	"3 NEW YORK PLZ # A"	"NEW YORK"	"NY"	"10004"	"36"	"061"	"581228"	"581208"	"COFFEE SHOPS"	"72251505"	"SNACK & NONALCOHOLIC BEVERAGE BARS"	40.7032	-74.0101
"485668974"	"STARBUCKS"	"55 E 52ND ST # 1"	"NEW YORK"	"NY"	"10055"	"36"	"061"	"581228"	"581208"	"COFFEE SHOPS"	"72251505"	"SNACK & NONALCOHOLIC BEVERAGE BARS"	40.7587	-73.9736
"485668941"	"STARBUCKS"	"1345 AVENUE OF THE AMERICAS"	"NEW YORK"	"NY"	"10105"	"36"	"061"	"581228"	"581208"	"COFFEE SHOPS"	"72251505"	"SNACK & NONALCOHOLIC BEVERAGE BARS"	40.7623	-73.9784
"479610727"	"STARBUCKS"	"4 WORLD FINANCIAL CTR"	"NEW YORK"	"NY"	"10080"	"36"	"061"	"581228"	"581208"	"COFFEE SHOPS"	"72251505"	"SNACK & NONALCOHOLIC BEVERAGE BARS"	40.7145	-74.0155
"479595662"	"STARBUCKS"	"1290 AVE AMERICAS # L2"	"NEW YORK"	"NY"	"10104"	"36"	"061"	"581228"	"581208"	"COFFEE SHOPS"	"72251505"	"SNACK & NONALCOHOLIC BEVERAGE BARS"	40.7604	-73.9797
"479435646"	"STARBUCKS"	"1 LIBERTY PLZ # 1"	"NEW YORK"	"NY"	"10006"	"36"	"061"	"581228"	"581208"	"COFFEE SHOPS"	"72251505"	"SNACK & NONALCOHOLIC BEVERAGE BARS"	40.7098	-74.0108
"437115709"	"STARBUCKS"	"666 5TH AVE # 200"	"NEW YORK"	"NY"	"10103"	"36"	"061"	"581228"		"COFFEE SHOPS"	"72251505"	"SNACK & NONALCOHOLIC BEVERAGE BARS"	40.7599	-73.9762
"705387283"	"STARBUCKS"	"440 E FORDHAM RD"	"BRONX"	"NY"	"10458"	"36"	"005"	"581228"		"COFFEE SHOPS"	"72251505"	"SNACK & NONALCOHOLIC BEVERAGE BARS"	40.8609	-73.89
"704584789"	"STARBUCKS"	"EMPIRE STATE # 3505TH"	"NEW YORK"	"NY"	"10018"	"36"	"061"	"581228"		"COFFEE SHOPS"	"72251505"	"SNACK & NONALCOHOLIC BEVERAGE BARS"	40.7537	-73.9892
"700196732"	"STARBUCKS"	"4765 BROADWAY"	"NEW YORK"	"NY"	"10034"	"36"	"061"	"581228"		"COFFEE SHOPS"	"72251505"	"SNACK & NONALCOHOLIC BEVERAGE BARS"	40.8657	-73.927
"700104667"	"STARBUCKS"	"250 W 57TH ST"	"NEW YORK"	"NY"	"10107"	"36"	"061"	"581228"		"COFFEE SHOPS"	"72251505"	"SNACK & NONALCOHOLIC BEVERAGE BARS"	40.7664	-73.9821
"692370331"	"STARBUCKS"	"120 CHURCH ST"	"NEW YORK"	"NY"	"10007"	"36"	"061"	"581228"	"581208"	"COFFEE SHOPS"	"72251505"	"SNACK & NONALCOHOLIC BEVERAGE BARS"	40.7138	-74.009
"416425233"	"STARBUCKS"	"370 7TH AVE # 1"	"NEW YORK"	"NY"	"10001"	"36"	"061"	"581228"	"581228"	"COFFEE SHOPS"	"72251505"	"SNACK & NONALCOHOLIC BEVERAGE BARS"	40.7487	-73.9923
"687433698"	"STARBUCKS"	"1411 AVENUE OF THE AMERICAS"	"NEW YORK"	"NY"	"10019"	"36"	"061"	"581228"	"581208"	"COFFEE SHOPS"	"72251505"	"SNACK & NONALCOHOLIC BEVERAGE BARS"	40.765	-73.9772
"686959370"	"STARBUCKS"	"25441 HORACE HARDING EXPY"	"LITTLE NECK"	"NY"	"11362"	"36"	"081"	"581228"	"581228"	"COFFEE SHOPS"	"72251505"	"SNACK & NONALCOHOLIC BEVERAGE BARS"	40.7642	-73.7262
"683699722"	"STARBUCKS"	"2900 VETERANS RD W"	"STATEN ISLAND"	"NY"	"10309"	"36"	"085"	"581228"		"COFFEE SHOPS"	"72251505"	"SNACK & NONALCOHOLIC BEVERAGE BARS"	40.5279	-74.2316
"683699557"	"STARBUCKS"	"1335 AVENUE OF THE AMERICAS"	"NEW YORK"	"NY"	"10019"	"36"	"061"	"581228"		"COFFEE SHOPS"	"72251505"	"SNACK & NONALCOHOLIC BEVERAGE BARS"	40.7624	-73.9797
"682797949"	"STARBUCKS"	"130 FULTON ST # 1"	"NEW YORK"	"NY"	"10038"	"36"	"061"	"581228"	"581208"	"COFFEE SHOPS"	"72251505"	"SNACK & NONALCOHOLIC BEVERAGE BARS"	40.7102	-74.0081
"417247259"	"STARBUCKS"	"2530 HYLAN BLVD # 4"	"STATEN ISLAND"	"NY"	"10306"	"36"	"085"	"581228"	"549915"	"COFFEE SHOPS"	"72251505"	"SNACK & NONALCOHOLIC BEVERAGE BARS"	40.5694	-74.11
"682122155"	"STARBUCKS"	"1740 BROADWAY"	"NEW YORK"	"NY"	"10019"	"36"	"061"	"581228"		"COFFEE SHOPS"	"72251505"	"SNACK & NONALCOHOLIC BEVERAGE BARS"	40.7651	-73.982
"673609921"	"STARBUCKS"	"229 7TH AVE"	"NEW YORK"	"NY"	"10011"	"36"	"061"	"581228"	"581208"	"COFFEE SHOPS"	"72251505"	"SNACK & NONALCOHOLIC BEVERAGE BARS"	40.7444	-73.9954
"672461126"	"STARBUCKS"	"201 W 125TH ST # 1"	"NEW YORK"	"NY"	"10027"	"36"	"061"	"581228"	"581208"	"COFFEE SHOPS"	"72251505"	"SNACK & NONALCOHOLIC BEVERAGE BARS"	40.8091	-73.9484
"672320314"	"STARBUCKS"	"350 5TH AVE # 3"	"NEW YORK"	"NY"	"10118"	"36"	"061"	"581228"	"581228"	"COFFEE SHOPS"	"72251505"	"SNACK & NONALCOHOLIC BEVERAGE BARS"	40.7481	-73.9858
"669990962"	"STARBUCKS"	"11824 QUEENS BLVD"	"FOREST HILLS"	"NY"	"11375"	"36"	"081"	"581228"	"581228"	"COFFEE SHOPS"	"72251505"	"SNACK & NONALCOHOLIC BEVERAGE BARS"	40.7148	-73.8323
"669357774"	"STARBUCKS"	"2195 FREDERICK DOUGLASS BLVD"	"NEW YORK"	"NY"	"10026"	"36"	"061"	"581228"	"581228"	"COFFEE SHOPS"	"72251505"	"SNACK & NONALCOHOLIC BEVERAGE BARS"	40.806	-73.9544
"663125003"	"STARBUCKS"	"2394 BROADWAY"	"NEW YORK"	"NY"	"10024"	"36"	"061"	"581228"	"581208"	"COFFEE SHOPS"	"72251505"	"SNACK & NONALCOHOLIC BEVERAGE BARS"	40.7893	-73.9754
"663124964"	"STARBUCKS"	"7825 37TH AVE"	"JACKSON HEIGHTS"	"NY"	"11372"	"36"	"081"	"581228"	"581228"	"COFFEE SHOPS"	"72251505"	"SNACK & NONALCOHOLIC BEVERAGE BARS"	40.7495	-73.8875
"663124949"	"STARBUCKS"	"1728 EASTCHESTER RD"	"BRONX"	"NY"	"10461"	"36"	"005"	"581228"	"581214"	"COFFEE SHOPS"	"72251505"	"SNACK & NONALCOHOLIC BEVERAGE BARS"	40.8472	-73.8444
"655960128"	"STARBUCKS"	"3503 JOHNSON AVE"	"BRONX"	"NY"	"10463"	"36"	"005"	"581228"	"581228"	"COFFEE SHOPS"	"72251505"	"SNACK & NONALCOHOLIC BEVERAGE BARS"	40.8864	-73.9099
"655164192"	"STARBUCKS"	"301 W 145TH ST # 1"	"NEW YORK"	"NY"	"10039"	"36"	"061"	"581228"	"581208"	"COFFEE SHOPS"	"72251505"	"SNACK & NONALCOHOLIC BEVERAGE BARS"	40.8231	-73.942
"654779701"	"STARBUCKS"	"220 E 42ND ST # A"	"NEW YORK"	"NY"	"10017"	"36"	"061"	"581228"	"581228"	"COFFEE SHOPS"	"72251505"	"SNACK & NONALCOHOLIC BEVERAGE BARS"	40.7498	-73.9732
"654003953"	"STARBUCKS"	"1185 AVENUE OF THE AMERICAS"	"NEW YORK"	"NY"	"10036"	"36"	"061"	"581228"	"581208"	"COFFEE SHOPS"	"72251505"	"SNACK & NONALCOHOLIC BEVERAGE BARS"	40.7579	-73.9825
"654003870"	"STARBUCKS"	"482 W BROADWAY # 1"	"NEW YORK"	"NY"	"10012"	"36"	"061"	"581228"	"581208"	"COFFEE SHOPS"	"72251505"	"SNACK & NONALCOHOLIC BEVERAGE BARS"	40.7269	-74.0003
"654003862"	"STARBUCKS"	"2690 BROADWAY"	"NEW YORK"	"NY"	"10025"	"36"	"061"	"581228"	"581228"	"COFFEE SHOPS"	"72251505"	"SNACK & NONALCOHOLIC BEVERAGE BARS"	40.7987	-73.9687
"654003813"	"STARBUCKS"	"1973 86TH ST"	"BROOKLYN"	"NY"	"11214"	"36"	"047"	"581228"	"581228"	"COFFEE SHOPS"	"72251505"	"SNACK & NONALCOHOLIC BEVERAGE BARS"	40.605	-73.9987
"652238437"	"STARBUCKS"	"14 W 23RD ST # 1"	"NEW YORK"	"NY"	"10010"	"36"	"061"	"581228"	"581228"	"COFFEE SHOPS"	"72251505"	"SNACK & NONALCOHOLIC BEVERAGE BARS"	40.7416	-73.9904
"650048739"	"STARBUCKS"	"4058 BROADWAY"	"NEW YORK"	"NY"	"10032"	"36"	"061"	"581228"	"581228"	"COFFEE SHOPS"	"72251505"	"SNACK & NONALCOHOLIC BEVERAGE BARS"	40.8429	-73.9392
"646285874"	"STARBUCKS"	"1251 LEXINGTON AVE # 3"	"NEW YORK"	"NY"	"10028"	"36"	"061"	"581228"	"581228"	"COFFEE SHOPS"	"72251505"	"SNACK & NONALCOHOLIC BEVERAGE BARS"	40.7785	-73.9562
"645248873"	"STARBUCKS"	"315 7TH AVE # 2"	"NEW YORK"	"NY"	"10001"	"36"	"061"	"581228"	"581208"	"COFFEE SHOPS"	"72251505"	"SNACK & NONALCOHOLIC BEVERAGE BARS"	40.747	-73.9932
"643742547"	"STARBUCKS"	"25105 JERICHO TPKE # 3"	"BELLEROSE"	"NY"	"11426"	"36"	"081"	"581228"	"581208"	"COFFEE SHOPS"	"72251505"	"SNACK & NONALCOHOLIC BEVERAGE BARS"	40.7269	-73.714
"637505108"	"STARBUCKS"	"2754 HYLAN BLVD"	"STATEN ISLAND"	"NY"	"10306"	"36"	"085"	"581228"		"COFFEE SHOPS"	"72251505"	"SNACK & NONALCOHOLIC BEVERAGE BARS"	40.5654	-74.1147
"637504424"	"STARBUCKS"	"300 W KINGSBRIDGE RD"	"BRONX"	"NY"	"10463"	"36"	"005"	"581228"		"COFFEE SHOPS"	"72251505"	"SNACK & NONALCOHOLIC BEVERAGE BARS"	40.881	-73.9071
"421973534"	"STARBUCKS"	"8000 COOPER AVE"	"GLENDALE"	"NY"	"11385"	"36"	"081"	"581228"		"COFFEE SHOPS"	"72251505"	"SNACK & NONALCOHOLIC BEVERAGE BARS"	40.7084	-73.8684
"637459934"	"STARBUCKS"	"LA GUARDIA DELTA TERMINAL"	"FLUSHING"	"NY"	"11371"	"36"	"081"	"581228"		"COFFEE SHOPS"	"72251505"	"SNACK & NONALCOHOLIC BEVERAGE BARS"	40.7686	-73.8875
"637355793"	"STARBUCKS"	"373 5TH AVE # 1"	"NEW YORK"	"NY"	"10016"	"36"	"061"	"581228"	"581228"	"COFFEE SHOPS"	"72251505"	"SNACK & NONALCOHOLIC BEVERAGE BARS"	40.7492	-73.984
"637355660"	"STARBUCKS"	"301 PARK AVE"	"NEW YORK"	"NY"	"10022"	"36"	"061"	"581228"		"COFFEE SHOPS"	"72251505"	"SNACK & NONALCOHOLIC BEVERAGE BARS"	40.7565	-73.9733
"637354929"	"STARBUCKS"	"85 WEST ST # 1"	"NEW YORK"	"NY"	"10006"	"36"	"061"	"581228"		"COFFEE SHOPS"	"72251505"	"SNACK & NONALCOHOLIC BEVERAGE BARS"	40.7094	-74.0143
"637354804"	"STARBUCKS"	"655 W 34TH ST"	"NEW YORK"	"NY"	"10001"	"36"	"061"	"581228"		"COFFEE SHOPS"	"72251505"	"SNACK & NONALCOHOLIC BEVERAGE BARS"	40.7566	-74.0037
"637354655"	"STARBUCKS"	"405 BROADWAY # 1"	"NEW YORK"	"NY"	"10013"	"36"	"061"	"581228"	"581208"	"COFFEE SHOPS"	"72251505"	"SNACK & NONALCOHOLIC BEVERAGE BARS"	40.719	-74.0026
"637354440"	"STARBUCKS"	"378 AVENUE OF THE AMERICAS # 2"	"NEW YORK"	"NY"	"10011"	"36"	"061"	"581228"	"581208"	"COFFEE SHOPS"	"72251505"	"SNACK & NONALCOHOLIC BEVERAGE BARS"	40.733	-73.9997
"637354390"	"STARBUCKS"	"1889 BROADWAY"	"NEW YORK"	"NY"	"10023"	"36"	"061"	"581228"	"581228"	"COFFEE SHOPS"	"72251505"	"SNACK & NONALCOHOLIC BEVERAGE BARS"	40.7713	-73.9827
"637352584"	"STARBUCKS"	"425 MADISON AVE # B"	"NEW YORK"	"NY"	"10017"	"36"	"061"	"581228"	"581208"	"COFFEE SHOPS"	"72251505"	"SNACK & NONALCOHOLIC BEVERAGE BARS"	40.757	-73.9759
"422128768"	"STARBUCKS"	"1385 METROPOLITAN AVE"	"BRONX"	"NY"	"10462"	"36"	"005"	"581228"	"581228"	"COFFEE SHOPS"	"72251505"	"SNACK & NONALCOHOLIC BEVERAGE BARS"	40.8351	-73.8613
"637351453"	"STARBUCKS"	"4 W 21ST ST # A"	"NEW YORK"	"NY"	"10010"	"36"	"061"	"581228"	"581228"	"COFFEE SHOPS"	"72251505"	"SNACK & NONALCOHOLIC BEVERAGE BARS"	40.7404	-73.9914
"637354846"	"STARBUCKS"	"1261 LEXINGTON AVE"	"NEW YORK"	"NY"	"10028"	"36"	"061"	"581228"		"COFFEE SHOPS"	"72251505"	"SNACK & NONALCOHOLIC BEVERAGE BARS"	40.7785	-73.9563
"634683510"	"STARBUCKS"	"910 MANHATTAN AVE"	"BROOKLYN"	"NY"	"11222"	"36"	"047"	"581228"	"581208"	"COFFEE SHOPS"	"72251505"	"SNACK & NONALCOHOLIC BEVERAGE BARS"	40.7304	-73.9539
"633519715"	"STARBUCKS"	"45 OLD ROCKAWAY RD # 8"	"JAMAICA"	"NY"	"11430"	"36"	"081"	"581228"		"COFFEE SHOPS"	"72251505"	"SNACK & NONALCOHOLIC BEVERAGE BARS"	40.6575	-73.7953
"633447586"	"STARBUCKS"	"118 UNION ST"	"BROOKLYN"	"NY"	"11231"	"36"	"047"	"581228"		"COFFEE SHOPS"	"72251505"	"SNACK & NONALCOHOLIC BEVERAGE BARS"	40.6842	-74.0028
"632261483"	"STARBUCKS"	"6 METROTECH CTR"	"BROOKLYN"	"NY"	"11201"	"36"	"047"	"581228"	"581208"	"COFFEE SHOPS"	"72251505"	"SNACK & NONALCOHOLIC BEVERAGE BARS"	40.6944	-73.986
"631969219"	"STARBUCKS"	"345 HUDSON ST # B"	"NEW YORK"	"NY"	"10014"	"36"	"061"	"581228"	"581208"	"COFFEE SHOPS"	"72251505"	"SNACK & NONALCOHOLIC BEVERAGE BARS"	40.7276	-74.0074
"629408352"	"STARBUCKS"	"518 HUDSON ST"	"NEW YORK"	"NY"	"10014"	"36"	"061"	"581228"	"581228"	"COFFEE SHOPS"	"72251505"	"SNACK & NONALCOHOLIC BEVERAGE BARS"	40.7337	-74.006
"629369141"	"STARBUCKS"	"164 SMITH ST"	"BROOKLYN"	"NY"	"11201"	"36"	"047"	"581228"	"581208"	"COFFEE SHOPS"	"72251505"	"SNACK & NONALCOHOLIC BEVERAGE BARS"	40.6863	-73.9911
"629068909"	"STARBUCKS"	"2655 RICHMOND AVE # 1485"	"STATEN ISLAND"	"NY"	"10314"	"36"	"085"	"581228"	"581228"	"COFFEE SHOPS"	"72251505"	"SNACK & NONALCOHOLIC BEVERAGE BARS"	40.5812	-74.1661
"623928447"	"STARBUCKS"	"7103 80TH ST # 7103"	"GLENDALE"	"NY"	"11385"	"36"	"081"	"581228"	"581228"	"COFFEE SHOPS"	"72251505"	"SNACK & NONALCOHOLIC BEVERAGE BARS"	40.7079	-73.8694
"619139470"	"STARBUCKS"	"514 86TH ST"	"BROOKLYN"	"NY"	"11209"	"36"	"047"	"581228"	"581228"	"COFFEE SHOPS"	"72251505"	"SNACK & NONALCOHOLIC BEVERAGE BARS"	40.621	-74.026
"617176441"	"STARBUCKS"	"655 LEXINGTON AVE"	"NEW YORK"	"NY"	"10022"	"36"	"061"	"581228"	"581228"	"COFFEE SHOPS"	"72251505"	"SNACK & NONALCOHOLIC BEVERAGE BARS"	40.7595	-73.97
"617176383"	"STARBUCKS"	"1380 AVENUE OF THE AMERICAS"	"NEW YORK"	"NY"	"10019"	"36"	"061"	"581228"	"581228"	"COFFEE SHOPS"	"72251505"	"SNACK & NONALCOHOLIC BEVERAGE BARS"	40.7638	-73.9771
"617176334"	"STARBUCKS"	"1021 3RD AVE"	"NEW YORK"	"NY"	"10065"	"36"	"061"	"581228"	"581208"	"COFFEE SHOPS"	"72251505"	"SNACK & NONALCOHOLIC BEVERAGE BARS"	40.7625	-73.9658
"617176318"	"STARBUCKS"	"731 LEXINGTON AVE # 2"	"NEW YORK"	"NY"	"10022"	"36"	"061"	"581228"	"581228"	"COFFEE SHOPS"	"72251505"	"SNACK & NONALCOHOLIC BEVERAGE BARS"	40.7616	-73.9676
"617041496"	"STARBUCKS"	"3 PARK AVE # 1"	"NEW YORK"	"NY"	"10016"	"36"	"061"	"581228"	"581208"	"COFFEE SHOPS"	"72251505"	"SNACK & NONALCOHOLIC BEVERAGE BARS"	40.7466	-73.9811
"617038708"	"STARBUCKS"	"1535 BROADWAY # 8"	"NEW YORK"	"NY"	"10036"	"36"	"061"	"581228"		"COFFEE SHOPS"	"72251505"	"SNACK & NONALCOHOLIC BEVERAGE BARS"	40.7586	-73.9862
"425417081"	"STARBUCKS"	"8651 BROADWAY"	"ELMHURST"	"NY"	"11373"	"36"	"081"	"581228"	"581228"	"COFFEE SHOPS"	"72251505"	"SNACK & NONALCOHOLIC BEVERAGE BARS"	40.7375	-73.8772
"617020532"	"STARBUCKS"	"870 7TH AVE # 3"	"NEW YORK"	"NY"	"10019"	"36"	"061"	"581228"	"581228"	"COFFEE SHOPS"	"72251505"	"SNACK & NONALCOHOLIC BEVERAGE BARS"	40.7647	-73.9812
"241903160"	"STARBUCKS"	"468 FOREST AVE"	"STATEN ISLAND"	"NY"	"10301"	"36"	"085"	"581228"		"COFFEE SHOPS"	"72251505"	"SNACK & NONALCOHOLIC BEVERAGE BARS"	40.6307	-74.1046
"425870333"	"STARBUCKS"	"219 1ST AVE # 1"	"NEW YORK"	"NY"	"10003"	"36"	"061"	"581228"		"COFFEE SHOPS"	"72251505"	"SNACK & NONALCOHOLIC BEVERAGE BARS"	40.7308	-73.983
"425870335"	"STARBUCKS"	"1140 BROADWAY # 1"	"NEW YORK"	"NY"	"10001"	"36"	"061"	"581228"		"COFFEE SHOPS"	"72251505"	"SNACK & NONALCOHOLIC BEVERAGE BARS"	40.7439	-73.9887
"425870336"	"STARBUCKS"	"600 MADISON AVE # D"	"NEW YORK"	"NY"	"10022"	"36"	"061"	"581228"		"COFFEE SHOPS"	"72251505"	"SNACK & NONALCOHOLIC BEVERAGE BARS"	40.7629	-73.9724
"605032531"	"STARBUCKS"	"3035 CROPSEY AVE"	"BROOKLYN"	"NY"	"11224"	"36"	"047"	"581228"	"581228"	"COFFEE SHOPS"	"72251505"	"SNACK & NONALCOHOLIC BEVERAGE BARS"	40.581	-73.9855
"425870339"	"STARBUCKS"	"350 W 42ND ST"	"NEW YORK"	"NY"	"10036"	"36"	"061"	"581228"	"581228"	"COFFEE SHOPS"	"72251505"	"SNACK & NONALCOHOLIC BEVERAGE BARS"	40.7579	-73.9922
"425870340"	"STARBUCKS"	"805 COLUMBUS AVE # 2"	"NEW YORK"	"NY"	"10025"	"36"	"061"	"581228"	"581228"	"COFFEE SHOPS"	"72251505"	"SNACK & NONALCOHOLIC BEVERAGE BARS"	40.795	-73.9656
"425870341"	"STARBUCKS"	"50 LEXINGTON AVE # 4"	"NEW YORK"	"NY"	"10010"	"36"	"061"	"581228"	"581228"	"COFFEE SHOPS"	"72251505"	"SNACK & NONALCOHOLIC BEVERAGE BARS"	40.7405	-73.9843
"427833233"	"STATEN HOUSE COFFEE"		"STATEN ISLAND"	"NY"	"10309"	"36"	"085"	"581228"		"COFFEE SHOPS"	"72251505"	"SNACK & NONALCOHOLIC BEVERAGE BARS"	40.5275	-74.2163
"414424364"	"STEEPLECHASE COFFEE"	"3013 FORT HAMILTON PKWY"	"BROOKLYN"	"NY"	"11218"	"36"	"047"	"581228"		"COFFEE SHOPS"	"72251505"	"SNACK & NONALCOHOLIC BEVERAGE BARS"	40.6485	-73.9789
"408326972"	"ST MARK'S COFFEE & TEA INC"	"40 ONE HALF STREET MARKS PL"	"NEW YORK"	"NY"	"10003"	"36"	"061"	"581228"		"COFFEE SHOPS"	"72251505"	"SNACK & NONALCOHOLIC BEVERAGE BARS"	40.7314	-73.9886
"427506036"	"STUMPTOWN COFFEE ROASTERS"	"30 W 8TH ST"	"NEW YORK"	"NY"	"10011"	"36"	"061"	"581228"		"COFFEE SHOPS"	"72251505"	"SNACK & NONALCOHOLIC BEVERAGE BARS"	40.7327	-73.998
"423470903"	"STUMPTOWN COFFEE ROASTERS"	"219 VAN BRUNT ST"	"BROOKLYN"	"NY"	"11231"	"36"	"047"	"581228"		"COFFEE SHOPS"	"72251505"	"SNACK & NONALCOHOLIC BEVERAGE BARS"	40.6808	-74.0084
"402828533"	"STUMPTOWN COFFEE ROASTERS"	"77 COMMERCE ST # A"	"BROOKLYN"	"NY"	"11231"	"36"	"047"	"581228"	"581228"	"COFFEE SHOPS"	"72251505"	"SNACK & NONALCOHOLIC BEVERAGE BARS"	40.6806	-74.0084
"422294059"	"SWEET LEAF COFFEE"	"135 KENT AVE # 1"	"BROOKLYN"	"NY"	"11249"	"36"	"047"	"581228"		"COFFEE SHOPS"	"72251505"	"SNACK & NONALCOHOLIC BEVERAGE BARS"	40.7194	-73.9622
"436682145"	"TA 40 CAFE INC"	"6604 BAY PKWY"	"BROOKLYN"	"NY"	"11204"	"36"	"047"	"581228"		"COFFEE SHOPS"	"72251505"	"SNACK & NONALCOHOLIC BEVERAGE BARS"	40.6132	-73.9824
"425988790"	"TASZO COFFEE LLC"	"5 EDWARD M MORGAN PL"	"NEW YORK"	"NY"	"10032"	"36"	"061"	"581228"		"COFFEE SHOPS"	"72251505"	"SNACK & NONALCOHOLIC BEVERAGE BARS"	40.8338	-73.9452
"433208625"	"TEA CUP CAFE"	"7623 WOODSIDE AVE"	"ELMHURST"	"NY"	"11373"	"36"	"081"	"581228"		"COFFEE SHOPS"	"72251505"	"SNACK & NONALCOHOLIC BEVERAGE BARS"	40.7435	-73.8887
"222445033"	"TEA LOUNGE"	"837 UNION ST"	"BROOKLYN"	"NY"	"11215"	"36"	"047"	"581228"	"581228"	"COFFEE SHOPS"	"72251505"	"SNACK & NONALCOHOLIC BEVERAGE BARS"	40.6749	-73.976
"655119394"	"TEN REN TEA TIME"	"79 MOTT ST # 75"	"NEW YORK"	"NY"	"10013"	"36"	"061"	"581228"	"581208"	"COFFEE SHOPS"	"72251505"	"SNACK & NONALCOHOLIC BEVERAGE BARS"	40.7165	-73.9982
"403168447"	"TERRACE COFFEE SHOP"	"598 19TH ST"	"BROOKLYN"	"NY"	"11218"	"36"	"047"	"581228"		"COFFEE SHOPS"	"72251505"	"SNACK & NONALCOHOLIC BEVERAGE BARS"	40.6543	-73.9791
"618846505"	"TETE-A-TETE"	"2601 E 14TH ST"	"BROOKLYN"	"NY"	"11235"	"36"	"047"	"581228"	"581208"	"COFFEE SHOPS"	"72251505"	"SNACK & NONALCOHOLIC BEVERAGE BARS"	40.5878	-73.9551
"606125516"	"THANDA PLACE"	"5624 8TH AVE"	"BROOKLYN"	"NY"	"11220"	"36"	"047"	"581228"		"COFFEE SHOPS"	"72251505"	"SNACK & NONALCOHOLIC BEVERAGE BARS"	40.6374	-74.0079
"391139284"	"THINK COFFEE"	"248 MERCER ST"	"NEW YORK"	"NY"	"10012"	"36"	"061"	"581228"	"581208"	"COFFEE SHOPS"	"72251505"	"SNACK & NONALCOHOLIC BEVERAGE BARS"	40.7281	-73.9955
"414520622"	"THINK COFFEE"	"73 8TH AVE # A"	"NEW YORK"	"NY"	"10014"	"36"	"061"	"581228"	"581228"	"COFFEE SHOPS"	"72251505"	"SNACK & NONALCOHOLIC BEVERAGE BARS"	40.7396	-74.0031
"666603352"	"THINK COFFEE LLC"	"1 BLEECKER ST # A"	"NEW YORK"	"NY"	"10012"	"36"	"061"	"581228"	"581208"	"COFFEE SHOPS"	"72251505"	"SNACK & NONALCOHOLIC BEVERAGE BARS"	40.7254	-73.9925
"400607497"	"THINK COFFEE LLC"	"123 4TH AVE # B"	"NEW YORK"	"NY"	"10003"	"36"	"061"	"581228"		"COFFEE SHOPS"	"72251505"	"SNACK & NONALCOHOLIC BEVERAGE BARS"	40.733	-73.9898
"613183078"	"TIMEOUT CAFE"	"6 W 4TH ST"	"NEW YORK"	"NY"	"10012"	"36"	"061"	"581228"		"COFFEE SHOPS"	"72251505"	"SNACK & NONALCOHOLIC BEVERAGE BARS"	40.7285	-73.9946
"706169640"	"TIM HORTONS"	"2 PENN PLZ"	"NEW YORK"	"NY"	"10121"	"36"	"061"	"546105"	"581228"	"DOUGHNUTS"	"72251510"	"SNACK & NONALCOHOLIC BEVERAGE BARS"	40.7496	-73.9916
"705108141"	"TIM HORTONS"	"62 E 34TH ST"	"NEW YORK"	"NY"	"10016"	"36"	"061"	"546105"	"581228"	"DOUGHNUTS"	"72251510"	"SNACK & NONALCOHOLIC BEVERAGE BARS"	40.7472	-73.9817
"706169523"	"TIM HORTONS"	"47 E 42ND ST"	"NEW YORK"	"NY"	"10017"	"36"	"061"	"546105"	"581228"	"DOUGHNUTS"	"72251510"	"SNACK & NONALCOHOLIC BEVERAGE BARS"	40.7527	-73.9787
"706169563"	"TIM HORTONS"	"1021 AVENUE OF THE AMERICAS"	"NEW YORK"	"NY"	"10018"	"36"	"061"	"546105"	"581228"	"DOUGHNUTS"	"72251510"	"SNACK & NONALCOHOLIC BEVERAGE BARS"	40.7525	-73.9861
"707112126"	"TIM HORTONS"	"1700 RICHMOND AVE"	"STATEN ISLAND"	"NY"	"10314"	"36"	"085"	"546105"	"581228"	"DOUGHNUTS"	"72251510"	"SNACK & NONALCOHOLIC BEVERAGE BARS"	40.6069	-74.1628
"616993960"	"TIMOTHY'S COFFEES OF THE WORLD"	"122 E 42ND ST"	"NEW YORK"	"NY"	"10168"	"36"	"061"	"581228"	"581228"	"COFFEE SHOPS"	"72251505"	"SNACK & NONALCOHOLIC BEVERAGE BARS"	40.7511	-73.9763
"437112102"	"TINTO"	"715 NOSTRAND AVE"	"BROOKLYN"	"NY"	"11216"	"36"	"047"	"581228"	"581228"	"COFFEE SHOPS"	"72251505"	"SNACK & NONALCOHOLIC BEVERAGE BARS"	40.6727	-73.9501
"558494563"	"TIRAMISU"	"6454 DRY HARBOR RD"	"MIDDLE VILLAGE"	"NY"	"11379"	"36"	"081"	"581228"	"581228"	"COFFEE SHOPS"	"72251505"	"SNACK & NONALCOHOLIC BEVERAGE BARS"	40.7184	-73.8729
"421916257"	"TOBY'S ESTATE COFFEE"	"125 N 6TH ST"	"BROOKLYN"	"NY"	"11249"	"36"	"047"	"581228"	"581228"	"COFFEE SHOPS"	"72251505"	"SNACK & NONALCOHOLIC BEVERAGE BARS"	40.7181	-73.9594
"421180047"	"TOMPKINS COFFEHOUSE"	"376 TOMPKINS AVE"	"BROOKLYN"	"NY"	"11216"	"36"	"047"	"581228"		"COFFEE SHOPS"	"72251505"	"SNACK & NONALCOHOLIC BEVERAGE BARS"	40.6844	-73.9444
"417168779"	"TWININGS TEA RESPONSE CTR INC"	"440 W 13TH ST"	"NEW YORK"	"NY"	"10014"	"36"	"061"	"581228"	"581228"	"COFFEE SHOPS"	"72251505"	"SNACK & NONALCOHOLIC BEVERAGE BARS"	40.7413	-74.0083
"425476316"	"TY'S PLACE"	"1074 LIBERTY AVE"	"BROOKLYN"	"NY"	"11208"	"36"	"047"	"581228"		"COFFEE SHOPS"	"72251505"	"SNACK & NONALCOHOLIC BEVERAGE BARS"	40.6782	-73.8695
"417540106"	"ULHENE COFFEE SHOP"	"2704 WILLIAMSBRIDGE RD"	"BRONX"	"NY"	"10469"	"36"	"005"	"581228"	"581228"	"COFFEE SHOPS"	"72251505"	"SNACK & NONALCOHOLIC BEVERAGE BARS"	40.8663	-73.8603
"433341242"	"UNCOMMONS"	"230 THOMPSON ST # A"	"NEW YORK"	"NY"	"10012"	"36"	"061"	"581228"		"COFFEE SHOPS"	"72251505"	"SNACK & NONALCOHOLIC BEVERAGE BARS"	40.7293	-73.9986
"415261658"	"UPRIGHT COFFEE"	"860 MANHATTAN AVE # 2"	"BROOKLYN"	"NY"	"11222"	"36"	"047"	"581228"		"COFFEE SHOPS"	"72251505"	"SNACK & NONALCOHOLIC BEVERAGE BARS"	40.7293	-73.9536
"427505229"	"UR CUP"	"220 8TH AVE"	"NEW YORK"	"NY"	"10011"	"36"	"061"	"581228"		"COFFEE SHOPS"	"72251505"	"SNACK & NONALCOHOLIC BEVERAGE BARS"	40.7441	-73.9992
"421948141"	"V BAR & CAFE"	"225 SULLIVAN ST # A"	"NEW YORK"	"NY"	"10012"	"36"	"061"	"581228"		"COFFEE SHOPS"	"72251505"	"SNACK & NONALCOHOLIC BEVERAGE BARS"	40.7295	-73.9995
"403130670"	"VIKING SKY INC"	"343 FRANKLIN AVE"	"BROOKLYN"	"NY"	"11238"	"36"	"047"	"581228"		"COFFEE SHOPS"	"72251505"	"SNACK & NONALCOHOLIC BEVERAGE BARS"	40.6877	-73.9568
"579370040"	"VIOLET CAFE"	"79 WASHINGTON SQ E"	"NEW YORK"	"NY"	"10003"	"36"	"061"	"581228"	"581228"	"COFFEE SHOPS"	"72251505"	"SNACK & NONALCOHOLIC BEVERAGE BARS"	40.7296	-73.9962
"408353339"	"WASHINGTON COFFEE SUPPLIES"	"442 WASHINGTON ST"	"NEW YORK"	"NY"	"10013"	"36"	"061"	"581228"	"596307"	"COFFEE SHOPS"	"72251505"	"SNACK & NONALCOHOLIC BEVERAGE BARS"	40.7238	-74.0105
"629072745"	"WATERS EDGE COFFEE SHOP"	"977 BAY ST"	"STATEN ISLAND"	"NY"	"10305"	"36"	"085"	"581228"		"COFFEE SHOPS"	"72251505"	"SNACK & NONALCOHOLIC BEVERAGE BARS"	40.6189	-74.0693
"427300712"	"WAYSIDE"	"139 E 12TH ST"	"NEW YORK"	"NY"	"10003"	"36"	"061"	"581228"		"COFFEE SHOPS"	"72251505"	"SNACK & NONALCOHOLIC BEVERAGE BARS"	40.7322	-73.9883
"403360304"	"WEST CAFE"	"379 UNION AVE"	"BROOKLYN"	"NY"	"11211"	"36"	"047"	"581228"		"COFFEE SHOPS"	"72251505"	"SNACK & NONALCOHOLIC BEVERAGE BARS"	40.7118	-73.9515
"706512701"	"WHITE COFFEE CORP"	"601 W 26TH ST"	"NEW YORK"	"NY"	"10001"	"36"	"061"	"581228"		"COFFEE SHOPS"	"72251505"	"SNACK & NONALCOHOLIC BEVERAGE BARS"	40.7516	-74.0066
"422303576"	"WILLIAM BLUE LLC"	"90 WILLIAM ST"	"NEW YORK"	"NY"	"10038"	"36"	"061"	"581228"		"COFFEE SHOPS"	"72251505"	"SNACK & NONALCOHOLIC BEVERAGE BARS"	40.7082	-74.0078
"700653414"	"WISE ESPRESSO BAR"	"3120 CONEY ISLAND AVE"	"BROOKLYN"	"NY"	"11235"	"36"	"047"	"581228"		"COFFEE SHOPS"	"72251505"	"SNACK & NONALCOHOLIC BEVERAGE BARS"	40.5799	-73.9601
"434937399"	"YOGURUTO & COFFEE BEAN"		"NEW YORK"	"NY"	"10016"	"36"	"061"	"581228"		"COFFEE SHOPS"	"72251505"	"SNACK & NONALCOHOLIC BEVERAGE BARS"	40.7459	-73.9795
"682923073"	"YOGURUTO & COFFEE BEAN INC"	"204 SPRING ST"	"NEW YORK"	"NY"	"10012"	"36"	"061"	"581228"	"581228"	"COFFEE SHOPS"	"72251505"	"SNACK & NONALCOHOLIC BEVERAGE BARS"	40.7251	-74.0037
"434937400"	"YORKAFE INC"	"501 E 83RD ST"	"NEW YORK"	"NY"	"10028"	"36"	"061"	"581228"		"COFFEE SHOPS"	"72251505"	"SNACK & NONALCOHOLIC BEVERAGE BARS"	40.7739	-73.948
"558521845"	"YORKVILLE COFFEE"	"123 47TH ST"	"BROOKLYN"	"NY"	"11232"	"36"	"047"	"581228"	"581208"	"COFFEE SHOPS"	"72251505"	"SNACK & NONALCOHOLIC BEVERAGE BARS"	40.6519	-74.0167
"421178375"	"ZAIM COFFEE SHOP"	"1102 SAINT JOHNS PL"	"BROOKLYN"	"NY"	"11213"	"36"	"047"	"581228"		"COFFEE SHOPS"	"72251505"	"SNACK & NONALCOHOLIC BEVERAGE BARS"	40.6711	-73.9419
"401485993"	"ZIBETTO ESPRESSO BAR"	"102 FULTON ST"	"NEW YORK"	"NY"	"10038"	"36"	"061"	"581228"	"581228"	"COFFEE SHOPS"	"72251505"	"SNACK & NONALCOHOLIC BEVERAGE BARS"	40.7095	-74.0069
